<?xml version="1.0" encoding="UTF-8"?>
<kml xmlns="http://www.opengis.net/kml/2.2"><Document><name>IP Terminal — Climate</name><Style id="Conflict"><IconStyle><color>ff3a47b0</color><scale>0.9</scale><Icon><href>http://maps.google.com/mapfiles/kml/shapes/placemark_circle.png</href></Icon></IconStyle></Style><Style id="Climate"><IconStyle><color>ff6b7d2e</color><scale>0.9</scale><Icon><href>http://maps.google.com/mapfiles/kml/shapes/placemark_circle.png</href></Icon></IconStyle></Style><Style id="Nexus"><IconStyle><color>ff8a4a5b</color><scale>0.9</scale><Icon><href>http://maps.google.com/mapfiles/kml/shapes/placemark_circle.png</href></Icon></IconStyle></Style><Style id="Other"><IconStyle><color>ff9aa0a7</color><scale>0.9</scale><Icon><href>http://maps.google.com/mapfiles/kml/shapes/placemark_circle.png</href></Icon></IconStyle></Style><Placemark><name>Chor Khola landslide blocks Rapti highway</name><styleUrl>#Climate</styleUrl><description><![CDATA[RSNP · Mon, 05 Oct 2026 07:55:51 GMT<br/><a href="https://news.google.com/rss/articles/CBMiUEFVX3lxTE5Ua3VpMTdmQjBvVEYySkpHVlJJQU1JWFFCaXR0Zzl5bDA1eGluSUlDTGFJM05oT1hMcTVyWUNJdXdnUkpOcEZFUXlfdERTdEZl?oc=5">open article</a>]]></description><Point><coordinates>84,28.2,0</coordinates></Point></Placemark>
<Placemark><name>Green flood alert in Thailand</name><styleUrl>#Climate</styleUrl><description><![CDATA[GDAC · Mon, 05 Oct 2026 07:49:12 GMT<br/><a href="https://www.gdacs.org/report.aspx?eventtype=FL&eventid=1104169">open article</a>]]></description><Point><coordinates>101,15,0</coordinates></Point></Placemark>
<Placemark><name>Habagat season officially over; Pagasa sees shift in weather</name><styleUrl>#Climate</styleUrl><description><![CDATA[INQ · Mon, 05 Oct 2026 07:45:00 GMT<br/><a href="https://cebudailynews.inquirer.net/772448/habagat-season-officially-over-pagasa-sees-shift-in-weather">open article</a>]]></description><Point><coordinates>123.9,10.32,0</coordinates></Point></Placemark>
<Placemark><name>SI suspended for pointing pistol at flood victim during distribution of relief materials in Bihar’s Saran</name><styleUrl>#Climate</styleUrl><description><![CDATA[HIND · Mon, 05 Oct 2026 07:40:44 GMT<br/><a href="https://www.thehindu.com/news/national/bihar/si-suspended-for-pointing-pistol-at-flood-victim-during-distribution-of-relief-materials-in-bihars-saran/article71545906.ece">open article</a>]]></description><Point><coordinates>79.6,22.9,0</coordinates></Point></Placemark>
<Placemark><name>Police Evacuate 75 Chinese Workers After Clash in Morowali</name><styleUrl>#Climate</styleUrl><description><![CDATA[JKGL · Mon, 05 Oct 2026 07:30:00 GMT<br/><a href="https://news.google.com/rss/articles/CBMikAFBVV95cUxPT3hXckZQY1JsWEpFWXpmWUFDUUU2TGpLbFJpRDVIS1BvbGFwTHhiY3ItR0xZazk3aTJZOUM2QmFCNmRrS3BZRWlZM3NoeEN2TWEza2RGZU5pbldRbC1aSGFuN1A0bExWck5ZLXZScVRNbWZJV05Oa3JFV3lBMkdsV2puRHNXdHdiRGE2eUIxZkU?oc=5">open article</a>]]></description><Point><coordinates>110,32,0</coordinates></Point></Placemark>
<Placemark><name>PM Balen Shah says government continues disaster response without compromise</name><styleUrl>#Climate</styleUrl><description><![CDATA[OKHB · Mon, 05 Oct 2026 07:27:02 GMT<br/><a href="https://english.onlinekhabar.com/balen-shah-disaster-response.html">open article</a>]]></description><Point><coordinates>85.32,27.71,0</coordinates></Point></Placemark>
<Placemark><name>Malaysia eyes permanent F1 comeback despite travel chaos at Bahrain GP</name><styleUrl>#Climate</styleUrl><description><![CDATA[SCMP · Mon, 05 Oct 2026 07:08:26 GMT<br/><a href="https://www.scmp.com/week-asia/lifestyle-culture/article/3369773/malaysia-eyes-permanent-f1-comeback-despite-travel-chaos-bahrain-gp?utm_source=rss_feed">open article</a>]]></description><Point><coordinates>102.3,4,0</coordinates></Point></Placemark>
<Placemark><name>Siang hyropower project aims to regulate waters storage, reduce flood risk: Arunachal deputy CM</name><styleUrl>#Climate</styleUrl><description><![CDATA[HT · Mon, 05 Oct 2026 06:58:17 GMT<br/><a href="https://www.hindustantimes.com/india-news/siang-hyropower-project-aims-to-regulate-waters-storage-reduce-flood-risk-arunachal-deputy-cm-101791183498465.html">open article</a>]]></description><Point><coordinates>94.7,28.2,0</coordinates></Point></Placemark>
<Placemark><name>Tourist numbers rise at Annapurna Base Camp as roads reopen</name><styleUrl>#Climate</styleUrl><description><![CDATA[OKHB · Mon, 05 Oct 2026 06:51:46 GMT<br/><a href="https://english.onlinekhabar.com/tourist-rise-annapurna-base-camp.html">open article</a>]]></description><Point><coordinates>83.99,28.21,0</coordinates></Point></Placemark>
<Placemark><name>Pagasa declares end of ‘habagat’ season</name><styleUrl>#Climate</styleUrl><description><![CDATA[INQ · Mon, 05 Oct 2026 06:39:46 GMT<br/><a href="https://newsinfo.inquirer.net/2317360/pagasa-declares-end-of-habagat-season-2">open article</a>]]></description><Point><coordinates>120.98,14.6,0</coordinates></Point></Placemark>
<Placemark><name>PAGASA marks end of southwest monsoon</name><styleUrl>#Climate</styleUrl><description><![CDATA[BWLD · Mon, 05 Oct 2026 06:31:20 GMT<br/><a href="https://bworldonline.com/the-nation/2026/10/05/784439/pagasa-marks-end-of-southwest-monsoon/">open article</a>]]></description><Point><coordinates>121.8,12.9,0</coordinates></Point></Placemark>
<Placemark><name>Pet lovers upset by PM's 'save humans first' flood directive</name><styleUrl>#Climate</styleUrl><description><![CDATA[BKKP · Mon, 05 Oct 2026 06:31:00 GMT<br/><a href="https://www.bangkokpost.com/thailand/general/3331625/pet-lovers-upset-by-pms-save-humans-first-flood-directive">open article</a>]]></description><Point><coordinates>101,15,0</coordinates></Point></Placemark>
<Placemark><name>Drought, poverty leave family in makeshift home in Herat</name><styleUrl>#Climate</styleUrl><description><![CDATA[AMU · Mon, 05 Oct 2026 06:07:34 GMT<br/><a href="https://amu.tv/253765/">open article</a>]]></description><Point><coordinates>62.2,34.35,0</coordinates></Point></Placemark>
<Placemark><name>The cancer risks you breathe, chew and drink</name><styleUrl>#Climate</styleUrl><description><![CDATA[TOI · Mon, 05 Oct 2026 05:45:30 GMT<br/><a href="https://timesofindia.indiatimes.com/health/the-cancer-risks-you-breathe-chew-and-drink-oncologist-shares-why-india-cannot-ignore-tobacco-alcohol-and-air-pollution/articleshow/134687125.cms">open article</a>]]></description><Point><coordinates>79.6,22.9,0</coordinates></Point></Placemark>
<Placemark><name>DA: Fuel subsidies for farmers, fisherfolk to start soon amid El Niño threat</name><styleUrl>#Climate</styleUrl><description><![CDATA[GMA · Mon, 05 Oct 2026 05:35:09 GMT<br/><a href="https://www.gmanetwork.com/news/topstories/nation/1004767/da-fuel-subsidies-for-farmers-fisherfolk-to-start-soon-amid-el-ni-o-threat/story/">open article</a>]]></description><Point><coordinates>121.8,12.9,0</coordinates></Point></Placemark>
<Placemark><name>Protester at Jantar Mantar takes bus key and flees; cops end up pushing vehicle</name><styleUrl>#Climate</styleUrl><description><![CDATA[TOI · Mon, 05 Oct 2026 05:03:55 GMT<br/><a href="https://timesofindia.indiatimes.com/city/delhi/woman-protestor-at-jantar-mantar-takes-bus-key-and-flees-cops-push-bus-after-it-gets-stranded/articleshow/134686185.cms">open article</a>]]></description><Point><coordinates>77.21,28.61,0</coordinates></Point></Placemark>
<Placemark><name>Motorists search for licence plates swept away by floodwaters</name><styleUrl>#Climate</styleUrl><description><![CDATA[TPBS · Mon, 05 Oct 2026 04:59:20 GMT<br/><a href="https://news.google.com/rss/articles/CBMiYEFVX3lxTE1PZjliTW5DRTZwMGFIbFpfWWRlVlNyQVBkU0ZGdmt5VDJlWi1xWnY4OHlramx6WWotSlU5QTJBWEJUMElfSzA4VkJweC1UOEE2aUNER0VpSkZjQ0JielEyLQ?oc=5">open article</a>]]></description><Point><coordinates>101,15,0</coordinates></Point></Placemark>
<Placemark><name>Air quality hits unhealthy range in central, western Singapore</name><styleUrl>#Climate</styleUrl><description><![CDATA[CNA · Mon, 05 Oct 2026 04:49:00 GMT<br/><a href="https://www.channelnewsasia.com/singapore/haze-air-quality-unhealthy-psi-oct-5-6432266">open article</a>]]></description><Point><coordinates>101.3,-0.6,0</coordinates></Point></Placemark>
<Placemark><name>Toxic flood worries in industrial Prachin Buri</name><styleUrl>#Climate</styleUrl><description><![CDATA[BKKP · Mon, 05 Oct 2026 04:40:00 GMT<br/><a href="https://www.bangkokpost.com/thailand/general/3331620/toxic-flood-worries-in-industrial-prachin-buri">open article</a>]]></description><Point><coordinates>101,15,0</coordinates></Point></Placemark>
<Placemark><name>Chitwan National Park preparing to reopen jeep safari from Friday</name><styleUrl>#Climate</styleUrl><description><![CDATA[OKHB · Mon, 05 Oct 2026 04:08:57 GMT<br/><a href="https://english.onlinekhabar.com/jeep-safari-from-friday.html">open article</a>]]></description><Point><coordinates>84,28.2,0</coordinates></Point></Placemark>
<Placemark><name>Extreme Heat Putting Pregnant Women, Newborns At Risk: UN Climate Chief</name><styleUrl>#Climate</styleUrl><description><![CDATA[CNSS · Mon, 05 Oct 2026 03:54:07 GMT<br/><a href="https://news.google.com/rss/articles/CBMipAFBVV95cUxNeUZnenNDSl9UOGlFS1FmcHdCRkl4MWJaYmRqNGswUkpCUmJQV3VKem11OU5lUTNhemNtWldENkVsb0doVHR3bWUzeXh4cVVpMDc4ZFI5d2hKaTFPcExYVE53TG44Ml96REtWY0JHbUloN1M3Q2UwcUJFbk5ZNzBzVklQaUV0TnQ5SE1JZVBoOWVBbmlMbWVPX0ZqV1Y0RFhkWEU0MA?oc=5">open article</a>]]></description><Point><coordinates>104.9,12.5,0</coordinates></Point></Placemark>
<Placemark><name>Bihar cop suspended after video shows him brandishing pistol at flood-hit people</name><styleUrl>#Climate</styleUrl><description><![CDATA[TOI · Mon, 05 Oct 2026 03:44:53 GMT<br/><a href="https://timesofindia.indiatimes.com/city/patna/gross-negligence-of-duty-bihar-cop-suspended-after-video-shows-him-brandishing-pistol-during-flood-relief-distribution/articleshow/134684741.cms">open article</a>]]></description><Point><coordinates>79.6,22.9,0</coordinates></Point></Placemark>
<Placemark><name>Trough of Super Typhoon Choi-Wan brings rain over Visayas, Mindanao — PAGASA</name><styleUrl>#Climate</styleUrl><description><![CDATA[BWLD · Mon, 05 Oct 2026 03:34:07 GMT<br/><a href="https://bworldonline.com/the-nation/2026/10/05/784397/trough-of-super-typhoon-choi-wan-brings-rain-over-visayas-mindanao-pagasa/">open article</a>]]></description><Point><coordinates>125,7.5,0</coordinates></Point></Placemark>
<Placemark><name>Niah’s Great Cave reopens, and the flood detour has become an attraction in itself</name><styleUrl>#Climate</styleUrl><description><![CDATA[MMAI · Mon, 05 Oct 2026 03:25:32 GMT<br/><a href="https://www.malaymail.com/news/malaysia/2026/10/05/niahs-great-cave-reopens-and-the-flood-detour-has-become-an-attraction-in-itself/237743">open article</a>]]></description><Point><coordinates>102.3,4,0</coordinates></Point></Placemark>
<Placemark><name>Rescue efforts stepped up in flood-hit Taninthayi</name><styleUrl>#Climate</styleUrl><description><![CDATA[GNLM · Mon, 05 Oct 2026 02:09:22 GMT<br/><a href="https://www.gnlm.com.mm/rescue-efforts-stepped-up-in-flood-hit-taninthayi/">open article</a>]]></description><Point><coordinates>96.1,21,0</coordinates></Point></Placemark>
<Placemark><name>Extreme heat putting pregnant women, newborns at risk: UN climate chief - ABS-CBN</name><styleUrl>#Climate</styleUrl><description><![CDATA[ABS · Sun, 04 Oct 2026 23:43:00 GMT<br/><a href="https://news.google.com/rss/articles/CBMiyAFBVV95cUxQVFV6ZmJ4Z3AyQXRCaHlhVkFRa3JXUW5nQVRHSXNyOFRfOFU0azU0elBFUHlKNi00eGVOZ0RmNlRINm9xX08zQ2FhM2wwRzR0NTBTeGRMd2VBVFBZQUpMc0RZV1lraFhHLUdfYUJfdXZ2cFpzVS1xczA5WjY3MW5ndUdhbUprTnlFMzZReDNOb2s5Z1JPZV9ydzVQUXF1RTljN2V5ejJNNWs2NU1ZelZqNFlKMkVuU2F0M3BzeVQ1TDhZT3FKbDAxeA?oc=5">open article</a>]]></description><Point><coordinates>121.8,12.9,0</coordinates></Point></Placemark>
<Placemark><name>Businesses brace for future floods by building better</name><styleUrl>#Climate</styleUrl><description><![CDATA[BKKP · Sun, 04 Oct 2026 22:02:00 GMT<br/><a href="https://www.bangkokpost.com/business/general/3331529/businesses-brace-for-future-floods-by-building-better">open article</a>]]></description><Point><coordinates>100.5,13.76,0</coordinates></Point></Placemark>
<Placemark><name>Flood diversion plan faces scrutiny</name><styleUrl>#Climate</styleUrl><description><![CDATA[BKKP · Sun, 04 Oct 2026 21:42:00 GMT<br/><a href="https://www.bangkokpost.com/thailand/general/3331464/flood-diversion-plan-faces-scrutiny">open article</a>]]></description><Point><coordinates>101,15,0</coordinates></Point></Placemark>
<Placemark><name>Fight for food in flooded airport: Bangladesh athletes narrate terrifying experience</name><styleUrl>#Climate</styleUrl><description><![CDATA[NAGE · Sun, 04 Oct 2026 18:00:00 GMT<br/><a href="https://news.google.com/rss/articles/CBMiogFBVV95cUxPNUZ0NDA2OWVjcC1VQjIxRUhwTWMwUXRyN3lhSXB4dVRVX0hmWlFTZ3ZkaFJ6b2lReDV0d19KT183OFEzaHlIRDJfekpmUkhqd25STWFSZnVKWHZnbnJVUUtFaUlTSXMza1JBZW5kMDd0cDBvNmVYZ1cwTUNiTkdzSjMtNDhTUFQxVmhqdGVCTm1UZlRXXy1qVVV0MkpFcVNqRGc?oc=5">open article</a>]]></description><Point><coordinates>90.4,23.7,0</coordinates></Point></Placemark>
<Placemark><name>Angelina Jolie Shares Satellite Images Showing Gaza Neighborhoods Reduced to Rubble</name><styleUrl>#Climate</styleUrl><description><![CDATA[KHAM · Sun, 04 Oct 2026 14:46:45 GMT<br/><a href="https://www.khaama.com/angelina-jolie-shares-satellite-images-showing-gaza-neighborhoods-reduced-to-rubble/">open article</a>]]></description><Point><coordinates>67.7,33.9,0</coordinates></Point></Placemark>
<Placemark><name>Landslide warnings issued for 13 divisional secretariat areas</name><styleUrl>#Climate</styleUrl><description><![CDATA[ADAD · Sun, 04 Oct 2026 14:26:11 GMT<br/><a href="https://news.google.com/rss/articles/CBMiYEFVX3lxTE8wZE5ra2U5QWpPTkNsM1Nxb2xRaTF2eGRkS0R4WFJQdVVxMFhQUWo3eUlDR0l3bE9kaV9USkR1MEtXQ05EZkdTZWJIVTU2ZE5JUjZ5UEdQaURqcmdLZDlTZw?oc=5">open article</a>]]></description><Point><coordinates>80.7,7.9,0</coordinates></Point></Placemark>
<Placemark><name>The week in pictures: Disaster averted on Flydubai flight, French school protests and Bangkok floods</name><styleUrl>#Climate</styleUrl><description><![CDATA[F24 · Sun, 04 Oct 2026 13:35:11 GMT<br/><a href="https://www.france24.com/en/middle-east/20261004-the-week-in-pictures-disaster-averted-flydubai-flight-french-school-protests-and-bangkok-floods">open article</a>]]></description><Point><coordinates>100.5,13.76,0</coordinates></Point></Placemark>
<Placemark><name>Air quality back into unhealthy range in central, west Singapore</name><styleUrl>#Climate</styleUrl><description><![CDATA[CNA · Sun, 04 Oct 2026 13:35:00 GMT<br/><a href="https://www.channelnewsasia.com/singapore/air-quality-unhealthy-range-central-west-singapore-haze-6430901">open article</a>]]></description><Point><coordinates>103.82,1.35,0</coordinates></Point></Placemark>
<Placemark><name>DDPM reports 3.26m people hit by Thai floods on Oct 4</name><styleUrl>#Climate</styleUrl><description><![CDATA[NATH · Sun, 04 Oct 2026 09:43:00 GMT<br/><a href="https://news.google.com/rss/articles/CBMiYkFVX3lxTE95YUlqdHM1ZE1ZME1JWDZjaVVvNlJUNjFDazJVcmhHVlJmSWxGVVRsUFBERGJzOGpxYVFrUkNsLWpYS2FHaXBlQ2dTY3AySUxZWmM3Q000Vmkyekp5T0pISDFR?oc=5">open article</a>]]></description><Point><coordinates>101,15,0</coordinates></Point></Placemark>
<Placemark><name>Two dead in flooding in Spain's Catalonia region</name><styleUrl>#Climate</styleUrl><description><![CDATA[BREC · Sun, 04 Oct 2026 09:38:34 GMT<br/><a href="https://news.google.com/rss/articles/CBMiUEFVX3lxTE9uTE14NFRGS0RBVjB5Q0tKWXg4TTFXc2JrQUpJV2txdTBjeE92SkNsNlFkNDU5dklIMjZOaHp2dmlieHdFQUZnajJZSk1fYkMy0gFWQVVfeXFMUDhuYUdjejdoSHdZQ1VmZ1drbTJOV08wZ1FaU3h6TTdKbzNZWjBjemtvbnRkSURBOGthLUM5OFJwdmN1RzRPbnZSY1JyLURIdDdCTmZoeHc?oc=5">open article</a>]]></description><Point><coordinates>69.3,30.4,0</coordinates></Point></Placemark>
<Placemark><name>Two teenage sisters reported missing after leaving home</name><styleUrl>#Climate</styleUrl><description><![CDATA[NST · Sun, 04 Oct 2026 07:00:00 GMT<br/><a href="https://news.google.com/rss/articles/CBMiqgFBVV95cUxNZEtPUjVZSWFidTRkRUo2RlFrU2V1M0x6eHd2NzRiQzI0M2Q0QU5YUTIyaUZkdWkxVEF4clNNdEV5TUhfalMtbENCTVBXc0pYVTBteHFCR2hyYjh3a1BtVy1MVnV2VHJGSUE2cnhoTUR6YWQ2LXE1YU5TOVVNSGJHTkptRFE4SU0yazE0VGJoSlJ5V1FmQUNnZUpUQS1CQ3FxV05rU0t5SENDZw?oc=5">open article</a>]]></description><Point><coordinates>102.3,4,0</coordinates></Point></Placemark>
<Placemark><name>Malaysia, Thailand Agree On Mechanism To Streamline Flood Aid Distribution</name><styleUrl>#Climate</styleUrl><description><![CDATA[BERN · Sun, 04 Oct 2026 05:45:41 GMT<br/><a href="https://news.google.com/rss/articles/CBMiZEFVX3lxTE5MRUpRZFZYYm9scGFTbXVUMEVKTVd3RG53NXVqYmU4TXlzaXZqY1Mzd05OU3h5VGJPMWVZX0RMMFlRYXFpb0p4TlM0NUVINWNVX0pjN184aTBNeDIyQmZzZ29CU1M?oc=5">open article</a>]]></description><Point><coordinates>101,15,0</coordinates></Point></Placemark>
<Placemark><name>Pakistan's environmental ranking improves yet air quality lags</name><styleUrl>#Climate</styleUrl><description><![CDATA[ETRB · Sun, 04 Oct 2026 05:03:45 GMT<br/><a href="https://news.google.com/rss/articles/CBMiogFBVV95cUxPdzFUdHJVZmNMR2xXYnpENFdXQUJXNFNXS2pFZXA3cGEtcWZLdlFScVNvUVg1ZWoyTWVSYzBDUDIyTXlZZ1lJWGExNFNBQ3hfaWhONnU0cnFwTU43UF9DdzhSTDFjTjNCanMxYVZ2MTJHczB2LVJUOEd1NmpBclhxQmU3cjd6NC1RVTFzMnJWdi03eXFZdTd3YWRaLVZEUE95eGfSAaoBQVVfeXFMT3dHODhKdDFXMUN6VkhGQ1htNl9hYktxcjJORG9jbzlqWXpJYTd6MjRsYmsxUGlzelBVcmYyRldlTnkxamxabWhiSzRwU0JBMU5OeF9Da1VlVjJNTHFxX3hJa1RweUt5U3BxMXlpcmZ2ZUU1Q1NWc0RaVkJJX0tUQjROeXYxaG9qWkYyZHlPd1VUekY0MEFSLUVXX0xiLVA1ZnBhYVZRZVNoZmc?oc=5">open article</a>]]></description><Point><coordinates>69.3,30.4,0</coordinates></Point></Placemark>
<Placemark><name>Spain Floods: One Dead, Dozens Rescued in Southeast</name><styleUrl>#Climate</styleUrl><description><![CDATA[TMPO · Sat, 03 Oct 2026 12:12:56 GMT<br/><a href="https://news.google.com/rss/articles/CBMiigFBVV95cUxPaEFQS0gxalpFaVlBdXhxem9VM2JialhCWlJsX2pIMmNuZmVtLWJmeFZYRnI2Z1U4Sjh1R3FPbGRJaFVZMDFDa0tJS1cyb0dlYjZyTnJFUUxJU280bFRFRDV3cEV5UHpGTS10aWV6NWdlS1AtdlU1ak5xN3VkOFZBZEZKQzM3N21DVmc?oc=5">open article</a>]]></description><Point><coordinates>118,-2.5,0</coordinates></Point></Placemark>
<Placemark><name>Prachinburi at risk of industrial waste contamination after flood</name><styleUrl>#Climate</styleUrl><description><![CDATA[PRAC · Sat, 03 Oct 2026 08:58:32 GMT<br/><a href="https://prachataienglish.com/node/12057">open article</a>]]></description><Point><coordinates>101,15,0</coordinates></Point></Placemark>
<Placemark><name>Thailand floods hit 1.64m rai of cropland and leave 3.9m farm animals dead or missing</name><styleUrl>#Climate</styleUrl><description><![CDATA[NATH · Sat, 03 Oct 2026 08:53:00 GMT<br/><a href="https://news.google.com/rss/articles/CBMiYkFVX3lxTFA1NWprMFRSUmd4ZzRhNFdoR2RQbUVxS3V2X213Rk85dlpCWkVyMzRUTEJidWlKb3IwbXE3Vm9wX3k2dHh3b2lrbHFHQ25oNWpyT01GNEFsSE0wOUI2a0R0NnBn?oc=5">open article</a>]]></description><Point><coordinates>101,15,0</coordinates></Point></Placemark>
<Placemark><name>BKK governor apologises after flood victim scolded by official</name><styleUrl>#Climate</styleUrl><description><![CDATA[TPBS · Sat, 03 Oct 2026 08:32:28 GMT<br/><a href="https://news.google.com/rss/articles/CBMiU0FVX3lxTE5vSWxUVW8tZTZOYjJtYlVxYkViZm8tc3NBV1NYUGRIYVotYXRXUjJFUkY5d0F3MXJ3bFMzMW55X1dkNU1BaTZIc0xWUEo2dnpVZFpJ?oc=5">open article</a>]]></description><Point><coordinates>101,15,0</coordinates></Point></Placemark>
<Placemark><name>Typhoon Saudel</name><styleUrl>#Climate</styleUrl><description><![CDATA[BD24 · Sat, 03 Oct 2026 08:24:52 GMT<br/><a href="https://news.google.com/rss/articles/CBMiYEFVX3lxTFBwZ09UMzVIRWdCamJta3oyYk9yeFpBS18zbmxGdW1HWmRZNE9raXVZV29CbFNhSW5jQkNoakNQVEFjbk9fbkF4RnU3ZnZNYmR3c09JWVI5dFh2TGpiRF9WaQ?oc=5">open article</a>]]></description><Point><coordinates>90.4,23.7,0</coordinates></Point></Placemark>
<Placemark><name>This year's monsoon begins withdrawing from Sudurpaschim</name><styleUrl>#Climate</styleUrl><description><![CDATA[MYRP · Sat, 03 Oct 2026 08:24:28 GMT<br/><a href="https://news.google.com/rss/articles/CBMirwFBVV95cUxNY2FyRWR0dXZkZ05WaTU1RVhXa0tNbndsU1JrbEF4cGhXOHg2VFhiTVZyZWdPdjV5YlZuTnI4VDhoZmZRSTFGOGotM2FUZG9nbVJMNEppRm9sWHFzSE1Za1ZTUGZ5bzBDRzlzeUtHUXl2ampUNXJKT0xFMzZfcng3QnBVZTVoUmxwenU3Uk14c0RzZXZmUldiOW9ycmNBOC1OQ012cFRLM3NQQ00xMzRF?oc=5">open article</a>]]></description><Point><coordinates>84,28.2,0</coordinates></Point></Placemark>
<Placemark><name>Green flood alert in Malaysia</name><styleUrl>#Climate</styleUrl><description><![CDATA[GDAC · Sat, 03 Oct 2026 06:54:19 GMT<br/><a href="https://www.gdacs.org/report.aspx?eventtype=FL&eventid=1104207">open article</a>]]></description><Point><coordinates>102.3,4,0</coordinates></Point></Placemark>
<Placemark><name>Thailand sets 5 ride-hailing rules for 2026 floods</name><styleUrl>#Climate</styleUrl><description><![CDATA[NATH · Sat, 03 Oct 2026 03:43:00 GMT<br/><a href="https://news.google.com/rss/articles/CBMiYkFVX3lxTFB6OFE2dWtJMHdzazNjME9QMjVmVFFKMFpBNDk2WTUybURjZkswazFTRzlVWnJnUkwxSUhUN3J0OWZUMWFlQVZNQXNsRTR1R0tIX29XLXBlbmtVaUpQU1FTZTVR?oc=5">open article</a>]]></description><Point><coordinates>101,15,0</coordinates></Point></Placemark>
<Placemark><name>Bangkok at breaking point as floods turn streets into stagnant lakes</name><styleUrl>#Climate</styleUrl><description><![CDATA[GUAR · Sat, 03 Oct 2026 02:00:46 GMT<br/><a href="https://www.theguardian.com/world/2026/oct/03/bangkok-thailand-floods-breaking-point-stagnant-lakes">open article</a>]]></description><Point><coordinates>100.5,13.76,0</coordinates></Point></Placemark>
<Placemark><name>Thai Airways chief says he was fired by board after Bangkok flood chaos</name><styleUrl>#Climate</styleUrl><description><![CDATA[VNEX · Sat, 03 Oct 2026 01:37:01 GMT<br/><a href="https://e.vnexpress.net/news/news/traffic/thai-airways-chief-says-he-was-fired-by-board-after-bangkok-flood-chaos-5127878.html">open article</a>]]></description><Point><coordinates>100.5,13.76,0</coordinates></Point></Placemark>
<Placemark><name>The cruel math of the aftermath of Nepal’s flood</name><styleUrl>#Climate</styleUrl><description><![CDATA[NPT · Sat, 03 Oct 2026 01:34:08 GMT<br/><a href="https://news.google.com/rss/articles/CBMie0FVX3lxTE81ZDI4Y2VCSmZDWEF6VWpjRzZPT3BORnhpaTVzYXRSNlJoekczTUlQNUtQVXg0eHk3eEh3ZnN4NDgyQVUzLTNkamhncUpuTXpyRzR2Y01scHktZkJOV2IyWWRMeE5yalZSRzV5eTN4YU8yMDBNSE96ZUU3NA?oc=5">open article</a>]]></description><Point><coordinates>84,28.2,0</coordinates></Point></Placemark>
<Placemark><name>Cambodia calls for 20,000 displaced to be allowed home</name><styleUrl>#Climate</styleUrl><description><![CDATA[KHMT · Sat, 03 Oct 2026 00:04:41 GMT<br/><a href="https://news.google.com/rss/articles/CBMimAFBVV95cUxQdzFELWR0TWVsOXRmcnM2UXltbS1BLXdUUU9USGdJa2JudlptdnZyeTYxNkNobkpTYWxzR05CcEc4Ym1tcXFKLVVLcklCSmpSanFOZWIxbm1aR0hTdGVuRWtuMFJSUENINEpfXzJwOXpHVW5ONmVlRmE4MEhIYTA1QWZINkk1ekxvSjB3aXpYYzFpSUM4OUVPZA?oc=5">open article</a>]]></description><Point><coordinates>104.9,12.5,0</coordinates></Point></Placemark>
<Placemark><name>Malaysian national missing after Bhotekoshi flood found safe after 37 days</name><styleUrl>#Climate</styleUrl><description><![CDATA[MYRP · Fri, 02 Oct 2026 11:56:00 GMT<br/><a href="https://news.google.com/rss/articles/CBMiyAFBVV95cUxQSllEOWFub0tCcHhiRWotREZXbkltMHE2eDdjemxpY2R1Mjlvb0Z5NnphWEtIckg2NUFfajlBdUE0QkMweXN3emVUTHBELWxQMWVEdlUxQ1FiXzdmU3BhcEhsdlc1MUx2N0dPNjlEcUhaSnFqbEM3WmhjY0U0ZHl2VFFnVG94SDItd1NBcUFGSXJyMkFEYWY4dGQ1elZrbXpPS0RBaEVZTkwzemZXT2JyVGoxUHJtZ00xMmRrajFMVjBYaXc4OHZoaA?oc=5">open article</a>]]></description><Point><coordinates>102.3,4,0</coordinates></Point></Placemark>
<Placemark><name>Myanmar junta bombs villages in flood-hit Tanintharyi Region</name><styleUrl>#Nexus</styleUrl><description><![CDATA[MNOW · Fri, 02 Oct 2026 10:06:33 GMT<br/><a href="https://myanmar-now.org/en/news/myanmar-junta-bombs-villages-in-flood-hit-tanintharyi-region/">open article</a>]]></description><Point><coordinates>96.1,21,0</coordinates></Point></Placemark>
<Placemark><name>‘Podi Menike’ train reaches Peradeniya after Cyclone Ditwah disruption</name><styleUrl>#Climate</styleUrl><description><![CDATA[ADAD · Fri, 02 Oct 2026 10:01:45 GMT<br/><a href="https://news.google.com/rss/articles/CBMiYEFVX3lxTE1nS050SElPOWc5bHlPdmdrb0lhb2tiTXp5eWdtOTZHZF9ZbDg2ejZFczdSXzhuRVNtTDdVSTF4RDNkTWczTVNMdDRId0pYSWxvcmttRktRQ0tKdnZFR0xsaA?oc=5">open article</a>]]></description><Point><coordinates>45.03,12.79,0</coordinates></Point></Placemark>
<Placemark><name>Women shoulder the burden of expanding wildfires in rural India</name><styleUrl>#Climate</styleUrl><description><![CDATA[MONG · Fri, 02 Oct 2026 09:40:01 GMT<br/><a href="https://news.mongabay.com/short-article/2026/10/women-shoulder-the-burden-of-expanding-wildfires-in-rural-india/">open article</a>]]></description><Point><coordinates>84,28.6,0</coordinates></Point></Placemark>
<Placemark><name>Eastern Spain braces for torrential rain and flooding</name><styleUrl>#Climate</styleUrl><description><![CDATA[GUAR · Fri, 02 Oct 2026 08:58:10 GMT<br/><a href="https://www.theguardian.com/environment/2026/oct/02/weather-tracker-eastern-spain-torrential-rain-flooding-nepal-landslides">open article</a>]]></description><Point><coordinates>84,28.2,0</coordinates></Point></Placemark>
<Placemark><name>Flooding in Relekhola dam halts power production</name><styleUrl>#Climate</styleUrl><description><![CDATA[MYRP · Fri, 02 Oct 2026 08:21:00 GMT<br/><a href="https://news.google.com/rss/articles/CBMipgFBVV95cUxPYTdod0VMdW5tUkFZeDF4OGNtUTVwYllPajRfckdYZjZXRUxUTWc1QlFmVEtqRG94ejM1VW5wZWl1MDZqQ1VuUDlaZmJCdmV5cW9ydHlpcy1JdUVzc1JINi1nZVlZR3AtLXdaUnBCaDBiTDYtTWUydXNHQTZ1SXdmdU9IdWY3Sjh2RlNUZUlUSHVEWm5pWTBYY3FiYTRxb08yTW5rWDlB?oc=5">open article</a>]]></description><Point><coordinates>84,28.2,0</coordinates></Point></Placemark>
<Placemark><name>Pakistan: Flash Floods - Jul 2026</name><styleUrl>#Climate</styleUrl><description><![CDATA[RWEB · Fri, 02 Oct 2026 08:03:35 GMT<br/><a href="https://news.google.com/rss/articles/CBMiXkFVX3lxTFBCN210NVF1cVlEa0NyR3BYSy13S0dnaGoyWjJCY1RsdzNyWExEbVRic2NnVE5EVlJGLTB1U2tyVjZwRE5jQUtKbDBIYTVwRzI2UndVNkFEZUVIeHVMdXc?oc=5">open article</a>]]></description><Point><coordinates>69.3,30.4,0</coordinates></Point></Placemark>
<Placemark><name>Flooding raises vegetable and egg prices as supplies fall in Thailand</name><styleUrl>#Climate</styleUrl><description><![CDATA[NATH · Fri, 02 Oct 2026 07:41:00 GMT<br/><a href="https://news.google.com/rss/articles/CBMiZ0FVX3lxTFBHZDRCU1NnM1p4QWlQMUV1Qk5UVkllVkxja3U2bU9QMlQ1ODFfTjY5RFdiTW5TQU1jTUNZSkVxb0hKVTFQS0JlblNGLV8zb00tWGxWbjB6YjlUc1phMFpSQ2w4UGxOSEk?oc=5">open article</a>]]></description><Point><coordinates>101,15,0</coordinates></Point></Placemark>
<Placemark><name>October forecast flags possible cyclone as monsoon exits Bangladesh</name><styleUrl>#Climate</styleUrl><description><![CDATA[BD24 · Thu, 01 Oct 2026 14:35:00 GMT<br/><a href="https://news.google.com/rss/articles/CBMiVEFVX3lxTFB6TnFGaXRTOU1qUXJtM19MQjhfQ0I4Q1U4NGFQNmJtYlNTX1lsVzJWQW1lYUlnS1RURFFBTGNvd1RWeVd1MmY5NzJwel9GWm5ZU3dIUw?oc=5">open article</a>]]></description><Point><coordinates>90.4,23.7,0</coordinates></Point></Placemark>
<Placemark><name>Avalanche kills 15 Nepali workers preparing Himalayan mountain camp for climbers</name><styleUrl>#Climate</styleUrl><description><![CDATA[BREC · Thu, 01 Oct 2026 13:12:42 GMT<br/><a href="https://news.google.com/rss/articles/CBMivAFBVV95cUxQNW4wT3VZdlROdkZZdkJmeU9TQzZicjluMjV3dXdWT3ZLT2FLRVFiODVQWUMwaEFLeDcwQ0lsZ1VXbmgxT0g2QW9WbURqdVo3UHkwWlR0VHp0cVJLN3pzeVZtdGVEYTBMakk0MHl3b2RCZU1hcnc2UFhRRVNkWGUxS0RyLWdDWmpiZFRNRHhRYzJkczAyN3Y5NHo4WmV6N3ZmUWFtMHlzNTAyMGk0R3FicWtMcF8td0RveGFOdNIBVkFVX3lxTFBJYjNzdklaaXBBb3VTNVlOdEg4eGZWajdpaGNRQjhuUEdyMnl3dkNpMGExWmp2VS0tdkR1NEpkY0dvMTgtOExnX2dOTXlVNFh2S1NKZWhR?oc=5">open article</a>]]></description><Point><coordinates>84,28.6,0</coordinates></Point></Placemark>
<Placemark><name>Nepal floods threaten jobs and livelihoods beyond disaster zone: ILO</name><styleUrl>#Climate</styleUrl><description><![CDATA[UN · Thu, 01 Oct 2026 12:00:00 GMT<br/><a href="https://news.un.org/feed/view/en/story/2026/10/1168500">open article</a>]]></description><Point><coordinates>84,28.2,0</coordinates></Point></Placemark>
<Placemark><name>Flooding, gridlock stretch from downtown HCMC through expat area</name><styleUrl>#Climate</styleUrl><description><![CDATA[VNEX · Thu, 01 Oct 2026 11:36:59 GMT<br/><a href="https://e.vnexpress.net/photo/traffic/flooding-gridlock-stretch-from-downtown-hcmc-through-expat-area-5127311.html">open article</a>]]></description><Point><coordinates>106.63,10.82,0</coordinates></Point></Placemark>
<Placemark><name>Swiss Glaciers Suffer 'Devastating' Year Of Ice Loss</name><styleUrl>#Climate</styleUrl><description><![CDATA[BERN · Thu, 01 Oct 2026 11:04:06 GMT<br/><a href="https://news.google.com/rss/articles/CBMiYkFVX3lxTFA1a0w0R1p4Mk4takt2NE1BRHpBd1AxZUp6VUwxWUVFcmxSdVFPVEREdFNtUGstTlNnOXJTd3ZJMFFSbnNGTXpBc0ZHTGRjemdGLWZsSTZ4VVJQZi1DMVZRSjRB?oc=5">open article</a>]]></description><Point><coordinates>102.3,4,0</coordinates></Point></Placemark>
<Placemark><name>​Flood Damage, Losses, and Government Incompetence</name><styleUrl>#Climate</styleUrl><description><![CDATA[KHAO · Thu, 01 Oct 2026 11:02:09 GMT<br/><a href="https://news.google.com/rss/articles/CBMinwFBVV95cUxPank1UkRLUGoxQmFVOVl6VkgtVFBPODJNNHNJdWx2M1hZWmxReDA0aXdac2dtaFk3S1FTWHJjVkhvZGpqZy14STBLQzZVR25VNGhkLUJzWGhiWGo3Y3pKb0ZnTW5Qa1pldkgyMVV3aVhmVDdjaUFtU1FvYmVKdjVhckNUVzZBWVVfRnc1N29lbTFueDFOcXdDeGFwMlNmR2fSAaQBQVVfeXFMUGRmWURhWlRXUm8zTExZTnF0V0ZPUmRjWWtqX2lJWTZCak1EazVEbVZ3Y3hFRVVhdUszMTFGZDVZcExNVzFfTkwxa2V3Mlp3cGhDdUtZTVNLaEx1WUNZN08yUVB0U25wRG0tVVlZZk11UGxoZ0xWRW9tNHpZRDk3NGlNaDZvWk40TFowUnI5bURDMGJKOHN4MHE4Wmx3Wm1rUE5mODk?oc=5">open article</a>]]></description><Point><coordinates>101,15,0</coordinates></Point></Placemark>
<Placemark><name>Why Himalayas are caught off guard during floods</name><styleUrl>#Climate</styleUrl><description><![CDATA[DTE · Thu, 01 Oct 2026 10:10:13 GMT<br/><a href="https://news.google.com/rss/articles/CBMimgFBVV95cUxOS3dFaWlleTREUXFCcThWeC1yVHIxc21VbFBLdVdkdUVhNWtNR2xRN2o1dFBodm01ZTh0QTNqSG0zcHFDMFRLSWswYTJKWlBCU3hJUWpmVUZOdTAza0VOeWJlS0R3eUxaRUFYczh3YXNMVjhzQjNraGF0TFBFSzJfc3U1NGZGZE5WbEpJQXJJdjE4QUZmVU9RY2V3?oc=5">open article</a>]]></description><Point><coordinates>84,28.6,0</coordinates></Point></Placemark>
<Placemark><name>Death toll rises to 34 as floods, landslides devastate villages in southern Myanmar</name><styleUrl>#Nexus</styleUrl><description><![CDATA[MNOW · Thu, 01 Oct 2026 09:33:54 GMT<br/><a href="https://myanmar-now.org/en/news/death-toll-rises-to-34-as-floods-landslides-devastate-villages-in-southern-myanmar/">open article</a>]]></description><Point><coordinates>96.1,21,0</coordinates></Point></Placemark>
<Placemark><name>TAT says Chinese tourists undeterred by floods and baggage delays</name><styleUrl>#Climate</styleUrl><description><![CDATA[NATH · Thu, 01 Oct 2026 09:21:00 GMT<br/><a href="https://news.google.com/rss/articles/CBMiYkFVX3lxTFBlM1BfSmUyWnhMSHhGVGNQVmxnc1Rva2VWZVdWMXZWVjJZWDg0b1B3QWNWYk1hZUpkTjVKa0lGWlAxeDVjUTE0N2NreFlkR0ZPMlY2TnJKX3N5cHY3NWo4X09R?oc=5">open article</a>]]></description><Point><coordinates>110,32,0</coordinates></Point></Placemark>
<Placemark><name>PM inaugurates Tk 1,542cr Muhuri-Kohua flood control project in Feni</name><styleUrl>#Climate</styleUrl><description><![CDATA[NAGE · Thu, 01 Oct 2026 09:15:00 GMT<br/><a href="https://news.google.com/rss/articles/CBMisgFBVV95cUxPeHNUcGNMelhNaGZZVUoyMUFUU3FUVG40YmRqLWw2WTFFRzBydjQ2aWtnLXhUeHdjU2tmRm9jQS1sTjhBbUZLMlo0aE4wTFFKLWE0UzFSUkxGSG1LMjU3bEtDLTNUQWNuWXpxbWF5UlNzZlppOWxnZnltMzJpalFHX3RJOUJEWXZCSVEyNFd3WXNLQkVuTVdPNnF4Y2hoRS1lZHRNSk11S0ZWQVdMUlhjc0x3?oc=5">open article</a>]]></description><Point><coordinates>90.4,23.7,0</coordinates></Point></Placemark>
<Placemark><name>Thunderstorms expected as Brunei enters inter-monsoon phase</name><styleUrl>#Climate</styleUrl><description><![CDATA[BBUL · Thu, 01 Oct 2026 08:45:25 GMT<br/><a href="https://news.google.com/rss/articles/CBMilAFBVV95cUxNd3IwdjFrZ1JvSG1fMkdWV21FM0ZjYnJhSUNxTXlIQWVaT3JCaF9tQktRZnV5VlpzcTl6RFEwdWNtTmI4dW5iZFRqUlNPSmlBc1FtWmFoQ0pYRjVSaGFvU3JtT044UU1JN013enZJRTZlZWx3QlExY0tKWXBLZVlFNHBUOXdOZnh0REh6UWI1di1aSmVr?oc=5">open article</a>]]></description><Point><coordinates>114.7,4.5,0</coordinates></Point></Placemark>
<Placemark><name>Thai Airways battles 10,000-bag backlog after Bangkok floods</name><styleUrl>#Climate</styleUrl><description><![CDATA[BT · Thu, 01 Oct 2026 07:42:00 GMT<br/><a href="https://news.google.com/rss/articles/CBMiqgFBVV95cUxPNVFybzd0X0VOMG03ZnNfdFdON1pOUXNQZmdkQURQQnl4dTFuSGRNWlZHUldLNzd1X3dGQ2h0MTV5QlVad0N3OFV3U2xqMFNkSkVzVkNvVDgzVUk0RmR3dkdiUDdkXzIwYUdReFYyeWEyVDRxbnhtTFdWTEFQT2RDbzdZcmxZTGkyYWFaUkFBTDdTeVcyTGdLcTR2Z0gwQUJZQlBvbmdkY3NoQQ?oc=5">open article</a>]]></description><Point><coordinates>100.5,13.76,0</coordinates></Point></Placemark>
<Placemark><name>Monsoon ends with 12.6% rainfall deficit, driest season in a decade</name><styleUrl>#Climate</styleUrl><description><![CDATA[SCRL · Thu, 01 Oct 2026 05:50:00 GMT<br/><a href="https://news.google.com/rss/articles/CBMinwFBVV95cUxQVm9NWVJDUFFaaHFkaUczQi1PVXdsNmFfRTQ3VGx0dzBlcFBBOWt1bENGMTh2V0lQcm5FUkg1WjhwWGVPWjl3T0NWOFNOODhsMmxoRWRJZGtWcTM3OEsya1ZHaWhWZ3lUeVgzcXg4ME4tR0RlTno3UkdPektOTmgySVZlMVdnQldUdEFLZ1VoTEpLYzdDel9UMG1CNi1RUXPSAaQBQVVfeXFMTmM3cmhSbE5xVUNmN0xDdFNaUGRLUzFOUUtyakJmaVZIV1Z6aU5jMXlOZVhtN3V2TzZmYmF6VTY2T0lKemlPeDAwMWJRUG1xWVNlQW1KN0hIMjhWazd4X2JJZW8tNDM4bjdpY3ZCNXlDX0J2dWpKRjJ4M2MwNVNYSlV4NjF0ZENsR3RhY2g5dE05cVZmTVFZOC1LbXBBajU0eE15eGQ?oc=5">open article</a>]]></description><Point><coordinates>79.6,22.9,0</coordinates></Point></Placemark>
<Placemark><name>Giant crocodile dies after capture in flood-hit Chachoengsao</name><styleUrl>#Climate</styleUrl><description><![CDATA[KHAO · Thu, 01 Oct 2026 04:43:50 GMT<br/><a href="https://news.google.com/rss/articles/CBMisgFBVV95cUxNUU9aUlVMdTRiTDRHQkhIcFJ1LUJKbHIyZWlaRWl1VVZuTENha3liX05rQ0h2NTZLRmNaZG1mLXhUSHhSSm9KMFhzOTZjLXpLN0V3Z2dWb0VfUGdiMEg4dGtnUWpqckFDTWJWZnJHUXR0aDFTZlRnRzh3ZndtY2xMSURQWmxNbVhma2VKYlFIVkZHZEhnbWZja3o3Wm1DNkhkOUx4Tjg1bHhUMmNNMHM0Tm5n0gG3AUFVX3lxTE1WWUh2VWRQMU1yRmhXUEJtZkJkVFdQNE1kUzh2V0ZXbGRuRlZ3M1NsRE9kM01jZ0lrZFIwRWRSLW9HeU9UcmFiZVgtTmxEdjBDeHlyY0RlS2VKM1JqdlNLamIzdXpOWEdVYUs3WF8wTTR0SFNWazBKSjNLZ2xNUjRpT2xPS2prSDhiMjY1T2lucTl1X0wtaHJsUlZocXRGZFR6ajQ0ZGhEaEpZYVlRdlZCV3VrU2d2NA?oc=5">open article</a>]]></description><Point><coordinates>101,15,0</coordinates></Point></Placemark>
<Placemark><name>Chuan says flood crisis has “swamped” Thai Airways</name><styleUrl>#Climate</styleUrl><description><![CDATA[TPBS · Thu, 01 Oct 2026 02:45:41 GMT<br/><a href="https://news.google.com/rss/articles/CBMiV0FVX3lxTE41LXo4OTdjaVFSZmNfS2Z0NWRjVDl3Sl90S1I3bHNRLXNYemZ2RVliVFJDQnBpSThUWHJMV19zcXU2aHYxd3BkNUZWdDVLRFhQbGl3OU0wYw?oc=5">open article</a>]]></description><Point><coordinates>101,15,0</coordinates></Point></Placemark>
<Placemark><name>Japan relief workers help to identify Nepal flood victims | NHK WORLD-JAPAN News</name><styleUrl>#Climate</styleUrl><description><![CDATA[NHK · Thu, 01 Oct 2026 01:27:25 GMT<br/><a href="https://news.google.com/rss/articles/CBMiY0FVX3lxTE9adUNlSmg1UElSbVFCLWdoRl85eFl5d0t0QWxaRy1WaWU1ZG1iYmwtOWppMHdpWC11bDdXR1htMW9tN1dQbVNrU0VscmxqMEVwOVZOYXZNUjlUYUl6ejROQkVXNA?oc=5">open article</a>]]></description><Point><coordinates>84,28.2,0</coordinates></Point></Placemark>
<Placemark><name>Swiss glaciers lose more than 5% of ice after record heatwave</name><styleUrl>#Climate</styleUrl><description><![CDATA[PRNT · Wed, 30 Sep 2026 23:00:32 GMT<br/><a href="https://news.google.com/rss/articles/CBMimwFBVV95cUxQSkx0YThaTDl3YXR0ZWh6OE1wRkphVzBuclFmNGphSjd4dF9OZlNBQ2xrQU5IWjNSVjlhdUNreUdtRjlrRTMxdVN3aEZSLU1OTTFueV85OGpZSkJNNW96QWZWZUZ5ZzVUS3hrSlBGeHZBS2ExTkdYOG1hZlBKZElqU1JfQXJ1SVdwQ1lIYlpiNjFVNW9lUmpRb0I4MNIBoAFBVV95cUxPRnEzLVowR0xCaDhHUGxqM2xGWDduZ29JSE5uRVI1SDVjRkZFV2FZcTAzSHpaWVZiNExRS3lpMkQwVmd6Mzctc3VIdTQyc290OXZseXo4Wjg3SlQzbTFoUHREb0FQUDB3Z2FBbEtZUkItbkw5SGZvM3YwbTFhVkwyTUdBSmVPT0hRaXROUVVhR3dIaVVMZ0NTQ0c5T1NYVXZ1?oc=5">open article</a>]]></description><Point><coordinates>79.6,22.9,0</coordinates></Point></Placemark>
<Placemark><name>Cambodia rejects Thai UN claim over displaced citizens</name><styleUrl>#Climate</styleUrl><description><![CDATA[KHMT · Wed, 30 Sep 2026 17:39:49 GMT<br/><a href="https://news.google.com/rss/articles/CBMimgFBVV95cUxOVExQT2Fab2M0MFN3dnZOMWk0NGVJcjZUbzNGRWhPaEFmYkxVNGFneHBUdC10d2FDeHlxSXAwTW5OUHpTazN0dVFTQkx1MUhJWlJHZ0l0SG5FRExJZnlNM3RaZnF2RTJDOWc0WjJuMkpmV3BUNWJYeWlhSXRyYlF0TW1QMHdoVmNlZXpCdmlRSngyYWV4Ni1FdUd3?oc=5">open article</a>]]></description><Point><coordinates>101,15,0</coordinates></Point></Placemark>
<Placemark><name>CMAA warns floods could displace landmines, cluster munitions</name><styleUrl>#Climate</styleUrl><description><![CDATA[KHMT · Wed, 30 Sep 2026 17:34:34 GMT<br/><a href="https://news.google.com/rss/articles/CBMiogFBVV95cUxQSW1pdnlMMm4wV1pGMHliYmVNRGJ3aDNlM1dpOERSdlZSQTExbE0zaW82emFZT2VkcmdSX2k1OWZLaEhCa3ZmeEtMZ0ZEU2RWVER1THRnSzVqTUZDX1dlUjZqZGRFMndVS2VGbi1Hb0hFOUxKdVNRVUdhX09Va2xsTFQyUjNKOFhaSlJYaUt1bnJ1MVQ3Vi1PRnp6S05uNWZ3Qnc?oc=5">open article</a>]]></description><Point><coordinates>104.9,12.5,0</coordinates></Point></Placemark>
<Placemark><name>Cayetano, Lacson clash over flood probe</name><styleUrl>#Climate</styleUrl><description><![CDATA[MNLT · Wed, 30 Sep 2026 16:17:00 GMT<br/><a href="https://news.google.com/rss/articles/CBMioAFBVV95cUxNRFlRX0VoNWNvOWd5b1Job3hKam1jRlRCR0lva2dhNDR0WG4wOG9tZnRKSGwzaTc5a2VVUW1zOTFkUDNuZmRQUkViVjhjSTVSNlVSYl83eXBfckxCVDNhc0htQlJFRTRRVERJa1NHdlVORENkVU9aT2NXUzhyRHQwVGpCRWpPZ01JbTZNRmpZYlJzc1FiSlBBOUJ6ZlRzbkFP0gGmAUFVX3lxTFA0LURoTHZUaUJpSVhaNEFoZFh0d3FRQ3VGRWtIN092WVhaN19zbmpwSEhoYjNDRzExVGFiOEg0bkNmVDlXVjlXUGVUclZraUdxS3lGd0owelEycTBJQ3l0SWNadVlyY0tYQ3ktSEtkYUNsX3JRVlB0UGtxeTVSTDh1T0lIS0lzVkhWX2JyWHlpalJlUlZOSFdKMmFCNktzZVd4ZGZ1cEE?oc=5">open article</a>]]></description><Point><coordinates>121.8,12.9,0</coordinates></Point></Placemark>
<Placemark><name>Heed the warnings about El Niño</name><styleUrl>#Climate</styleUrl><description><![CDATA[MB · Wed, 30 Sep 2026 16:10:52 GMT<br/><a href="https://news.google.com/rss/articles/CBMibEFVX3lxTE8yR0VPM1BDdEp3UUtQMGpnT1FxLUFFckM3MWt0VWloNzliOXBYajFCOEFNSFdBWWYteUxrM3A1VVY1UXlFekhDMGdnS2RoaUpVOW5IN1l4N0g2UGtreDFlbkJqZXhxZDRIbGdsUA?oc=5">open article</a>]]></description><Point><coordinates>120.98,14.6,0</coordinates></Point></Placemark>
<Placemark><name>THAI FLOODS SHUT TOYOTA PLANTS AS TOLL RISES TO 40</name><styleUrl>#Climate</styleUrl><description><![CDATA[OOBS · Wed, 30 Sep 2026 16:05:11 GMT<br/><a href="https://news.google.com/rss/articles/CBMiqAFBVV95cUxOd1NZcUtsci1XaTRabUNqaHplZ3RXTFVRdHZBRFMtR3lVVGJ4c0NBbFl6cVI0UzFmU1BqUlVCcjg5aXI5aGpFMHZRWFhKWEVQeUh3ZlNwX2t3WGxGemliR1JnSndlNlBkNnlaT2otT2hKbnNjTU1oVlpyektTWFJ0Rl9ESl9qM0drSkYwM3kwTVJXVlZXVjJRV1VkLXZuMkNEWVNaVUk4b1XSAVpBVV95cUxOT2E1SVJ3dlRzYXhxbHhFT3NKQllZbFJiNDBoS1VMdkVNbnk1eU1nNDVQLVdzR0FhVjhUTE0yVlNaNXVWRnR1QXdEU0Y2SkR1MWk5M1QtYldQSFE?oc=5">open article</a>]]></description><Point><coordinates>101,15,0</coordinates></Point></Placemark>
<Placemark><name>SpaceX contributes 50 starlink kits to support Malaysia's disaster preparedness</name><styleUrl>#Climate</styleUrl><description><![CDATA[NST · Wed, 30 Sep 2026 14:08:35 GMT<br/><a href="https://news.google.com/rss/articles/CBMiswFBVV95cUxQSVNqSElqeWE1ck9aLTRRM0dEbTZLV1BoN3pyUmxHbGhabnJJcjhqYmFGamdmQjh0aERkUHlLcXo2NkN6R2xJRFZ4Tk1uSFZsejZaY1hxSWdfWnFvclRkQjB4Nk5OTlJwU01TOVFqYWtpajI5bXZMNEhEcWNTTFppUTRFUUhxSVIxNS1CQlA2blpQTk95dkxmak1zRDZ4Sk4xb20zdDlzUUhKTmczd2wzeXgxTQ?oc=5">open article</a>]]></description><Point><coordinates>102.3,4,0</coordinates></Point></Placemark>
<Placemark><name>Ayutthaya residents call for earlier flood warnings as water rises</name><styleUrl>#Climate</styleUrl><description><![CDATA[KHAO · Wed, 30 Sep 2026 12:25:25 GMT<br/><a href="https://news.google.com/rss/articles/CBMitAFBVV95cUxORG5kbkpIYW5lSzNjRFprTkZDZ09RMGFiZjk1TFZQN2ZiM2pScDE2cEJnVWR2d1FNamhzc2VFcTRmNHJVRndLcElwNm10cC1JWV9YbGpUNUVkVzlGZkVNcEdzUXM4c2trX0FYSWZVZVJCaXpBVjNfdVJ2UmxsS1Uya0lGWXREa1VzTEtlUGhUZWhWWm04blQwbC1RWEJxSGVoeGp6WlVqT0Jha0dSQ2tiMG52OG3SAboBQVVfeXFMT05EeV9JRmtMNmU2a2tlQWRaXzZLOVdFdFpGWEhUT0xpQmFKclluM2tuOUlRTkR1eFhEOVJ0VWlLX1hWT19qRVVXYmgtQXo3ck9vM0ZUWEtYakthWWJ4TWdpMU91Sk1WdzVWZVkxSVNiNmhiUXRxaXlyb182b3ZDeFZpczVUZ1BMUXkyeEFQbXljbVVyRjhTaEEtN21ha3ZyTnAtU2tBLUs1djBZeS15ZjN0eHJvYWYwWnBR?oc=5">open article</a>]]></description><Point><coordinates>101,15,0</coordinates></Point></Placemark>
<Placemark><name>Toyota suspends production at four factories in Thailand due to floods</name><styleUrl>#Climate</styleUrl><description><![CDATA[NATH · Wed, 30 Sep 2026 09:18:00 GMT<br/><a href="https://news.google.com/rss/articles/CBMiX0FVX3lxTE85QTRxSnNiX1BpTVRWUzI0SXczUUtfWllodjMxaXF2cjhvM2U4em03NEF5RDRfeGJ5cjk2XzQxa1BMTjNsajRTd2hVZXdRRTMwc08zMFFHQ3R0bTUtZVVN?oc=5">open article</a>]]></description><Point><coordinates>101,15,0</coordinates></Point></Placemark>
<Placemark><name>Bangkok warned of more rain, possible flooding from October 5-10</name><styleUrl>#Climate</styleUrl><description><![CDATA[TPBS · Wed, 30 Sep 2026 08:41:24 GMT<br/><a href="https://news.google.com/rss/articles/CBMiYEFVX3lxTFBfcWsyYzRLNlpfckhSOE1JZDRNZXNjdjdHaHE5Ml9zTDk1amtZR1h0N2tKMUdMdndpbk9YVlhWNGtIUTB4Y2lrTDIwaUt4M0ZLUUVBUlpLNVZOOVQ5SmRWOA?oc=5">open article</a>]]></description><Point><coordinates>100.5,13.76,0</coordinates></Point></Placemark>
<Placemark><name>Monsoon 2026 report card: Rainfall 12% less than normal across India, with 60% less rain in Meghalaya and 24% less in the south</name><styleUrl>#Climate</styleUrl><description><![CDATA[DTE · Wed, 30 Sep 2026 07:49:42 GMT<br/><a href="https://news.google.com/rss/articles/CBMi_AFBVV95cUxQZEVWeXF6RDR0aGFCai00WTdJMExDMExiVEVONEt1ZHpHOHhYVzdwOHVlcWIxZlJrN2wzSk5lQXc0a21aTUJKZG1JWHlmclljLV9wcmg4MzNORDMwaUktWTVXWFVCVGlmZUZJNktvTWloV2pDZDBhb281QkpramN6bThIc3cxRmRsN0xxN3VNMWhvMm9YbklzMHMxN0t2aEpjOHZ4MlVHeWxLZXloN29zbjJva042by1lTVF3YzZZQ0hmSU5XT1cwa2hFY2ZxT3hNUHFXRlluMDVwTkdBa1dsM1g4bEpMQTlhdm5qWnlMM2JkTlE1d2Vfbjd5RzPSAYoCQVVfeXFMT0x1dEtCUjQ4LTc0XzRzaGF1eXVjUEhVVkhDSER2aFRwR2xaTnNvcUMtbVVQUk1MUTJCY21abW9TZlZHYmhaTG8zYU9VNmJBSFlaVWlNOUprT1ZlakZvTXZFY05hcGdLY2h1MEpPdlNyV2NIRmU4MFEyRDZ0WkZ6NW8zVlUwY2RfY25OOFNINjRXMW1Pc0c4MlRQRm5kY21LOHBOcjhGNVBjYkNyVGJXR2p0X0Y1X1FrT0dBSHg4NzBjb2M5bUI4Z0pfLUF3NDZ4ZmduSFczaXhDSUV3d2w0SjdkSkJrQ0FhdzA4cE1tMEh5cnNlcklQOUVVdi04VmwxQm4wMks5U2NoSmc?oc=5">open article</a>]]></description><Point><coordinates>79.6,22.9,0</coordinates></Point></Placemark>
<Placemark><name>UN special rapporteur releases report; calls for displaced civilians to be allowed to return home</name><styleUrl>#Climate</styleUrl><description><![CDATA[PPST · Wed, 30 Sep 2026 07:11:21 GMT<br/><a href="https://news.google.com/rss/articles/CBMizAFBVV95cUxPNVhQSGsxa0M2b2oweDhBZldiU0RzcWgzS1hQNENVMDFDeWxGdHk2RTFTMEZGU0FiSVVja0VKSjRzWGRWMXNSWlg0ay1aSjdIamFlb1VuQ2xJYlBPTjJJRE1IV2RhVW1DaFFwdFpRNXJVWEtGWE93UWlVeEtFdFJJVTMtbmZsRmhHdlphZnJnbU91b3VvQk1mX3RwVGU0anZQWERKbl9EaW9fcTFmS0pHMXZNYnF0QW5WeEl3TEo2YUtwOFpnekY3Nmc4cWQ?oc=5">open article</a>]]></description><Point><coordinates>104.9,12.5,0</coordinates></Point></Placemark>
<Placemark><name>India sets lower food production target for 2026-27 as El Niño clouds Rabi season</name><styleUrl>#Climate</styleUrl><description><![CDATA[DTE · Wed, 30 Sep 2026 06:26:18 GMT<br/><a href="https://news.google.com/rss/articles/CBMiyAFBVV95cUxPeHJMcU9ER1NlcDJfWGpLam1MOHRYUXVzRDRiaXlLcU93MlpBLWVDb0ZiRFZySFNLRC0yclFwWVlPRlphZ1NuMlVsUTRfc2FhZDZxQVJwcW00MEJFek56YV96Mk02dHJ1Tk5VMFV1N2gxVzZPSmtsV3EzNEVQQXNRSmU4c3Ezakh5S3d6cVNUMXBXU09sRXdKemMxeWpydGt1MzNVVzlqdW1SX1QtTk94TWpIQnNCSENvS2oydDVocWRkWVdacHRhadIB1gFBVV95cUxPZEhaajlMbGJjQWY3c1N6YlpmZ1ZSQlNHVkNVVTBLMmdzWnJONXlVSG5XazhBQ1pncWdlZTNtMDF5eGdpSVRaOUh5dzl1TzJrWkN2aDA0b3FMXzJEbURkNU1vWC02c2hZWnNkekhrUFhIUURPSndyMDkzYndMYXJrMTB4ZEYwRFlBZ09lWk85Y0d3bjBnWXd3ejNJU3NObTlDQ2RLQ05VOVlEb2FzM0ItcUlrVU84RFdpbGVjR0M4STl1M3E1WkZoMW1aV2hVVldHX09hdGR3?oc=5">open article</a>]]></description><Point><coordinates>79.6,22.9,0</coordinates></Point></Placemark>
<Placemark><name>Daily weather tracker: Heavy rain forecast for Northeast and South India as monsoon withdrawal continues</name><styleUrl>#Climate</styleUrl><description><![CDATA[DTE · Wed, 30 Sep 2026 05:56:16 GMT<br/><a href="https://news.google.com/rss/articles/CBMi4wFBVV95cUxPVHMtWUdBOERMWVNGVlU0N1BmM0VjRWdhVFp4WXB0MmNNMTF2T0JJRXo1Q1pVWmZSLU9qNVgxYTluLWg4T2k3RFBCTG9BYTJjX3I3MnRtVWFuVkhqU25OZHVFREROSHZLaDVfbFFocTFGM1hIMFRmTVlfd0FQQnVWcmlBajV5dDBIbGNyMWJDbEliMXZVLUtiY2JRQXF0Y25lZEV1VnIwdjhyUkY3VUhKX2xxRE14Q2dwd2RjRGpYTm94RGd4amNDLXh1cHlWdkpHd1gzRHVoLXlQY0MtSzlxMEVpVdIB8AFBVV95cUxPel9TcnJkY2FFRWUxU1c2OTlBWW5KLTJsM05xVXl2VGFHMWlKcXBnTFVITjJvQi1lTWVpa1ZSbmNuOHBWLVdtLVM0QmlJZ0lUeWlRRFBkOFBLVTVYUWhYODlaZHlRZVdQcGlpb0NOOWpTbmFld2ZaSmRTVzhpUFNleDA1YnVyUy1RVUpFclQ4MFBTMmFCWlBYdjdHMkxmd0FTLXk4S3hEdTRlUXdZWGZORjlDOFZCejNvVkxla3NuYkxFMFdub1h3bU5oMTRvb0R4dEFXTjZyNjI4LTFnalZ3MFU0bG9uLXlibHJFZ0FwQTE?oc=5">open article</a>]]></description><Point><coordinates>79.6,22.9,0</coordinates></Point></Placemark>
<Placemark><name>Yala welder builds raised motorcycle to tackle floodwaters</name><styleUrl>#Climate</styleUrl><description><![CDATA[KHAO · Wed, 30 Sep 2026 05:43:44 GMT<br/><a href="https://news.google.com/rss/articles/CBMirwFBVV95cUxNWkU5amFVNzBxeWE4Q243OGJKa2dCRnF0QTJKOUJFUVdxY3pqWGxBT1hDSnAyd20za1pkaUl1c1F6N001N0hLYUxxNlo3NGdSWnptRHFGN204X0NGQ19wdFh2MDhNcC05eFNDT2p6MnFFeFZySmpzc3NjM1RBRDJyVVJ2bngwSmNhZ3FlLXE3YnpocTlLaXk4cFpCaW9BSHJCcDZSVU1tY3pxNnJMWW9B0gG0AUFVX3lxTE04bkM3WkNfVnRjU3Eza0cxV0otMmpfWTZZY0t2cWJTV2VtaWdCcno2QUhSUDYzbzhPNGxyX1NLWUEtbFJzX3Bza3U2WEFyeUt1LTNZWWJKd05NWHJ4Qk9va3lhd2ZpaFZweVNVMXVpUmZweWl4LU9aX3M0RDNLRERLcGV4T3NINUhJaHROa1BKbEpTcmV6R3lLYXRNWDVWamk0bHBKTlluRVFJV3doR1lJQ0lFRg?oc=5">open article</a>]]></description><Point><coordinates>101,15,0</coordinates></Point></Placemark>
<Placemark><name>Cayetano, Lacson clash anew over flood-control probe</name><styleUrl>#Climate</styleUrl><description><![CDATA[MNLT · Wed, 30 Sep 2026 04:52:00 GMT<br/><a href="https://news.google.com/rss/articles/CBMipgFBVV95cUxOOWZmZmZyTEY0ZE9EbzNwZnVKbHBJSEtNVkw4Qk1wUWhFRGRIWDJBdkh1LVRwM0JSN1QzcDZBSWREMjlBdjRhRUJJV0EtREJDeHVFZmM0MWF2ZzlvVGl0ZzZ5VG1TRHE0UXZiWjZDR0JaOHlHUVR0Sm1WcklDRjFncmpPbFJndm1IcXY5cTRwV0RkaFJVTHNUZXJpNzVFNnJ0WkE0R21R0gGrAUFVX3lxTE5vRUl6YzZuLWRDV05UX002Tktwa2pMdUZqY0pmaXJjUHZaaVFqTHVqYWZUVU1NZkxHZHFpYTlHNENucEdpUDZWY3R1OElxVDd6Nld1UW1Ram53UkpyZkRQV01ZWlQ2U2Zqb1dtd3VLUmhvdy0zMlkzZGFQMHhjejdBTjBaOHMzd1dVbTI1T1ZIc19vZ2laMmZJQV9PNmRBVEx3ZXhjM0ZkYl9Taw?oc=5">open article</a>]]></description><Point><coordinates>121.8,12.9,0</coordinates></Point></Placemark>
<Placemark><name>Electric car catches fire after being left during flooding in Bangkok</name><styleUrl>#Climate</styleUrl><description><![CDATA[KHAO · Wed, 30 Sep 2026 02:18:46 GMT<br/><a href="https://news.google.com/rss/articles/CBMivgFBVV95cUxQVE5zN0x0VFVKSzJWcTg0RElER09obk1QX2xaWVFHdjhDd0hsNzM4d3Q4YmV3RUNOM1JfbzBpV0RZc21QYmltN040R3RiMzd4VGI0dkkyXzVlWmNlNVpSMTQ2YzRFN09WS19nWWlCVTZMWWRhYU1RVXFxbWZvWUFQbDItRzE0aEU0ZGpUekdjSGtKd0EyT0VwMFhvNDdGVHByOElxa3c5NWt0Sk45MDJlX05mUGFqdlUyRFl6REN30gHDAUFVX3lxTE5KWmRLU3NDcl9aaXdLNVpfRDIyb1JVTi13WDRWOExvbmNiWkxyUjVpYjJERUNDcDRzeTM4VXpsZElnRE5DM3dZN1NRTFhiYWRPX3d6d2Nhb04tNmN5ODhvUGctUTlBVmxReG5vREpEcVRfNksyTXJpeDJGZVBnNDFNMkVlNW5oM0M4TXI2eklIZTI2N1BvNGN1eVdRQnZYNmc2RTJxc2Z4TWxjTko3a0ZjSm84WEVkOS1qSEVvT3lNVUZDRQ?oc=5">open article</a>]]></description><Point><coordinates>100.5,13.76,0</coordinates></Point></Placemark>
<Placemark><name>All four districts record good air quality</name><styleUrl>#Climate</styleUrl><description><![CDATA[BBUL · Wed, 30 Sep 2026 01:45:33 GMT<br/><a href="https://news.google.com/rss/articles/CBMifkFVX3lxTFBUNG9tTi1MZWI5YU5UYzJaU2RHUzdEYnpLcFE3alQweXpVYjFPcFQ3a3FQWWl6RFBBekFhZGtKaGd4MjRMRGVpdnVDVU90WVlKdUFUdmNrTGtJRjNKNklaT0o1cjZvTEV4OU11c2pJdjhrbVJnak5mOWtual94UQ?oc=5">open article</a>]]></description><Point><coordinates>114.7,4.5,0</coordinates></Point></Placemark>
<Placemark><name>Indonesia Drought 2026 - DREF Operation (MDRID030)</name><styleUrl>#Climate</styleUrl><description><![CDATA[RWEB · Tue, 29 Sep 2026 23:53:40 GMT<br/><a href="https://news.google.com/rss/articles/CBMijgFBVV95cUxQVW9qY0IxQ2dyS3BhTzRRTUhDT0JPZDAyVHczUnpRUm02d1czQkVyVWRjdy1rbmJmdDVYLW5oTGU1UlJXcTc4c3pVT2V0OWkxQzhhcVA2VmI4WFVCWVJ5SlBJOGxuaHljYU0tNThhb050V3VCTzNhaG5aekpRbnFKRTh3R2NuS3NZLVZWalNR?oc=5">open article</a>]]></description><Point><coordinates>118,-2.5,0</coordinates></Point></Placemark>
<Placemark><name>Floods cause baggage chaos at Bangkok's airport</name><styleUrl>#Climate</styleUrl><description><![CDATA[NHK · Tue, 29 Sep 2026 20:18:00 GMT<br/><a href="https://news.google.com/rss/articles/CBMiY0FVX3lxTE52SmFhQjlBUmlnVmV0a0V1RmJMVGI5bXV3ektkYlUtbmpjWGswZGdHQ2dQOVJCenI2TkJqSTY1cDBGYWw5c3FMclBOaUQzc0dhVVVIV2xpbUF2MXlIcnBGM09Ydw?oc=5">open article</a>]]></description><Point><coordinates>100.5,13.76,0</coordinates></Point></Placemark>
<Placemark><name>Neighbourhood in Bangkok’s Bang Khen district still underwater</name><styleUrl>#Climate</styleUrl><description><![CDATA[PRAC · Tue, 29 Sep 2026 16:56:40 GMT<br/><a href="https://prachataienglish.com/node/12051">open article</a>]]></description><Point><coordinates>100.5,13.76,0</coordinates></Point></Placemark>
<Placemark><name>LGUS urged to prepare for El Niño</name><styleUrl>#Climate</styleUrl><description><![CDATA[SUN · Tue, 29 Sep 2026 12:39:17 GMT<br/><a href="https://news.google.com/rss/articles/CBMiekFVX3lxTE1ua29mb3llZzJQSGM5UkY4Mk9NNFdISlEybWpiUWRhTHZKdVYwcVNKNGZma2FScFVIS2dMX09LdmIxbkZ0OEZWVnB5bjFsVTZKVllJOWNTTjkxX0lpWVYxelJ2cXdvQlhPZDMxYVc1NTVaaE1pc2RoMmpn0gGHAUFVX3lxTFBzY2ZmcWtEZ0lVM2xEand6SWktTDF1Z2VZcGJlWmxxMEs1LWV6QWlYNTZ3dUNwUEJjNXY4aWttY0p4LXBrT1ZaNFpnRUpJVFdHYjJSOUNwcVFWb2g3SmJWWGFBc1NacEdQQU51WElrVHdIbnl5OEU3eXM1SlAtZk84VG9PejdjTQ?oc=5">open article</a>]]></description><Point><coordinates>121.8,12.9,0</coordinates></Point></Placemark>
<Placemark><name>More than 2.6 million people affected by floods across Thailand</name><styleUrl>#Climate</styleUrl><description><![CDATA[KHAO · Tue, 29 Sep 2026 12:16:28 GMT<br/><a href="https://news.google.com/rss/articles/CBMitgFBVV95cUxPekxiU3ozVzl2UjVCb05JY1JNUFN4ZkdBMmllYVVZOHhRSU9ESjl5S2dZZ3pxZ0hjTnozVFJURnBKV2pmbjB3Y1JXb29tVFQxU2pIUUtpME5LclJnVldDbXJBN2E0NlN4eThLTXBDa3gtZW1aZnhVUm9XSGFRY0FONzdZbEY5Qm9UU2JJTTBTdENDSmd1V1ZKLWFydDdFQWF1eHNDdk9vSHhoNUUzWl9Ucms4UUh2Z9IBuwFBVV95cUxQTjEyc2NEdlAycURCN0hPSlM5UC1nanBKZFpaZFhrQ3NGczNwWWhzckZRdExHamZDaGkyemVJUkpHMGdIV1gzbHI2encyaDZvUGdIOHFBM1FraGlhT0ZFNDJKal83dWYxQkwzRUVLRzZaMDdVT2gxQ1l3SWQ1S3VpdTJRekUtZ255dHo4aWdKeGdUbWp0R1hKb25LbVB6WTJsYzBNR0ZXc2o2T1RteUtKdDFCcGt2U2VvSFYw?oc=5">open article</a>]]></description><Point><coordinates>101,15,0</coordinates></Point></Placemark>
<Placemark><name>At least 23 dead in Thailand floods, Bangkok airport in chaos</name><styleUrl>#Climate</styleUrl><description><![CDATA[PRNT · Tue, 29 Sep 2026 12:00:16 GMT<br/><a href="https://news.google.com/rss/articles/CBMimwFBVV95cUxNTmZUeXlaamt5VXg4aExtUGR0WGpqTmdiRUZYdVUyelZhdlVwakdPYVgyZ1MwdFB4VHNaaklzOVZDbVN6bENLUGc5WUpxTy1oY29HZUJBbXpVeVpKcEd5WFVVcGVxRHpBcWNLd2staHkzQXRSMFF0dXVpWG5ZRTlYZVJTZW5KMGVibzY1d2FreWpjTEo5VU5hUTN4c9IBoAFBVV95cUxPZjQxa3JGdjh5cEx0a0dkZW5vNnQzYUtON0dyWHl0XzJkblpmTjY4Nm5DYWgxLXY0LTV4c210UDdMX2VoQVhHTXAtZERkeVplTDZWVmNvYmRuUWxhSEdKSHdNTlJOUjJyNXk4c1RRV3h6YTdBXzl1U1VZVkxSbzJWRTBuSUhaazNIWnB4bVp5aTFPTjloQlIwTWZPaWZwUWFw?oc=5">open article</a>]]></description><Point><coordinates>100.5,13.76,0</coordinates></Point></Placemark>
<Placemark><name>Thai PM apologises over floods, vows faster drainage and aid</name><styleUrl>#Climate</styleUrl><description><![CDATA[KHAO · Tue, 29 Sep 2026 11:23:36 GMT<br/><a href="https://news.google.com/rss/articles/CBMisAFBVV95cUxNazZwUzNOTTRSQzUxaUV6UWJWYlEzYk93cy1EX05zeWNiUWhBa2doMWJPdC1MTE1TLXB6c0tZXzFGLXF5M1JUUUNEMUhRSXRMV2RteUpwM1hTNHhiM2x6ZWFKV2ZGRTVWX3NjaU5jQll1eXJRcjFndnFlV3psbGVndjhESW90dTBWRUpNRkduVmxFb1Z1d0x6TEZWYi0xcG5BQlp3MDJMQkNEajk5RFZFbdIBtgFBVV95cUxQN2lSbU81NkFXekE2dkdYNTlsbDV1cU9wLTRlZUtjTWJ1WThlUmRaLXBTeGo1b0tzdFVIX1lQXzBOY2s5RDNGbVZIZ2RuUnlQOVpBZmpEMmk2MWxpQk1taE5ZMWVMRWg4RkJycDdSQ00zRElRZHNYSmk0anFlb0xneWJFdzZwR0xHbHBxRlo0S3BVMzJiQkVZeWs3S3FYN1lzYnZheTZzM1VDVEx4VVF4SmZ2aFJ6QQ?oc=5">open article</a>]]></description><Point><coordinates>101,15,0</coordinates></Point></Placemark>
<Placemark><name>Watch: Haze, air quality worsens in Singapore as fires rage in neighbouring Indonesia</name><styleUrl>#Climate</styleUrl><description><![CDATA[MNLT · Tue, 29 Sep 2026 10:23:00 GMT<br/><a href="https://news.google.com/rss/articles/CBMi0wFBVV95cUxQVXFfbVBBOWhJNWFrcF9XLTk5VzVTSFQ3REdob2NmVDRyektFU3Foc1NhX05QbDl5Ylp5UnZfNElrcUFNeFpiQ25PYjVDLXZnMHZGQUJ0NThZY0NiSWZqRlRudkRhenduWVRKelBLSHh4clVWeFRseGRnbEhhTEJqNG5VZkJDZmRHaDlDVVJPeFBRSjl6TVc0SVJhYUFtVmFtYnFSRjV5Q25XV3JzZVRZZEZwY21KVFNTYXRMVHgwY0VKOENMb2dndGVUYVU2cjlaV09j0gHYAUFVX3lxTE5vX0hQRXhCRnFtNHVIYWlfdUpFQVBXNjMyRTYwZHVUVGJSS0xVVTBPY2ZqU0piT243dFVFbERKT3RoczBicFhXSXNYX2xDU0hEOGhUN3BBYk9xLWJVZFoyN2ZUV1hULWJmWlU2am94QUNYV0pyQV9nWHo0d09JTGg4Q0duTFd0emdKRGNWaV9OcGZVQ2dMakhiZy1sT042WmR1ajhPbnZ6U2NTbnBxSVhpTUZxT0VLay1RTGtaeUJ1ci0wanlDQzlySjhzeS1jTEFHTDZWaW8ydQ?oc=5">open article</a>]]></description><Point><coordinates>103.82,1.35,0</coordinates></Point></Placemark>
<Placemark><name>Việt Nam seeks coordinated solutions to persistent air pollution in major cities</name><styleUrl>#Climate</styleUrl><description><![CDATA[VNNS · Tue, 29 Sep 2026 08:59:00 GMT<br/><a href="https://news.google.com/rss/articles/CBMixwFBVV95cUxQVjdpMEE3enk0dm5ieGRmOEQ2SlVGQUxDZC1XV2RZNVBWUXc2WFM5Q3VINWhDbDZKNGViYXJxZ2VDckxoMk9sQ0V4VnBZbXlsZng2SmdPdWVpX0ZoeXJJb2M3dm1vU2I4alhrTGVzUk5reFNZZWVYQWRfMGZIcGVuYXk0ejR5MmdreFc4OHNxODJIbzY1aXA2VnJYVHlVV3Y5WVV4T0pacGUzcDB4ZWlBTmZrNm50eFlkeXcxMHI0RXNCbzdHdTFR?oc=5">open article</a>]]></description><Point><coordinates>107.8,16,0</coordinates></Point></Placemark>
<Placemark><name>Thousands Remain Cut Off After Dawei Flood Disaster</name><styleUrl>#Climate</styleUrl><description><![CDATA[IRRA · Tue, 29 Sep 2026 08:16:37 GMT<br/><a href="https://news.google.com/rss/articles/CBMimAFBVV95cUxPUWxUdXk1cW53ZDdVbklnYzdNMm1ZWHFGZ1JTT3JRekNCZkZHdEJiZzZDU3M3UjNkVDZhMFF3UkdRR0xBWTZadG1rYTdCOF93b1NtQ0FCQmlBdk9UQmY1cGM3NjRpTUxCTlotTVV0OEN1X1Nrcm1BbWtjazR1ajZtOVJsbGpDN2hhNU9aaFpibUxybEFDcFl5cw?oc=5">open article</a>]]></description><Point><coordinates>96.1,21,0</coordinates></Point></Placemark>
<Placemark><name>Cabinet approves THB165bn canal to strengthen Bangkok flood defence</name><styleUrl>#Climate</styleUrl><description><![CDATA[NATH · Tue, 29 Sep 2026 07:52:00 GMT<br/><a href="https://news.google.com/rss/articles/CBMiY0FVX3lxTFB1WEJ6RGd3QUsxN0s3TEdUR2J2emgzMVBheUNTNVkyOUFmdVJtaVhHZVhzUVRxNG9icC1NeWVXdzRsclFOSm5BNUt3dDBKQVJFaWpZbV9uaGFDQlhXLW5mdEZINA?oc=5">open article</a>]]></description><Point><coordinates>100.5,13.76,0</coordinates></Point></Placemark>
<Placemark><name>Flooded Pagodas Disrupt Pchum Ben Celebration</name><styleUrl>#Climate</styleUrl><description><![CDATA[CNSS · Tue, 29 Sep 2026 07:00:00 GMT<br/><a href="https://news.google.com/rss/articles/CBMihAFBVV95cUxPUlRZUlZIeHZuWnNTUEtneTMwSEZyOGVSOXc5QlhuY3Q3Z0xkaFFfRGhlWlVXV0FiTzkwM1dMTkU3Wkd6NENybWpaSDVnMEtlZ2s3Sk4yMDRBXzFpRFl4OTJ3VlAwa0dqNE1XaG5NZXpUS1pBd2tSZzl3QUd1eGZ3TnZmWWo?oc=5">open article</a>]]></description><Point><coordinates>104.9,12.5,0</coordinates></Point></Placemark>
<Placemark><name>Bangkok floods put Thailand’s new ‘One Map’ warning system under scrutiny</name><styleUrl>#Climate</styleUrl><description><![CDATA[STAR · Tue, 29 Sep 2026 05:59:00 GMT<br/><a href="https://news.google.com/rss/articles/CBMizgFBVV95cUxQNkp1dEd3ZjFhODN1enMzME9WWkd2RjlrSWNzYjB4OUhVZUJhWnQ1dWhBOXZjaTJpMXllRGcyQmNVMWN0UW93Mnh5UFhoVDNpaGdrckxxSDJqNFVieVJpOFJTU2ZxdGNyaG14NTNWcEpsUnVGaU5TMjY3RWFMN1lhVEh4VEpJZGxYbjZ6RXJPaXAtYmNoRHk2cThxNWhlTGk2czNQX0M3QS1MLTZyYVRPSW55RkFYQno1M2c5Z1diYld2NG1VSndKY052UFRjUQ?oc=5">open article</a>]]></description><Point><coordinates>100.5,13.76,0</coordinates></Point></Placemark>
<Placemark><name>Bangkok Streets Submerged as Flooding Hits Southeast Asia</name><styleUrl>#Climate</styleUrl><description><![CDATA[TWPL · Tue, 29 Sep 2026 05:26:14 GMT<br/><a href="https://news.google.com/rss/articles/CBMiwAFBVV95cUxPWmRTeUdfdlYwSkxGb0F6NnVkWkl6VDFVczlnVldTNXBGcTRGVTBpRk4xYXNUdjhJTDQ4WUc4LUpEOXdkbjUxS0hWZXJsY09WQ0lfUVppN3hGQldGdlpzVVE3TlQ2R1RHY2dsNFNiTGlxUkw2eWRYWktNNXl0SEQ0RHNzaVJib2JzbUF4ZVJFeHE3WTZ6eUFaQm9lby11aWMzMkJOcmVBR1UwZzFXeFZ0cmZMSFg1ZC10cXh4SHVNWjI?oc=5">open article</a>]]></description><Point><coordinates>100.5,13.76,0</coordinates></Point></Placemark>
<Placemark><name>PM returns to flooded Khlong Chan housing estate</name><styleUrl>#Climate</styleUrl><description><![CDATA[TPBS · Tue, 29 Sep 2026 04:46:09 GMT<br/><a href="https://news.google.com/rss/articles/CBMiYEFVX3lxTE0yZ0hvMElFU0FTLUlrbzIzUFRNb0ZPd1JkS1hzbEMxSlZrTW5xMzZwRVVpbzVIbktycEc5U3dTYUpJeHlndkdhQzExa1VaVEk4UWlvQ3RfWWVVekozamJMeA?oc=5">open article</a>]]></description><Point><coordinates>101,15,0</coordinates></Point></Placemark>
<Placemark><name>Thai Airways rushes to deliver baggage stranded at Suvarnabhumi</name><styleUrl>#Climate</styleUrl><description><![CDATA[KHAO · Tue, 29 Sep 2026 02:11:52 GMT<br/><a href="https://news.google.com/rss/articles/CBMitgFBVV95cUxPcGF6ZHZ1ZVppOEN1Q21qSzlTT2hreWVIXzhscWt1WmVlVC1kMWNFaUFUR2ZUVkJrUVVnNGZ2dUZMbmtxbTMxemRnQXFIVldCdjRDal9vLUlubzFpTS1wbk5sVk5USDBRN1Y4MkRIMHNoMm9XWjE2eG1lbzgyd241eC1ocE1iNVpkeThMSEtsMFV1azBVMVVwN3lTY082YWVHUVNtOG9yZ3o2QW85N1EtcUl2MWc0d9IBuwFBVV95cUxNMnFjUkpHWDZWbVhfMkV1dGVITkY3QTdGMFhsYnZwQ05YdVlQTGlfZXVQRXZFZWpLYWtLbTlrZUJzd29KYlhaN3J5SVhvU3ZaUUhBbm9XaWlzMGFyZFNhbXhHQkdnYTZnZzVhLThvbktwZWZic1dQb3dudkdIanVfWDVib2xLTXJ5RnhTY19MVTF3YTFZZXVhaC1qejBEdGR2S2hRNE91WHdtUGM4eThldGdRSXpMcmJ1QU9j?oc=5">open article</a>]]></description><Point><coordinates>101,15,0</coordinates></Point></Placemark>
<Placemark><name>Bangkok floods put government response under scrutiny as poll ratings fall</name><styleUrl>#Climate</styleUrl><description><![CDATA[NATH · Tue, 29 Sep 2026 01:36:00 GMT<br/><a href="https://news.google.com/rss/articles/CBMiY0FVX3lxTE1ZSkw4VjVkek5qSTNTcEdxZHk4cl9MTFNNTFk2S1I4bFE3bjlGckpkdEdKMEYwRFFRcjNrM3NvbnJ2cVdJTVRsTjZ6OTdjejlmN1J6dGkyaEpNY01VdHFpN3BhOA?oc=5">open article</a>]]></description><Point><coordinates>100.5,13.76,0</coordinates></Point></Placemark>
<Placemark><name>Thai Airways Cancels Flights Amid CEO Apology for Baggage Crisis as Stranded Passengers Await Answers</name><styleUrl>#Climate</styleUrl><description><![CDATA[NATH · Tue, 29 Sep 2026 01:28:00 GMT<br/><a href="https://news.google.com/rss/articles/CBMiakFVX3lxTFBFcGt4bVVDRXZRc3VDUkg0QlJzYUlBTngxWXVSWmpRaWhYLVRLNk1YdFdHMU1yVFlZTWJoLVl3MjBfRjlWb2oxem5lNW44Ny0tX0JKb1pCXzR2NEhkZ25ucEE2V1ZNN0ZadWc?oc=5">open article</a>]]></description><Point><coordinates>101,15,0</coordinates></Point></Placemark>
<Placemark><name>Powerful nor’easter floods US Northeast again</name><styleUrl>#Climate</styleUrl><description><![CDATA[BBUL · Mon, 28 Sep 2026 22:07:32 GMT<br/><a href="https://news.google.com/rss/articles/CBMigAFBVV95cUxPUl85VnJRV2JoRnRDdVQzMTZnNkNRYmxxMHVFdUg4TGwwMFZFSGFxRW5mNGF4dXpsR3FNa2RlWENjeHFfZW5fcFEtQl8tZUR5STdueXQzRWUyVkJGQWZqSEwtMmRmck91ekZSMkN1WXNNYlA1X2JGMTlZSEJLcDBpRg?oc=5">open article</a>]]></description><Point><coordinates>114.7,4.5,0</coordinates></Point></Placemark>
<Placemark><name>PM visits flood-affected villagers in Banteay Meanchey</name><styleUrl>#Climate</styleUrl><description><![CDATA[KHMT · Mon, 28 Sep 2026 17:04:59 GMT<br/><a href="https://news.google.com/rss/articles/CBMimgFBVV95cUxQeFBwWUJUT01hSmtUdy1pSmJrYzBKQU83QUR3Y2pDcElZNEpocWlMNVJSS211UGdsbm9UY19fZlRMcG1neHpCd0hSV3VCSVplZzl5Rk94TFMzVGNGR2dkdUh0RnZoNXFrSXhqclAwNXNNZXV6akx6T3FQem1wclBBcVJNbGFOSTFhSTJRQmxPVGk3bjNhNWpZalBB?oc=5">open article</a>]]></description><Point><coordinates>104.9,12.5,0</coordinates></Point></Placemark>
<Placemark><name>Delhi plans tougher measures to tackle winter air pollution</name><styleUrl>#Climate</styleUrl><description><![CDATA[TBS · Mon, 28 Sep 2026 14:10:00 GMT<br/><a href="https://news.google.com/rss/articles/CBMiqAFBVV95cUxNU2x6eEFDX0ZLN19IZW9WNWV0RjFvNmZzRm90UVlEdFp0UXdpLVA4bnh5VEpHcER0ckJCXzRLMnJBZk1FajVDR1kwV0EyRk5FNmxhUG16UHlkTDdKSXN4RGFRNHIxVndrbGdLRldQRlhLdjVtWGxHNjU5RTVIQ3lTaW9PQmdaZG5XUnJ0T2htcjhqZ0syX2hKOWZIeG9TTDhNT3ZFaDVDaXk?oc=5">open article</a>]]></description><Point><coordinates>77.21,28.61,0</coordinates></Point></Placemark>
<Placemark><name>Two dead, 14 missing after avalanche on Nepal’s Himlung peak</name><styleUrl>#Climate</styleUrl><description><![CDATA[DHTR · Mon, 28 Sep 2026 12:28:56 GMT<br/><a href="https://news.google.com/rss/articles/CBMiowFBVV95cUxOZHQ2NW1YaUhWMi1UcDVBVkN2RTRXUDllNFpWNWR6aG8wQlI1LTVxdmxpZ3JSeXpyVmowZHJiQlhpcUkzNWN2bHRTOVQ4eFVXcjdwdVJlS1hHVlFBTFpUUmJUS1Zqd2pyRlNsc1NDTFFrWEFUX0I1RHRJTUZ3VmUyLUthOFhIUEMydjFRQUxVLVNvWmpSTElOdWpldVk3Tk1nTFI40gGoAUFVX3lxTE9LLTZQNU9kRDczeDhQNVdjcG9hb2JHYjBWS2pHcXNRLTFtN0NPMFY3SUx2azJLeVF0VDFQWVR4c2FkRmVMVGZSdTUtT3kyaU9GVzBHRlcwOHpmOVM3RmpaeWptOXplWVU2OGNWYU5BaVY2bG1iQms4Zk5hUlVUaFZRMi1obDRzTUEwU1JpSlozTS01a1F2aUlON3FzSW5zZEJ1VEI4QXZXSQ?oc=5">open article</a>]]></description><Point><coordinates>84,28.2,0</coordinates></Point></Placemark>
<Placemark><name>At least one dead as villages flooded in southern Myanmar’s Tanintharyi Region</name><styleUrl>#Climate</styleUrl><description><![CDATA[MNOW · Mon, 28 Sep 2026 12:09:46 GMT<br/><a href="https://myanmar-now.org/en/news/at-least-one-dead-as-villages-flooded-in-southern-myanmars-tanintharyi-region/">open article</a>]]></description><Point><coordinates>96.1,21,0</coordinates></Point></Placemark>
<Placemark><name>Flood damage estimated at ฿12.3 bn, Bangkok hardest hit</name><styleUrl>#Climate</styleUrl><description><![CDATA[TPBS · Mon, 28 Sep 2026 12:04:11 GMT<br/><a href="https://news.google.com/rss/articles/CBMiVkFVX3lxTE9vSXNsdGhhc2N5RmZfSTlNc1IwZ1NzVmpnQkF5bjBEVGE3bEZFX3BNOXpMX2pTa2hfOUJha3FLLVE3V0NFc2JOSGN6TGxzYkJsMGdiSklR?oc=5">open article</a>]]></description><Point><coordinates>100.5,13.76,0</coordinates></Point></Placemark>
<Placemark><name>Coal-driven electricity growth raises urban air pollution, deaths concerns in India: Study</name><styleUrl>#Climate</styleUrl><description><![CDATA[DTE · Mon, 28 Sep 2026 11:46:34 GMT<br/><a href="https://news.google.com/rss/articles/CBMiwAFBVV95cUxPa0JUYVhucXJRbTBDUFZHWkRrTmJMc2Z6MDdrLUhoZlpSREI2cDdsZWVHVDZJN1c4bnJ5LWNqRUJfRTl2cHgydjU3c1R5YVZiNnI0SGh2Y1pLcG5YOWlXRF8takFEakQ5ZVVoMC1QWFFIQktYVVF5VnBRYnZCLUUwdTlNQXRzN3BGcU9RalkyV3lrd1pzNDRxenp5N253OUhnOVFEQV9wUUFnRmZXSDdLT1BuU3JHSEozZUxKLU9DZmLSAc4BQVVfeXFMT3JPV1ZjNlRicUZPSTBvR01hOVp5ODFVcllTRk56LVhJQXk2Z2FnWWpOeFVPejdUcDVLWkFhVmFKSjFUZkxYUDZ1SWJVaUhxQ0tsdGxtLWsyZmE3Nk1sb2xoMjZxU0tCTmw1d1ZLNDJXbk55dm10d0tuUlZoMmpzbTg4cXRLQVdZdjU5eGFkYkEwOV9HOU9pdkY1QjJiSDdnMGExQjJHOXdXSjRPZW1LUlBQVDZVQ2ttdV9EeU9fSFRLUzNnS2ZDbHc4REt3Y0E?oc=5">open article</a>]]></description><Point><coordinates>79.6,22.9,0</coordinates></Point></Placemark>
<Placemark><name>Bangkok floods affect 700,000 people as eight districts remain flooded</name><styleUrl>#Climate</styleUrl><description><![CDATA[KHAO · Mon, 28 Sep 2026 11:32:19 GMT<br/><a href="https://news.google.com/rss/articles/CBMiuAFBVV95cUxPbE1yWV9aUjhPUzRRSS1FenVqbS1Bc3ZOU3gyZ0lTcEdHNzlCTHYxUjUwdmJRUFpjdEF3UHVrai1aWmktWnh6VF9tODh1ZTVRUXNxQWp6Ty1zUDlIMGxhVzZtdFVjbk5TYUFVRGUtV2Q1cVFpNGFKR1FOeV9HRFg0b2RqUHVldmM4dng0Vk5Wdy13T1llTGxMOVltRGo3MG03ZS04NjZ3aWNqRTVpYV85ck41Tk5LMWJ10gG-AUFVX3lxTFBxLVB2NEc2OGQ2V3BhOVdUVVoyakR5a3RJTWRVMm5TWGJhSVhLV0pLS3BMaExVa1J2MlNXa1E0R2g2S2gwVTVnSHc5V1hLQkFnYlNuR3Q1U2RSU1VZTkVLX3VicWVZclIwZVMtbF9ocnF1R3VTc2Mxb0FkcW9kaWJ2M0l3ZmpUQVNwaWhqT0U0OXMxclRTcWtGLW9FVGtaSTQwOTRZTnRPSHdwYzViQmllcExDM0FYckdhVzA2SVE?oc=5">open article</a>]]></description><Point><coordinates>100.5,13.76,0</coordinates></Point></Placemark>
<Placemark><name>Bicol provinces prepare water security, crop interventions vs. El Niño</name><styleUrl>#Climate</styleUrl><description><![CDATA[PNA · Mon, 28 Sep 2026 10:47:17 GMT<br/><a href="https://news.google.com/rss/articles/CBMiUEFVX3lxTE9DdWQ4U0dFcGZ4RE5NTnN1U1dfemZmLVdibHVCaG5RRUR2bm9CR0VDbnhFMTJRUnBoZUFhQzRzTHMzNmc0UmppUER1MTk3cGo4?oc=5">open article</a>]]></description><Point><coordinates>121.8,12.9,0</coordinates></Point></Placemark>
<Placemark><name>Bang Kapi still flooded as residents stock up, some sleep on skywalk</name><styleUrl>#Climate</styleUrl><description><![CDATA[KHAO · Mon, 28 Sep 2026 09:52:15 GMT<br/><a href="https://news.google.com/rss/articles/CBMitgFBVV95cUxPUE5LOXhJT05xcTg0QnJlUDRSM3dhSlB6NVVmaExrVHJsV3ExN0pLcEtnM1JVdnNDbG1nMnRON1VZM0kySXVyTFlGcEFnWGg1R0NNMzljdm1wcXNtaWZxS3MtQ1praTVYM0Y1VXJsZW1UdGZNbjJwZE1ydWFORnQtMmRQNTRoMGZVWHU4YVQ3UXdUTmoyRGVJWWs0b0ozVnAxczhaZGZUWWlCVVMzSmxKc1Y4cWk1Z9IBuwFBVV95cUxOd1dZM3RnUGprb2ZBS1V6bmQ5VWtfWUd6RUM1azg5alpPMHhHREFfbjVUeFFpNmQwbkpBMFFXdDR1Nm5JOFd2eUE4R1FFbVE0ZmpOSGpDSDg4NDg4NW81clYwbDk2cXMwZllMaEhCMHp2UVFnSEpDRVRsUW1wRTNSejN1VEhmdUN4ZUw3YUgwWS1MeXBMam9tYnJFcVZmX0hXYzFGaE9yZFZISmx2RXVRRTdDa1RYUE1wOHo4?oc=5">open article</a>]]></description><Point><coordinates>101,15,0</coordinates></Point></Placemark>
<Placemark><name>Floods, landslides kill 56 in India and 14 in Nepal</name><styleUrl>#Climate</styleUrl><description><![CDATA[OOBS · Mon, 28 Sep 2026 09:11:15 GMT<br/><a href="https://news.google.com/rss/articles/CBMiqAFBVV95cUxPTG85aGZORmIzeUtmVUFHMFNNbURrbTdpUEp4R2N1WDBleDFLb3ZaaEZfMWpsOFRZQ0w1dkpVNzc0M2tzdThKR0kxZ1JpUW9tbG1Iemg5TFlDaUh1UDdJWnpnTi1rYzZIZWVIbkNlc3BHbC1BbHZYQkV5SHl0Yk9CTVcxMXNzRXBOdFlVS1B6aVhMQzMwREM0RWxOMGwyWTNQblNYTzdtMFHSAVpBVV95cUxOTUxDQkFtejMzQXh4aUdwOVBOY0ExNGRJMk5rY3ljV1JZaEJjMjkxeG9EWTZnbHIyaVhIdFVHV01YZ2tIS3NIcGZVckUtTHRpd2pMQWFmT2huTnc?oc=5">open article</a>]]></description><Point><coordinates>79.6,22.9,0</coordinates></Point></Placemark>
<Placemark><name>Iloilo town eyes state of calamity as drought losses reach P46.1M</name><styleUrl>#Climate</styleUrl><description><![CDATA[PNA · Mon, 28 Sep 2026 09:06:53 GMT<br/><a href="https://news.google.com/rss/articles/CBMiUEFVX3lxTE9WVXV2dXJjYWNhcFo4WjFvZENUbHlpX3hCNTQ0UzhrQ1hBZXNXaXYwNDNFZ2xqNmJSaVFMU2tPZzdTbk10a09MMjFoQW5zTHF6?oc=5">open article</a>]]></description><Point><coordinates>121.8,12.9,0</coordinates></Point></Placemark>
<Placemark><name>Thai Airways clears delayed baggage after floods disrupt ground services</name><styleUrl>#Climate</styleUrl><description><![CDATA[NATH · Mon, 28 Sep 2026 08:48:00 GMT<br/><a href="https://news.google.com/rss/articles/CBMiakFVX3lxTFBoank3SjVqcTB2TG9mQjRYOWpEOUpSczFQVzhHTkFEZDJQbzk5dmNPcXgyVW1XcXJZWklMOER1dmlaRjZ6MlBiU1J1RGxCT0l0c0RERnRhWk1xcVBzSkdzWXdHdEdkNkhES1E?oc=5">open article</a>]]></description><Point><coordinates>101,15,0</coordinates></Point></Placemark>
<Placemark><name>Thai Airways suspends CEO after Bangkok airport chaos during flooding</name><styleUrl>#Climate</styleUrl><description><![CDATA[NIKK · <br/><a href="https://asia.nikkei.com/business/transportation/thai-airways-suspends-ceo-after-bangkok-airport-chaos-during-flooding">open article</a>]]></description><Point><coordinates>100.5,13.76,0</coordinates></Point></Placemark>
<Placemark><name>Prioritise economic recovery and job accessibility for flood-affected communities</name><styleUrl>#Climate</styleUrl><description><![CDATA[KTMP · <br/><a href="https://kathmandupost.com/editorial/2026/10/05/prioritise-economic-recovery-and-job-accessibility-for-flood-affected-communities">open article</a>]]></description><Point><coordinates>84,28.2,0</coordinates></Point></Placemark>
<Placemark><name>Monsoon pulls out as forecast points to a drier Dashain</name><styleUrl>#Climate</styleUrl><description><![CDATA[KTMP · <br/><a href="https://kathmandupost.com/weather/2026/10/04/monsoon-pulls-out-as-forecast-points-to-a-drier-dashain">open article</a>]]></description><Point><coordinates>84,28.2,0</coordinates></Point></Placemark></Document></kml>