<?xml version="1.0" encoding="UTF-8"?>
<kml xmlns="http://www.opengis.net/kml/2.2"><Document><name>IP Terminal — Conflict</name><Style id="Conflict"><IconStyle><color>ff3a47b0</color><scale>0.9</scale><Icon><href>http://maps.google.com/mapfiles/kml/shapes/placemark_circle.png</href></Icon></IconStyle></Style><Style id="Climate"><IconStyle><color>ff6b7d2e</color><scale>0.9</scale><Icon><href>http://maps.google.com/mapfiles/kml/shapes/placemark_circle.png</href></Icon></IconStyle></Style><Style id="Nexus"><IconStyle><color>ff8a4a5b</color><scale>0.9</scale><Icon><href>http://maps.google.com/mapfiles/kml/shapes/placemark_circle.png</href></Icon></IconStyle></Style><Style id="Other"><IconStyle><color>ff9aa0a7</color><scale>0.9</scale><Icon><href>http://maps.google.com/mapfiles/kml/shapes/placemark_circle.png</href></Icon></IconStyle></Style><Placemark><name>Military build-up on Philippine island risks conflict spillover to nearby Malaysia, says Khaled Nordin</name><styleUrl>#Conflict</styleUrl><description><![CDATA[MMAI · Sat, 03 Oct 2026 07:10:56 GMT<br/><a href="https://www.malaymail.com/news/malaysia/2026/10/03/military-build-up-on-philippine-island-risks-conflict-spillover-to-nearby-malaysia-says-defence-minister/237536">open article</a>]]></description><Point><coordinates>102.3,4,0</coordinates></Point></Placemark>
<Placemark><name>No coordination with Taiwan in driving away Chinese ship off Batanes --Tarriela</name><styleUrl>#Conflict</styleUrl><description><![CDATA[GMA · Sat, 03 Oct 2026 07:10:24 GMT<br/><a href="https://www.gmanetwork.com/news/topstories/nation/1004631/no-coordination-with-taiwan-in-driving-away-chinese-ship-off-batanes-tarriela/story/">open article</a>]]></description><Point><coordinates>121.8,12.9,0</coordinates></Point></Placemark>
<Placemark><name>11 terrorists killed during operations in KP, Balochistan: state media</name><styleUrl>#Conflict</styleUrl><description><![CDATA[DAWN · Sat, 03 Oct 2026 07:01:10 GMT<br/><a href="https://www.dawn.com/news/2034449/11-terrorists-killed-during-operations-in-kp-balochistan-state-media">open article</a>]]></description><Point><coordinates>65.5,28.5,0</coordinates></Point></Placemark>
<Placemark><name>Co-pilot attacked Indian captain with crash axe: UAE on flydubai 'terrorist attack'</name><styleUrl>#Conflict</styleUrl><description><![CDATA[TOI · Sat, 03 Oct 2026 06:51:54 GMT<br/><a href="https://timesofindia.indiatimes.com/world/middle-east/co-pilot-attacked-indian-captain-with-crash-axe-uae-on-flydubai-terrorist-attack/articleshow/134653780.cms">open article</a>]]></description><Point><coordinates>79.6,22.9,0</coordinates></Point></Placemark>
<Placemark><name>Omani copilot attempted 'terrorist attack', attacked Indian pilot Smit Machchhar with axe: UAE</name><styleUrl>#Conflict</styleUrl><description><![CDATA[HT · Sat, 03 Oct 2026 06:47:39 GMT<br/><a href="https://www.hindustantimes.com/india-news/omani-copilot-attempted-terrorist-attack-attacked-indian-pilot-smit-machchhar-with-axe-uae-flydubai-fz1073-israel-101791009495686.html">open article</a>]]></description><Point><coordinates>79.6,22.9,0</coordinates></Point></Placemark>
<Placemark><name>Flydubai co-pilot attacked pilot with axe, attempted 'terrorist' attack, UAE says</name><styleUrl>#Conflict</styleUrl><description><![CDATA[GMA · Sat, 03 Oct 2026 06:40:17 GMT<br/><a href="https://www.gmanetwork.com/news/topstories/world/1004630/flydubai-co-pilot-attacked-pilot-with-axe-attempted-terrorist-attack-uae-says/story/">open article</a>]]></description><Point><coordinates>121.8,12.9,0</coordinates></Point></Placemark>
<Placemark><name>75-Year-Old Dies Of Heart Attack During CJP Protest At Mumbai's Shivaji Park</name><styleUrl>#Conflict</styleUrl><description><![CDATA[NDTV · Sat, 03 Oct 2026 06:37:07 GMT<br/><a href="https://www.ndtv.com/india-news/75-year-old-dies-of-heart-attack-during-cjp-protest-at-mumbais-shivaji-park-12132883#publisher=newsstand">open article</a>]]></description><Point><coordinates>72.88,19.08,0</coordinates></Point></Placemark>
<Placemark><name>After CAPF constable’s death in Bijapur, family alleges murder</name><styleUrl>#Conflict</styleUrl><description><![CDATA[HIND · Sat, 03 Oct 2026 06:28:11 GMT<br/><a href="https://www.thehindu.com/news/national/chhattisgarh/after-capf-constables-death-in-bijapur-family-alleges-murder/article71537632.ece">open article</a>]]></description><Point><coordinates>79.6,22.9,0</coordinates></Point></Placemark>
<Placemark><name>Asian Games: Japan cycling queen dedicates gold to late brother</name><styleUrl>#Conflict</styleUrl><description><![CDATA[INQ · Sat, 03 Oct 2026 06:27:43 GMT<br/><a href="https://sports.inquirer.net/699822/asian-games-japan-cycling-queen-dedicates-gold-to-late-brother">open article</a>]]></description><Point><coordinates>121.8,12.9,0</coordinates></Point></Placemark>
<Placemark><name>11 terrorists killed in KP and Balochistan IBOs: Security sources</name><styleUrl>#Conflict</styleUrl><description><![CDATA[ARY · Sat, 03 Oct 2026 06:19:06 GMT<br/><a href="https://arynews.tv/11-terrorists-killed-in-kp-and-balochistan-ibos-security-sources">open article</a>]]></description><Point><coordinates>65.5,28.5,0</coordinates></Point></Placemark>
<Placemark><name>Mumbai police question IIT-Bombay professor Doolla for 10 hours over student Sahil Wakode’s death</name><styleUrl>#Conflict</styleUrl><description><![CDATA[HIND · Sat, 03 Oct 2026 06:11:30 GMT<br/><a href="https://www.thehindu.com/news/cities/mumbai/mumbai-police-question-iit-bombay-professor-doolla-for-10-hours-over-student-sahil-wakodes-death/article71539769.ece">open article</a>]]></description><Point><coordinates>72.88,19.08,0</coordinates></Point></Placemark>
<Placemark><name>Endangered green sea turtle found weak on CamSur shore dies</name><styleUrl>#Conflict</styleUrl><description><![CDATA[INQ · Sat, 03 Oct 2026 06:10:54 GMT<br/><a href="https://newsinfo.inquirer.net/2316117/endangered-green-sea-turtle-found-weak-on-camsur-shore-dies">open article</a>]]></description><Point><coordinates>121.8,12.9,0</coordinates></Point></Placemark>
<Placemark><name>UK children tested 600,000 space seeds; they grew slower but stayed viable</name><styleUrl>#Conflict</styleUrl><description><![CDATA[TOI · Sat, 03 Oct 2026 06:03:03 GMT<br/><a href="https://timesofindia.indiatimes.com/science/space/in-2015-2kg-of-rocket-seeds-went-to-the-space-station-after-their-return-600000-uk-children-helped-test-them-and-researchers-found-they-grew-more-slowly-but-remained-viable/articleshow/134653097.cms">open article</a>]]></description><Point><coordinates>79.6,22.9,0</coordinates></Point></Placemark>
<Placemark><name>Maharashtra's Hingoli sees two mild tremors within hours; no casualties reported</name><styleUrl>#Conflict</styleUrl><description><![CDATA[HT · Sat, 03 Oct 2026 05:57:32 GMT<br/><a href="https://www.hindustantimes.com/india-news/maharashtras-hingoli-sees-two-mild-tremors-within-hours-no-casualties-reported-101791006604138.html">open article</a>]]></description><Point><coordinates>79.6,22.9,0</coordinates></Point></Placemark>
<Placemark><name>Israeli airstrike in Gaza kills 5, severely injures 6</name><styleUrl>#Conflict</styleUrl><description><![CDATA[PJWK · Sat, 03 Oct 2026 05:45:30 GMT<br/><a href="https://news.google.com/rss/articles/CBMijAFBVV95cUxNVXRTQzZPRzI0VG8teF84ODNwUVRMRW9GVWY0RzVrTGFLZkdjcVFxM3ExMC03UjY5Q3RINkhkQWt3dEkxYnhvYU4zYVJBUHBXY2p6b2hSY2dzZlZlMDJDdFQ1ZFp5TnJhMGVnNjVmX0c3RE0tWXpldnFZRDhXLWVsNGVzdWloOVhtNnVYbg?oc=5">open article</a>]]></description><Point><coordinates>67.7,33.9,0</coordinates></Point></Placemark>
<Placemark><name>Taiwan-donated patrol vessel commissioned into Philippine Coast Guard - Focus Taiwan</name><styleUrl>#Conflict</styleUrl><description><![CDATA[FTWN · Sat, 03 Oct 2026 05:32:00 GMT<br/><a href="https://news.google.com/rss/articles/CBMiV0FVX3lxTFBicnZUcGdHR2V1RUFLQ2FMODJKS1dfaXVIbE9kN284RjdVV2pBMU1FbkR6RFAta01WX2hwaWgyU2g3OExaSFE5aDdfeTdtVm1lNExqUlpNVQ?oc=5">open article</a>]]></description><Point><coordinates>121.8,12.9,0</coordinates></Point></Placemark>
<Placemark><name>7 died of gas poisoning in Benguet mining tunnel, police confirms</name><styleUrl>#Conflict</styleUrl><description><![CDATA[GMA · Sat, 03 Oct 2026 05:23:51 GMT<br/><a href="https://www.gmanetwork.com/news/topstories/regions/1004625/7-died-of-gas-poisoning-in-benguet-mining-tunnel-police-confirms/story/">open article</a>]]></description><Point><coordinates>121.8,12.9,0</coordinates></Point></Placemark>
<Placemark><name>At least five workers killed in boiler explosion at pharma unit in Andhra Pradesh's Sri City SEZ</name><styleUrl>#Conflict</styleUrl><description><![CDATA[HT · Sat, 03 Oct 2026 05:19:29 GMT<br/><a href="https://www.hindustantimes.com/india-news/at-least-five-workers-killed-in-boiler-explosion-at-pharma-unit-in-andhra-pradeshs-sri-city-sez-tirupati-district-101791004160025.html">open article</a>]]></description><Point><coordinates>79.6,22.9,0</coordinates></Point></Placemark>
<Placemark><name>Jantar Mantar protest: Hundreds detained, students walk several km to reach site</name><styleUrl>#Conflict</styleUrl><description><![CDATA[TOI · Sat, 03 Oct 2026 05:00:19 GMT<br/><a href="https://timesofindia.indiatimes.com/city/delhi/hundreds-detained-in-jantar-mantar-for-stir-against-ec/articleshow/134652217.cms">open article</a>]]></description><Point><coordinates>79.6,22.9,0</coordinates></Point></Placemark>
<Placemark><name>Crackdown intensifies on counterfeits, intellectual property violations</name><styleUrl>#Conflict</styleUrl><description><![CDATA[VPLS · Sat, 03 Oct 2026 04:30:00 GMT<br/><a href="https://news.google.com/rss/articles/CBMisAFBVV95cUxNQk4yWkFWeTBWV2xFb1JvRi1GQjhzLWMzakhRYWtqU0RpUkFCNkhIcmhQbG1RamZ4d2xOOVFDNDNWUmFsNTN2ZTh2OURvNWtGcEdQR1g4VlBNQmwwUUtSdFlHYTZJQk5xWW14UkZLQTN1eG1wZGpYZkdiMWFpdmJma294Wm93dlZhc01xRWRUS1A0c3FXUS0xSm9xQjhINVc0SE9FUEtoTnBOcUVlalZVNg?oc=5">open article</a>]]></description><Point><coordinates>107.8,16,0</coordinates></Point></Placemark>
<Placemark><name>Army officer arrested at public university with firearm, preliminary test positive for ketum compound</name><styleUrl>#Conflict</styleUrl><description><![CDATA[MMAI · Sat, 03 Oct 2026 04:29:36 GMT<br/><a href="https://www.malaymail.com/news/malaysia/2026/10/03/army-officer-arrested-at-public-university-with-firearm-preliminary-test-positive-for-ketum-compound/237504">open article</a>]]></description><Point><coordinates>101.69,3.14,0</coordinates></Point></Placemark>
<Placemark><name>Russia To Cut Education Funds To Boost Defence Spending Amid Ukraine War</name><styleUrl>#Conflict</styleUrl><description><![CDATA[NDTV · Sat, 03 Oct 2026 04:26:29 GMT<br/><a href="https://www.ndtv.com/world-news/russia-budget-2027-to-cut-education-funds-boost-defence-spending-ukraine-war-12132459#publisher=newsstand">open article</a>]]></description><Point><coordinates>79.6,22.9,0</coordinates></Point></Placemark>
<Placemark><name>50-year-old man dies, son injured after house collapses in Delhi’s Jwalapuri</name><styleUrl>#Conflict</styleUrl><description><![CDATA[HT · Sat, 03 Oct 2026 03:56:44 GMT<br/><a href="https://www.hindustantimes.com/india-news/50yearold-man-dies-son-injured-after-house-collapses-in-delhi-s-jwalapuri-101790999804829.html">open article</a>]]></description><Point><coordinates>77.21,28.61,0</coordinates></Point></Placemark>
<Placemark><name>Guinea grants opposition figure Aliou Bah presidential pardon</name><styleUrl>#Conflict</styleUrl><description><![CDATA[FMT · Sat, 03 Oct 2026 02:48:16 GMT<br/><a href="https://www.freemalaysiatoday.com/category/world/2026/10/03/guinea-grants-opposition-figure-aliou-bah-presidential-pardon">open article</a>]]></description><Point><coordinates>102.3,4,0</coordinates></Point></Placemark>
<Placemark><name>Capital blockade chokes Karachi Port operations</name><styleUrl>#Conflict</styleUrl><description><![CDATA[DAWN · Sat, 03 Oct 2026 02:39:23 GMT<br/><a href="https://www.dawn.com/news/2034343/capital-blockade-chokes-karachi-port-operations">open article</a>]]></description><Point><coordinates>67,24.86,0</coordinates></Point></Placemark>
<Placemark><name>LAC ‘friction points’ marked on India map</name><styleUrl>#Conflict</styleUrl><description><![CDATA[HT · Sat, 03 Oct 2026 02:16:30 GMT<br/><a href="https://www.hindustantimes.com/india-news/lac-friction-points-marked-on-india-map-101790967820028.html">open article</a>]]></description><Point><coordinates>77.6,34.2,0</coordinates></Point></Placemark>
<Placemark><name>China widens military footprint with Laos air base</name><styleUrl>#Conflict</styleUrl><description><![CDATA[MYRP · Sat, 03 Oct 2026 02:04:31 GMT<br/><a href="https://news.google.com/rss/articles/CBMiqAFBVV95cUxNN3VYNWljZnBKdGlEVnd1S25sRDhRd0ExVFpRRmUwNm5KaHFPT0xtb3V6VF9SSFNCQXFnNVlMQTBRaUJxZGl6ckRSb3JTSi13M0xDNHg2NG9pSTN4SFdkX1NaLWFoSmxXSGZUUm9IM0JvLVp2d0p5TDFFdEx5TTlvelBFQmtxT2hYbDZzV1dhQktnOFlORjU0Y2JDa3hWWk1sSkVFUWQyNXM?oc=5">open article</a>]]></description><Point><coordinates>102.5,19.9,0</coordinates></Point></Placemark>
<Placemark><name>Uncertified LED bulbs grab half of Tk3,000cr market, squeezing compliant manufacturers</name><styleUrl>#Conflict</styleUrl><description><![CDATA[TBS · Sat, 03 Oct 2026 01:25:00 GMT<br/><a href="https://news.google.com/rss/articles/CBMivwFBVV95cUxOdWUwX0NRSTlGXzU5Unk2YWFYRnpBc2dBOEowNHdkUDJEUnZkMHFWNUdIdy1RQXZBQmlxdG5mZUxzZVdGZ1BnMmNpMGF6SWFwbUtpQWZOSER3SDYzSTc4T3VIRkhKaERESWpVZVJKbWQ5UkFibmNUeFVMbDBFQ3pYX1dXWF9ELWo3MlItNFJNRDVRNURFcFM1OHJMLS1mc0h4eF9vRjdsY0huQzI0aXhjTVRONGlPQ3FDX2xhWDFzQQ?oc=5">open article</a>]]></description><Point><coordinates>90.4,23.7,0</coordinates></Point></Placemark>
<Placemark><name>Motivational speaker under police investigation over alleged child sexual harassment in Perlis</name><styleUrl>#Conflict</styleUrl><description><![CDATA[MMAI · Sat, 03 Oct 2026 00:59:25 GMT<br/><a href="https://www.malaymail.com/news/malaysia/2026/10/03/motivational-speaker-under-police-investigation-over-alleged-child-sexual-harassment-in-perlis/237453">open article</a>]]></description><Point><coordinates>102.3,4,0</coordinates></Point></Placemark>
<Placemark><name>North Korea fires ballistic missile toward sea, South Korea and Japan say</name><styleUrl>#Conflict</styleUrl><description><![CDATA[GMA · Sat, 03 Oct 2026 00:31:03 GMT<br/><a href="https://www.gmanetwork.com/news/topstories/world/1004605/north-korea-fires-ballistic-missile-toward-sea-south-korea-and-japan-say/story/">open article</a>]]></description><Point><coordinates>121.8,12.9,0</coordinates></Point></Placemark>
<Placemark><name>The Spring Revolution Is Not Fading Away – Part 1</name><styleUrl>#Conflict</styleUrl><description><![CDATA[DVB · Fri, 02 Oct 2026 23:00:00 GMT<br/><a href="https://english.dvb.no/124004-2/">open article</a>]]></description><Point><coordinates>96.1,21,0</coordinates></Point></Placemark>
<Placemark><name>Trade deal with India not imminent, sticking points identified: USTR</name><styleUrl>#Conflict</styleUrl><description><![CDATA[IE · Fri, 02 Oct 2026 21:53:00 GMT<br/><a href="https://news.google.com/rss/articles/CBMi7AFBVV95cUxPT3pNTjE1YjI5QUl2ZGx6eUJCQTlGR0tBdU8xdk5FOGZ3aUFqUVhEZDhibldaOUk3Ujc2MDZFYUUteVM2S1dyempqSzF6LWNJY0JyaUxYa1ZrWERreGE3NVVUbk1nalNtSzNXRzdELVJpLUphSVcwNUdEaWZkVDRndEUyeGVNTEc5d0ZhYWZ6SndWS29yWFQwVFFUb2otY2kwZFFCYzZOVk1Zd2tmc1N1eC10ZmpLOXRHMVJRc05EekVBWlZoa3ZTNDRHUV92MU00bW1OTFhsUjd2cG42VDVJZ0xuWVg2NGowdzVLdNIB8wFBVV95cUxOeldyU2ZLcUpKbGwzcWdtZGxlR2pwMWpDNUxnSWRTdHQwalIzV0NQM2tjaTAySHh5QmNVa3lUQ1BmWjlsSmhiTlNBanlfYUptalUycFl5VkxiVVJLMUpPOS00ZzUzbXF4cFduRzRndjFYN24wZFJYNVYyUk1DWEl4ejQ3WjhTenhaRVh0NjJLeGZPRVNSblFEVEZhYlM4bEZWLWxLbWpLalczU0E5a1VjUDhCRmVMaHpzYmx4SFdFMEZvQ1RFQUxHd0dwY0tmakxKaXpCM0JVc3V1ZERwbHhQOEJtXzhLRDI3RkVtUEFGc0JZeTQ?oc=5">open article</a>]]></description><Point><coordinates>79.6,22.9,0</coordinates></Point></Placemark>
<Placemark><name>Taiwan coastguard uses water cannons to warn off mainland Chinese fishing vessel</name><styleUrl>#Conflict</styleUrl><description><![CDATA[SCMP · Fri, 02 Oct 2026 18:33:28 GMT<br/><a href="https://www.scmp.com/news/china/politics/article/3369634/taiwan-coastguard-uses-water-cannons-warn-mainland-chinese-fishing-vessel?utm_source=rss_feed">open article</a>]]></description><Point><coordinates>110,32,0</coordinates></Point></Placemark>
<Placemark><name>The Nuristan clash and the shifting intelligence geometry of South Asia</name><styleUrl>#Conflict</styleUrl><description><![CDATA[AMU · Fri, 02 Oct 2026 16:39:00 GMT<br/><a href="https://amu.tv/253671/">open article</a>]]></description><Point><coordinates>67.7,33.9,0</coordinates></Point></Placemark>
<Placemark><name>USNI News Western Pacific Pulse: Oct. 2, 2026</name><styleUrl>#Conflict</styleUrl><description><![CDATA[USNI · Fri, 02 Oct 2026 16:13:28 GMT<br/><a href="https://news.usni.org/2026/10/02/usni-news-western-pacific-pulse-oct-2-2026">open article</a>]]></description><Point><coordinates>100.5,3,0</coordinates></Point></Placemark>
<Placemark><name>Army's top brass warns of 'decisive force' against any 'May 9-like situation'</name><styleUrl>#Conflict</styleUrl><description><![CDATA[DAWN · Fri, 02 Oct 2026 15:56:28 GMT<br/><a href="https://www.dawn.com/news/2034262/armys-top-brass-warns-of-decisive-force-against-any-may-9-like-situation">open article</a>]]></description><Point><coordinates>73.07,33.6,0</coordinates></Point></Placemark>
<Placemark><name>S'pore man, 24, who died 2 weeks after Muay Thai charity match, saves 4 lives with organ donation</name><styleUrl>#Conflict</styleUrl><description><![CDATA[MOTH · Fri, 02 Oct 2026 15:29:34 GMT<br/><a href="https://mothership.sg/2026/10/damian-ong-muay-thai-died-donate-organs/">open article</a>]]></description><Point><coordinates>101,15,0</coordinates></Point></Placemark>
<Placemark><name>India’s Cockroach movement launches new protests over changes to voter roll</name><styleUrl>#Conflict</styleUrl><description><![CDATA[GUAR · Fri, 02 Oct 2026 14:42:16 GMT<br/><a href="https://www.theguardian.com/world/2026/oct/02/india-cockroach-movement-protests-mumbai-changes-voter-roll">open article</a>]]></description><Point><coordinates>72.88,19.08,0</coordinates></Point></Placemark>
<Placemark><name>Iran ready to present investment projects to Turkmenistan, regional partners</name><styleUrl>#Conflict</styleUrl><description><![CDATA[TEHT · Fri, 02 Oct 2026 14:27:18 GMT<br/><a href="https://www.tehrantimes.com/news/530646/Iran-ready-to-present-investment-projects-to-Turkmenistan-regional">open article</a>]]></description><Point><coordinates>51.39,35.69,0</coordinates></Point></Placemark>
<Placemark><name>China Inaugurates Two Military Hubs in Laos</name><styleUrl>#Conflict</styleUrl><description><![CDATA[DEFP · Fri, 02 Oct 2026 13:27:56 GMT<br/><a href="https://news.google.com/rss/articles/CBMiigFBVV95cUxNUWtYRjl0dC1uNWFXdF9sZWpvWWdhQ1h6M0NYUGV0RGlWOFpBRS1CVnNXZFN6U2JUZVFMZl9Sd1MzWnlEd0NGWlhWQWtZWjdCSThDUlFNME56djhMNzNpMk8yMk52cGp6UHhFOWNMc0haYUViLUtuOGdHZ0hwR1prc2pqQ2YxQk83OHfSAY8BQVVfeXFMTVBpY1k4bnd6WDh2VE9adldQaUc1OEpHX0RJa2RQYVQtUGIybnFWUXRwejZPRFBsZy1FazlKTVR1TTNseFZfOTg4MXhNVDY0bXo3UW9EV0JDczViSDJFOGxKMjA4ZTJSQzN2N2UzQWNDX0t6WUd1UWFjZ1RoNFZXd2loTFh1aVpJeUoxMEpCNTg?oc=5">open article</a>]]></description><Point><coordinates>102.5,19.9,0</coordinates></Point></Placemark>
<Placemark><name>Kandahar’s Taliban Governor Denies Meeting Foreign Militants In Afghanistan</name><styleUrl>#Conflict</styleUrl><description><![CDATA[AFIN · Fri, 02 Oct 2026 13:07:54 GMT<br/><a href="https://news.google.com/rss/articles/CBMiT0FVX3lxTFA0NXdLblRReS12endPT1BXTFNlTlJoZlhFcGl5WEJCSDNSZmd2SnBJdG9TNm80OVVOSnAzRGIzeFMyNk9LS1RJR19uczR3bTQ?oc=5">open article</a>]]></description><Point><coordinates>65.72,31.62,0</coordinates></Point></Placemark>
<Placemark><name>Singapore Launches First Sentinel-class Offshore Patrol Vessel in Germany</name><styleUrl>#Conflict</styleUrl><description><![CDATA[NAVN · Fri, 02 Oct 2026 13:03:14 GMT<br/><a href="https://www.navalnews.com/naval-news/2026/10/singapore-launches-first-sentinel-class-offshore-patrol-vessel-in-germany/">open article</a>]]></description><Point><coordinates>103.82,1.35,0</coordinates></Point></Placemark>
<Placemark><name>Albino freshwater terrapins found abandoned at West Coast Park shore</name><styleUrl>#Conflict</styleUrl><description><![CDATA[MOTH · Fri, 02 Oct 2026 12:41:06 GMT<br/><a href="https://mothership.sg/2026/10/terrapins-abandoned-west-coast/">open article</a>]]></description><Point><coordinates>103.82,1.35,0</coordinates></Point></Placemark>
<Placemark><name>Form 6, Form 7, Form 8: SIR Puts Statutory Voter Forms at Odds With Its Software</name><styleUrl>#Conflict</styleUrl><description><![CDATA[WIRE · Fri, 02 Oct 2026 12:31:01 GMT<br/><a href="https://news.google.com/rss/articles/CBMiswFBVV95cUxQdFRkeWlqMlhwSXlMa3Q1TmF5a1VtMFp2Q3NSVFdlWmNERjc2UEpGS0plOTg2LTVkcWdTZTVndzFDWXFIeDc3azNpTk1tQ3BQaWR5Q1B1MVJQUUE4WXNRQ08xSzE0TU84MTR0bWFQMG5PWHNCY1dsczVKRVllWnJMMkxUWG82VUtHUzNRbHBDTERpMDFyS2tuUHdlX2J0QVlyRTBqQUJlS1ZKdm5KcHRiWDJmMNIBuAFBVV95cUxORDREMmhCRDQ2NGpQcGpjaWVlMG5CZWh3dWtHVWoxdklMLTF5ejgxMGphWGJpSnZZVXdiNkVUOWNUMG1lT0NfQWlwcXdKUF9YRTdxMGpQbmxZZXBJSnZtZU5fS2VxX2R6anpaOWl2SlRsc2I5QTRQaXRncXUtSnhvQ1NkbzhMN1RuY25MWWEyZDJlWTBqQUFjYm9na2p3RXJnam1ueC1CNVJWT3EtN2dHbjM0ZFNtVkl5?oc=5">open article</a>]]></description><Point><coordinates>79.6,22.9,0</coordinates></Point></Placemark>
<Placemark><name>Myanmar Regime Bombs Flood-Hit Dawei as Disaster Death Toll Tops 40</name><styleUrl>#Nexus</styleUrl><description><![CDATA[IRRA · Fri, 02 Oct 2026 12:02:20 GMT<br/><a href="https://news.google.com/rss/articles/CBMirgFBVV95cUxPN192b0tiUEdEeEtPRWxPclVGQ3lSdWF2ejQzZE1keEZlQk13ZldCUDVjbHA3bkU5Y1BoU2pWdzR3bk01NFNXZmJsR2FLRGxhZ0tLY2NLcHd2R1NrS0tmbFJLaWk5b0h4dTZha3NpRUFySXlva0dhdFFRRFVxeFdSWGI5bFBBeHBFcWxGbFQ1NUJ6SHV5R2ZXNVF2VGVES0J3NFA1cWlWbzRVTF9iTGc?oc=5">open article</a>]]></description><Point><coordinates>96.1,21,0</coordinates></Point></Placemark>
<Placemark><name>EU deplores civilian deaths in Kunar, Helmand airstrikes, urges restraint</name><styleUrl>#Conflict</styleUrl><description><![CDATA[AMU · Fri, 02 Oct 2026 11:25:11 GMT<br/><a href="https://amu.tv/253641/">open article</a>]]></description><Point><coordinates>67.7,33.9,0</coordinates></Point></Placemark>
<Placemark><name>As fires spread, Indonesia’s rubber growers draw on traditional ways to fight back</name><styleUrl>#Nexus</styleUrl><description><![CDATA[MONG · Fri, 02 Oct 2026 11:13:30 GMT<br/><a href="https://news.mongabay.com/2026/10/as-fires-spread-indonesias-rubber-growers-draw-on-traditional-ways-to-fight-back/">open article</a>]]></description><Point><coordinates>118,-2.5,0</coordinates></Point></Placemark>
<Placemark><name>EU condemns civilian casualties in Pakistani airstrikes on Kunar, Helmand</name><styleUrl>#Conflict</styleUrl><description><![CDATA[PJWK · Fri, 02 Oct 2026 10:59:16 GMT<br/><a href="https://news.google.com/rss/articles/CBMipwFBVV95cUxQbU8zRmpaRXNPQVdtQXRJa3pfT3ltcGN0Vkd5eGVxdjdsZTYzYjBmSUNsQnZ2eHJDX1NZTGFVcXVEajN3bHBnU0tKdmtPSmVBV0loSVVJWi1BNmxMMXNJMWVFQzh2MzVqZzFtZWhfSEpISkNnbXBBekVDZGx6NExoS1NQRDdCSnNkUWk0b0RuUkNSTXZlazRRbE54eFFSOEU5MHcwWGhDVQ?oc=5">open article</a>]]></description><Point><coordinates>69.3,30.4,0</coordinates></Point></Placemark>
<Placemark><name>Hun Manet defends army, rejects claims of poor frontline food supplies (VIDEO)</name><styleUrl>#Conflict</styleUrl><description><![CDATA[KHMT · Fri, 02 Oct 2026 10:24:25 GMT<br/><a href="https://news.google.com/rss/articles/CBMirgFBVV95cUxNY2s1QTZVOEZFS0Q2YURVYWlZN2JtRk8xM3UzdTJ1TmFhZDloZFdhSGhJVG02RVJ4Y0d4RWhfZmM5TC11ZEdhVFlEQTBvTHB5UTJEUm0tNXE5QW5rcE8zdnM5X2lHYmo1dlJtMHl0YlhmU1Q1R01aUEh0bmlJN3dLRDNsa3dpcGowN0pieWlhMnFmVnFOaXEwa3h0Q0V5QXZDRmNkcVBJdEZBOTVINnc?oc=5">open article</a>]]></description><Point><coordinates>104.9,12.5,0</coordinates></Point></Placemark>
<Placemark><name>About 3,000 Apply for Military Service as Conscription Enforcement Begins</name><styleUrl>#Conflict</styleUrl><description><![CDATA[CBJA · Fri, 02 Oct 2026 10:07:20 GMT<br/><a href="https://cambojanews.com/about-3000-apply-for-military-service-as-conscription-enforcement-begins/">open article</a>]]></description><Point><coordinates>101,15,0</coordinates></Point></Placemark>
<Placemark><name>Vietnam launches first embodied AI conference to advance robotics ecosystem - Vietnam Investment Review</name><styleUrl>#Conflict</styleUrl><description><![CDATA[VIR · Fri, 02 Oct 2026 10:00:00 GMT<br/><a href="https://news.google.com/rss/articles/CBMiqgFBVV95cUxNeFRQaXY3MzhMcGFfT3M2ZXMwOVQxU09mMjgtUkhlUnRNVGljanhGRjM3X01ueG1DSUE5YlB5U2ZaR2lHREVqeWIzWlNCd21uMmw5LXZ5LWszSlRfLUJEbmdlN05qVFFMVlI5b1k2UU5GZF9mMzBHVm4wQnZSVXdZZVhrRHVMZ1dtYmYtNzVlMUY0VVJNQWJhb2tfTkNEUTZ4QWcxQVVjRlVwQQ?oc=5">open article</a>]]></description><Point><coordinates>107.8,16,0</coordinates></Point></Placemark>
<Placemark><name>Solar farm pontoons modified to deliver urgent basic supplies in flooded Hua Takhe</name><styleUrl>#Nexus</styleUrl><description><![CDATA[TPBS · Fri, 02 Oct 2026 09:04:10 GMT<br/><a href="https://news.google.com/rss/articles/CBMiYEFVX3lxTE5paDFibWI4LWswSFVWV1d6ZVhlclk4dVlCbFBnSXRyRVRMMUpNOEZMMEtaT0tpYnRjUHNlazdjVmxGMWZfRTdDNFhnNFRrYUdrMmtncFZoQkpVU3BYZmVGaQ?oc=5">open article</a>]]></description><Point><coordinates>79.6,22.9,0</coordinates></Point></Placemark>
<Placemark><name>Military enlistment papers available; Kingdom looking for 8,500 recruits</name><styleUrl>#Conflict</styleUrl><description><![CDATA[PPST · Fri, 02 Oct 2026 08:58:20 GMT<br/><a href="https://news.google.com/rss/articles/CBMiqgFBVV95cUxQaTNQQXc3eHZOdS1zcUVZWl80cWw3QWtyaXF3REpkdlpfSXNPanJoTHJiWVZ4WDRYMDlEanVMRWVHVUZzRG45VmhDRW85OExMbHFMeW5mTXdHUHc5LUYzenJfcTlNRXJzSm5uaTktZm9SOHdQS2ZtTFVPU0ZsYXdPdnVZOFB2SGJHLW9LUl9PSWlVMTR2QWZsMmpfRkwxSXhyeTl4djQ4LXZmdw?oc=5">open article</a>]]></description><Point><coordinates>104.9,12.5,0</coordinates></Point></Placemark>
<Placemark><name>Young Cambodians Begin Applying for Military Service on First Day of Recruitment</name><styleUrl>#Conflict</styleUrl><description><![CDATA[CNSS · Fri, 02 Oct 2026 08:56:12 GMT<br/><a href="https://news.google.com/rss/articles/CBMiswFBVV95cUxPa3JLQmJzSTh0R0MtMXNBTEg0OEg3RzBlRHEtZTZVVVlHd1p3Rk5oczdtVnU3UkVPcTlrdlRoMWViWkxrMlQ2aUJNR1ZPa04xZGZ2bldJX0ZFaGh3dDd5SFhsNGc0bDRpWDZrbGZRTGNsWnhfd0tqcXFvX0VIdWhOVFlycmx6Um5ZMTRLWUw0SGJuejdpTHFKMEM4SHdhdzQwc21wNFA3dEJISEpVbjhKSjJnOA?oc=5">open article</a>]]></description><Point><coordinates>104.9,12.5,0</coordinates></Point></Placemark>
<Placemark><name>Taiwan receives its first US-made F-16V fighter jets</name><styleUrl>#Conflict</styleUrl><description><![CDATA[MYRP · Fri, 02 Oct 2026 08:52:58 GMT<br/><a href="https://news.google.com/rss/articles/CBMisAFBVV95cUxOWTlBNUZ1RVp0ZERMcWg3Z1NfV0lFWV9FSm9TTUFMQXV0Rm85TGVJNThLdGtwckVfX3NfY3hPYnItaHlGbjNzTDMtRDZGeWM3cWl6ZnRJYXdhR1ZRV1htYmV1aHI2TE5GR05saE1hTU9LSG9VRmNXYzFRWDBKcno3bnpUaTIzd0ZGZmZkVmhhRmhMSlJOYXJEQWM0MGVQWDMtRGMwZlM0SjM4Y0lRcnVEZw?oc=5">open article</a>]]></description><Point><coordinates>121,23.7,0</coordinates></Point></Placemark>
<Placemark><name>PM orders unified data for flood briefings</name><styleUrl>#Nexus</styleUrl><description><![CDATA[TPBS · Fri, 02 Oct 2026 08:39:09 GMT<br/><a href="https://news.google.com/rss/articles/CBMiYEFVX3lxTE96Mlc5NmRBQUxldTdpTngzZHZ0T0RWbThtZm40Qy1rZ3ZaWHVpdjZUalpnY28yLWh6RTdqaHdoV3lhRWpobENlcGV2WGNzUlJOWkZYbG45R2xKa19QNTRucA?oc=5">open article</a>]]></description><Point><coordinates>101,15,0</coordinates></Point></Placemark>
<Placemark><name>Activists call on Pheu Thai, Democrat to back repeal of 1976 coup-era order</name><styleUrl>#Conflict</styleUrl><description><![CDATA[PRAC · Fri, 02 Oct 2026 08:36:52 GMT<br/><a href="https://prachataienglish.com/node/12055">open article</a>]]></description><Point><coordinates>101,15,0</coordinates></Point></Placemark>
<Placemark><name>INS Trishul joins French Navy in Toulon for 24th edition of Exercise Varuna</name><styleUrl>#Conflict</styleUrl><description><![CDATA[TOOM · Fri, 02 Oct 2026 08:03:37 GMT<br/><a href="https://timesofoman.com//article/177570-ins-trishul-joins-french-navy-in-toulon-for-24th-edition-of-exercise-varuna">open article</a>]]></description><Point><coordinates>79.6,22.9,0</coordinates></Point></Placemark>
<Placemark><name>Evacuated in an incubator, now back in Gaza getting to know mama</name><styleUrl>#Nexus</styleUrl><description><![CDATA[BWLD · Fri, 02 Oct 2026 07:55:05 GMT<br/><a href="https://bworldonline.com/world/2026/10/02/784007/evacuated-in-an-incubator-now-back-in-gaza-getting-to-know-mama/">open article</a>]]></description><Point><coordinates>121.8,12.9,0</coordinates></Point></Placemark>
<Placemark><name>Senior Taliban official rejects Pakistan claim of Kandahar militant meeting</name><styleUrl>#Conflict</styleUrl><description><![CDATA[AMU · Fri, 02 Oct 2026 07:54:23 GMT<br/><a href="https://amu.tv/253609/">open article</a>]]></description><Point><coordinates>65.72,31.62,0</coordinates></Point></Placemark>
<Placemark><name>Datamine introduces Expenditure Watch 2.0 platform for mining portfolio compliance - Vietnam Investment Review</name><styleUrl>#Conflict</styleUrl><description><![CDATA[VIR · Fri, 02 Oct 2026 07:47:38 GMT<br/><a href="https://news.google.com/rss/articles/CBMisgFBVV95cUxNT09ZZTVjZjVtZG5WQUQ4V2RPOV9jR0ZCRlpnZzhuRnNfR3IteDJ0dDhLWXVvbEdJSDFmNVMtV21VVENYRG83X2QweHM4a3cyLXYxTldhcWsyNllKWk5JbEV3dlBrcld4VVA3QzZ6OWJmeXgwU0doLTlVTzB3U1h1TmFDOWhWZnFiTUhWYWZMdldoaEthVFAxbE1GNkVJS3JGZ3BfOU5xN2hIeDhWYlNiVzlB?oc=5">open article</a>]]></description><Point><coordinates>107.8,16,0</coordinates></Point></Placemark>
<Placemark><name>Amu findings: At least 14 people died by suicide in Khost in past month</name><styleUrl>#Conflict</styleUrl><description><![CDATA[AMU · Fri, 02 Oct 2026 07:37:54 GMT<br/><a href="https://amu.tv/253604/">open article</a>]]></description><Point><coordinates>67.7,33.9,0</coordinates></Point></Placemark>
<Placemark><name>DSWD readies social protection measures for Filipinos amid strengthening El Niño</name><styleUrl>#Nexus</styleUrl><description><![CDATA[MB · Fri, 02 Oct 2026 06:58:46 GMT<br/><a href="https://news.google.com/rss/articles/CBMirgFBVV95cUxQejBvMDZLN2RueGZYcUlvWE9YMklMaEVKWnp4dWo0T19BQ1J5anhYTmd5QVE4UUJIeDRQeGFWd1dRVlJaNkxReVFTcFdlVlBJSG1mQkRBRzdLTUhfV1cySENVc2JJcU40Z3VQdW1nUV85elZ4dHNUTWI1d0NBRWx6UG13eE1OVjJia0tXXzFleFViTHB6QnVwbzJCeFVpVjViQV9LRUlzMlpXVTh5a2c?oc=5">open article</a>]]></description><Point><coordinates>121.8,12.9,0</coordinates></Point></Placemark>
<Placemark><name>Hun Manet Accuses Critics Abroad of Treason Over Border Conflict Comments</name><styleUrl>#Conflict</styleUrl><description><![CDATA[CBJA · Fri, 02 Oct 2026 06:58:24 GMT<br/><a href="https://cambojanews.com/hun-manet-accuses-critics-abroad-of-treason-over-border-conflict-comments/">open article</a>]]></description><Point><coordinates>101,15,0</coordinates></Point></Placemark>
<Placemark><name>Fact Check: Was Mecca Targeted in a Drone Attack in September 2026?</name><styleUrl>#Conflict</styleUrl><description><![CDATA[TMPO · Fri, 02 Oct 2026 06:35:00 GMT<br/><a href="https://news.google.com/rss/articles/CBMinwFBVV95cUxNbUlUaHVya0lERW03eF9Rel9JQ3NWMmdRQW5tVXdBNEdDa2xzbk5GMk54bUFIaUlFN01jUmRzdHRlWTh0NHlJODBlVTFjTGxZVGJ0NHBsc0E0bEFjbjMzbjVMZENfekNUdmEtY0Myb1R3NFdCTHFSc1ZTYi1TRC1aQXd0NVBjVU5iaDhLaDRzQy1KUW1Sd0ViMXVxTEFraGc?oc=5">open article</a>]]></description><Point><coordinates>118,-2.5,0</coordinates></Point></Placemark>
<Placemark><name>Former Prime Minister Cesar Virata dies at 95</name><styleUrl>#Conflict</styleUrl><description><![CDATA[BWLD · Fri, 02 Oct 2026 06:05:13 GMT<br/><a href="https://bworldonline.com/the-nation/2026/10/02/783978/former-prime-minister-cesar-virata-dies-at-95/">open article</a>]]></description><Point><coordinates>121.8,12.9,0</coordinates></Point></Placemark>
<Placemark><name>She’s pregnant, he’s moving to Singapore: Meet the new 90 Day Fiance couple</name><styleUrl>#Conflict</styleUrl><description><![CDATA[ST · Fri, 02 Oct 2026 05:50:00 GMT<br/><a href="https://news.google.com/rss/articles/CBMiqAFBVV95cUxQUm9GX3pUSVhmbWpvc1ZzUU43REsyazBwLVZtWW1KNkxoX2laaU5IX2lrQjRUTEdYd3JlTmZRc0trRHV3QU9sU3FfZmlNNHY2MEFIbUlFNnQyY2xfYXF1Tm5UR0RMcmdpUndyX2xSX3BpcGZCblNFckctVm1IQWk2WW0xa1ZZMzFYeFVTekREakIzN3pDTlR0cW8tWl96WW5FUl9HelhEd1I?oc=5">open article</a>]]></description><Point><coordinates>103.82,1.35,0</coordinates></Point></Placemark>
<Placemark><name>Myanmar Navy ships with 1,476 returnees from Malaysia enter territorial waters</name><styleUrl>#Conflict</styleUrl><description><![CDATA[DVB · Fri, 02 Oct 2026 04:36:13 GMT<br/><a href="https://english.dvb.no/myanmar-navy-ships-with-1476-returnees-from-malaysia-enter-territorial-waters/">open article</a>]]></description><Point><coordinates>96.2,16.87,0</coordinates></Point></Placemark>
<Placemark><name>‘Wind of Change’: New report exposes the fracturing ranks of Myanmar’s military</name><styleUrl>#Conflict</styleUrl><description><![CDATA[DVB · Fri, 02 Oct 2026 04:09:16 GMT<br/><a href="https://english.dvb.no/wind-of-change-new-report-exposes-the-fracturing-ranks-of-myanmars-military/">open article</a>]]></description><Point><coordinates>96.1,21,0</coordinates></Point></Placemark>
<Placemark><name>Cambodia urges fair debate, verified reporting amid AI misinformation risks</name><styleUrl>#Conflict</styleUrl><description><![CDATA[PPST · Fri, 02 Oct 2026 02:56:27 GMT<br/><a href="https://news.google.com/rss/articles/CBMirwFBVV95cUxPR3lKRVJSaG4tdzhxUHBqVER0OXlwWW9LZ1N1eGtDOXdFNzc1REJNZ1FaSGhLdHdWY0Y2ZFltdHVoNWRKRXpaY04zdUUyZHlrTVNUTzVVWHo0WG9rc0JxMldfUVFLSmhNb3lySjZnNl9NTFRrczBPYVNqVXhDeUE4dk80WS1LQnVFbXdLdXpRU014SXdhT25NTjNNYS1JZHB2ZEZkaTJhT2s4MTRZdXVR?oc=5">open article</a>]]></description><Point><coordinates>104.9,12.5,0</coordinates></Point></Placemark>
<Placemark><name>PM Rebuffs Claims that Frontline Soldiers Face Food Shortages</name><styleUrl>#Conflict</styleUrl><description><![CDATA[CNSS · Fri, 02 Oct 2026 02:54:32 GMT<br/><a href="https://news.google.com/rss/articles/CBMimgFBVV95cUxNdVdzb2VQXzEwZTZIQ0JLM0ZVYmtDY3g5XzFZSl9USTJDYlZMcmE5bzBNQ01LS3Q4MUdzTXk3UXRZUzZnWnoybHZEYlYtT0EzclBSQTN5bnduNERud3JZak9rYkJSV3pXNFRJaDdWSDZGNXhWQjdIUklJbXAzeUE2dkw5V2g4UVg0LUxQdkdGLW04ajdEYlBsbEln?oc=5">open article</a>]]></description><Point><coordinates>104.9,12.5,0</coordinates></Point></Placemark>
<Placemark><name>Death toll rises to 15 after avalanche at Mount Himlung base camp in Nepal</name><styleUrl>#Nexus</styleUrl><description><![CDATA[CGTN · Fri, 02 Oct 2026 01:43:30 GMT<br/><a href="https://news.google.com/rss/articles/CBMipwFBVV95cUxPMmdMUUtfaHNKRUVTSVpobHdvLTVtTGFpQkpLRGV5UE5CX0lHSWR4VWNSeWlJa3pQM211bGRiX3RmV1FhWHgzSVBkbkMyQ2I1VW5ES2J6N0J4cUZaeDVkLUU0cmZaVVl5c1lJdlhhenQ1YlRGcXowYURNamx2b2tfLWRPMWt3QzFtRmMyakVhRXhDVVpockI1Ul9pQlVWWE14X0s0Yk1jOA?oc=5">open article</a>]]></description><Point><coordinates>84,28.2,0</coordinates></Point></Placemark>
<Placemark><name>Oil jumps over $4 as China halts fuel exports, US troops head to Middle East</name><styleUrl>#Conflict</styleUrl><description><![CDATA[NATH · Fri, 02 Oct 2026 00:21:00 GMT<br/><a href="https://news.google.com/rss/articles/CBMiX0FVX3lxTFBueXl4OTVpeDFmUG5wTzA2MVkxQlVZdU4wX1pRWlV3NHlidzhaZnhVNDM2UzhhelBFajNLOURkdWsxNG9vWHBhWWZVaXpGNnN1MmdJQ2ZTTmVwQTZnS29r?oc=5">open article</a>]]></description><Point><coordinates>110,32,0</coordinates></Point></Placemark>
<Placemark><name>Pakistan’s army says Afghan Taliban governor hosted militants plotting attacks</name><styleUrl>#Conflict</styleUrl><description><![CDATA[AP · Thu, 01 Oct 2026 17:27:00 GMT<br/><a href="https://news.google.com/rss/articles/CBMisAFBVV95cUxNMzJleHREZlU2dDhJb0cxdFZGSjlXcEVzUVpYTjFDTGJTR0NURWxZa1VKX25ybGQwWmdaZVhFMk1LQl9Eei1XdnNrNnk3d1luaWw0Yk5VQ2lOV2FvZnZiZTBfaWQ5THk4ZDJLeEtOcUd0LWtTU3ZQbVZVek5YNW5sYS1jdjk2OXp4ZUs2TnV0LW1PcVJ5X2FQcG1rVzkyaFBDX1NQN1hSRzJNdURPRWhVdA?oc=5">open article</a>]]></description><Point><coordinates>67.7,33.9,0</coordinates></Point></Placemark>
<Placemark><name>Cambodia begins 2026 military conscription registration</name><styleUrl>#Conflict</styleUrl><description><![CDATA[KHMT · Thu, 01 Oct 2026 17:05:11 GMT<br/><a href="https://news.google.com/rss/articles/CBMimwFBVV95cUxOM3VYc0hRZnJhOTQ4UUk0Uk5DRm1wVzd3OVJ0YWYzOFp6Snc1S1BfVndDVUVIYWtQbmlTa3JQbURpR3ViVS1ndmJ4dDlNU1RWLXlqbHZoMGtMaG5HMGJvakJhU01qU2RPaC1rbkhKSDdBSWxTckgweTVmRjFoLUNGb2NhY3ljQktFekVfUEZ5WnNRa3JuZ3p6eFpvdw?oc=5">open article</a>]]></description><Point><coordinates>104.9,12.5,0</coordinates></Point></Placemark>
<Placemark><name>Pakistan army presents man it says India wrongly identified as militant killed in Kashmir</name><styleUrl>#Conflict</styleUrl><description><![CDATA[AP · Thu, 01 Oct 2026 16:08:00 GMT<br/><a href="https://news.google.com/rss/articles/CBMiuwFBVV95cUxPX0l0cnlLcWdPNFo0YXliN24wRjM4MV9yNmJuSmNIZjFOM01lM0xTamlFaUxwcGJsZnNrRnF0MHNjWXp0dFhkanptZV9DODI1LUwtRER3aWdvc25uWVA4YURrRFAwVUNnVmd3T1hveXk4dmN3VHB5ajFqUnJDRFZWbW1hNTFTMlpxRDlfenNTUXVRY0xPVzZKYzE3ZEk2ZkwwUXdXY1UzTkM0bW1KcXRwU1VvbFlZdnVVQWVz?oc=5">open article</a>]]></description><Point><coordinates>76,34,0</coordinates></Point></Placemark>
<Placemark><name>At Least 10 Civilians Killed In Pakistani Air Strikes, Says UN</name><styleUrl>#Conflict</styleUrl><description><![CDATA[AFIN · Thu, 01 Oct 2026 15:39:02 GMT<br/><a href="https://news.google.com/rss/articles/CBMiT0FVX3lxTFBSTnc0ZzNrYVN5RDBXSGdpWi1wSzdwX1dabndwUV9GWFJaSFBnN2NYc3puRzBzTFpHTjBYXzVVbW53c0RqUjlSSEVXZnV0RGc?oc=5">open article</a>]]></description><Point><coordinates>67.7,33.9,0</coordinates></Point></Placemark>
<Placemark><name>UNAMA says at least 10 civilians killed in Pakistani airstrikes in Kunar, Helmand</name><styleUrl>#Conflict</styleUrl><description><![CDATA[AMU · Thu, 01 Oct 2026 15:34:15 GMT<br/><a href="https://amu.tv/253566/">open article</a>]]></description><Point><coordinates>69.3,30.4,0</coordinates></Point></Placemark>
<Placemark><name>War and Love in Myanmar by Waso’s Idea [AUDIO]</name><styleUrl>#Conflict</styleUrl><description><![CDATA[DVB · Thu, 01 Oct 2026 14:09:46 GMT<br/><a href="https://english.dvb.no/war-and-love-in-myanmar-by-wasos-idea-audio/">open article</a>]]></description><Point><coordinates>96.1,21,0</coordinates></Point></Placemark>
<Placemark><name>Denmark Buys Dropla 4×4 Ground Drones to Train Military Operators</name><styleUrl>#Conflict</styleUrl><description><![CDATA[DEFP · Thu, 01 Oct 2026 13:43:40 GMT<br/><a href="https://news.google.com/rss/articles/CBMieEFVX3lxTE4zNGJaZ1BzV0VyVDZZV1FRTHNIUU5iWVdySTlFTTlyU2JhYnJOSm5rRVpLRG5oMDhRc3hvMjFoZzV2LXpNaGlEX0NaUV90VURJazRvX0g1OHQ3Rm1yVEpDZGF1ajVPVE0yd1h4SUV1c2owNmxOOUNMOdIBfkFVX3lxTE9LRjlnQjZvbXJtUGdXelVLcVdGbDFkWGdVYmYwemVieUp6Zm1nakZuVnJrX2hPdWljei1uWnd6dkhIX19ZSm1hWkRDeUhaX0JJbXNTckhSNlVuak90ZmY2a3RWY0IyQzVkUHhkdVRTeFg0SEpQcl9xRTZOc2hqZw?oc=5">open article</a>]]></description><Point><coordinates>79.6,22.9,0</coordinates></Point></Placemark>
<Placemark><name>Nimrat Kaur recalls father’s killing by terrorists: ‘Next time I saw him was in coffin’</name><styleUrl>#Conflict</styleUrl><description><![CDATA[IE · Thu, 01 Oct 2026 12:47:21 GMT<br/><a href="https://news.google.com/rss/articles/CBMi5gFBVV95cUxQeDFZd3NfSm1Ecmk3UnVOaUh3UG1hc1ZYNDFZMkZzRndmRVo1UUpOdkw2N01uanI0UXFMQXVxaEdaemlYU1RwVHAwMktwRGlzWC1DNGFxU2lQcmR3eEt5WFVRdXAxVzJoaEFwVzJ0VnJLLWJxRlpCUVpydjhJQk14Y21PWFQ0RHR6TkxBLUVQeURzY2F2dHBFUXg2Y0NUM1J5THRmdWkwRzl6bkg5V200VkxCb005U1hZeGNLSVY1TlRpcWJjWTF5N0xXSXJ0TlBuSk41b2Q4QkNVRkVZaHRka3Z3RVVpUdIB7AFBVV95cUxPSXRiUUdXMjU1Z0lIMmFXVWgydjdPRVMxWHpoOE0xZUYwV0s3Y3N1S3ZiME4wYi1xVmdxZlhGVTBJU0VOdHlLSTVocXlabW1wa3h6OU5CZ2R5Rm1aRFFOcU0zcWROaHI0SDM2aVN5T01vcnAyU0diY2QyQ2lfSFRpSUdfMXowb3hTNkhKa1VsVGdSMVBFZ1YwTEdwa2J3T29UcnVEcWhmT094RFo1UXZObndkb3g0Z1pBenh3eGdfNG5sZzdUNDlhR2VOOHo4Z2RQTGVlaGFSU0R6RnpVQWFCWDdiM1ZIaHVVYV9LLQ?oc=5">open article</a>]]></description><Point><coordinates>79.6,22.9,0</coordinates></Point></Placemark>
<Placemark><name>Finland police investigate suspected intrusions into parliament members' homes</name><styleUrl>#Conflict</styleUrl><description><![CDATA[ST · Thu, 01 Oct 2026 12:12:00 GMT<br/><a href="https://news.google.com/rss/articles/CBMiuwFBVV95cUxNRGxITXJ1MW4xanpSWS1XUFUyUjA2UzJCd0RhVW5jU1dySlppbHNfTm9MMG1yN243SFA0MjdXOVpTczN3TEYxV3duX2h2VmMzbTJwb1gxbzRxUkExM01vSm1kRElYUXY2TXpHd2VGelQ1WmswTEtrLXM2bjQwUHVHQVBCRFJKRnd5VXNhY1ZFYUJPYmFvZlBpZk9YOG5RMmctQlVXVEtGcFNxdnRIdkJ5aTZEWHYzQjdObGow?oc=5">open article</a>]]></description><Point><coordinates>103.82,1.35,0</coordinates></Point></Placemark>
<Placemark><name>Monitoring online harassment of Rohingya</name><styleUrl>#Conflict</styleUrl><description><![CDATA[FRON · Thu, 01 Oct 2026 12:04:06 GMT<br/><a href="https://news.google.com/rss/articles/CBMiggFBVV95cUxOaHlTSEt1dC1LTVdJQlRXUWVia0xGeEswd1I2ZS0zR21fS1Z6WlIwT09pNUJ0dHZxV2ZEZWRLVUJpSkp4M0JySmo5b0lKa0lJSjIybDl1Q2lxN1ZfQjRfVHlLbWFVMVhsQ2hVSGdBTXBLdzhWZ1JXZmtiX1hNaldsU3lR?oc=5">open article</a>]]></description><Point><coordinates>90.4,23.7,0</coordinates></Point></Placemark>
<Placemark><name>Myanmar nationals in Malaysia fear arrest and forced return</name><styleUrl>#Conflict</styleUrl><description><![CDATA[MNOW · Thu, 01 Oct 2026 11:30:12 GMT<br/><a href="https://myanmar-now.org/en/news/myanmar-nationals-in-malaysia-fear-arrest-and-forced-return/">open article</a>]]></description><Point><coordinates>96.2,16.87,0</coordinates></Point></Placemark>
<Placemark><name>Decisions presented to four more military officers for UN peacekeeping missions</name><styleUrl>#Conflict</styleUrl><description><![CDATA[VPLS · Thu, 01 Oct 2026 11:11:09 GMT<br/><a href="https://news.google.com/rss/articles/CBMivAFBVV95cUxPenEyaUdTNjNubm0xMUFMUjRRNW5xSzc1dENEZURhYTctdF9yWGprRWlNY1FWMVYwS0dEQ2RCVDViN0p2aUJNckVKRUFTSjRkdmRpTGR0cFh4eERrZ1Z4dkZ3bmFzdEdZX0NLeGpzSzI1SGxXaDdyMFRaRkdqX0JuQVY3Zzk5X0VOQUV3d1dwWTE4WlVLWXdFbEQ4Ml9PY2JnaFp0ZndldHB4UFg2WHpyQVlHbEdsNUJXQkVHMA?oc=5">open article</a>]]></description><Point><coordinates>107.8,16,0</coordinates></Point></Placemark>
<Placemark><name>Last US troops leave Iraq; Trump blames past decisions</name><styleUrl>#Conflict</styleUrl><description><![CDATA[PJWK · Thu, 01 Oct 2026 11:07:27 GMT<br/><a href="https://news.google.com/rss/articles/CBMijgFBVV95cUxPQVZobkVNczBaLU5wZ01FZkdkV3dLa2dRbjFZVlhRakY0ckFwX09WZTRtdkhreXRRSURTbHN0c3Q4T1lLUnMyU3RPM2tHTUpob0NSTFlfOE9ObURZOGk0Ry1USV9GT0pSbU90V0Rpel9qSm9IdWtIeTNWYkE3dmlHRDZiMEJzRG1ZUlFXS2dn?oc=5">open article</a>]]></description><Point><coordinates>67.7,33.9,0</coordinates></Point></Placemark>
<Placemark><name>French high school blockades continue as protests spread to universities</name><styleUrl>#Conflict</styleUrl><description><![CDATA[ETRB · Thu, 01 Oct 2026 10:50:17 GMT<br/><a href="https://news.google.com/rss/articles/CBMirgFBVV95cUxNRmo1cmVSNzRQdHhSSk1icmRNNkZQNDhkc1JRaGlEN3ladUk2cWxZVXJPSmVicUY3TkxXcFhCN1dqdVo5YUN2a0hsZDJORloyaDFuYjhOQW16ZnhxMFctWVo2WHk1a3hlLUczeTNUWHVWdVhPY1BMeGZLV0lZRHJ1WWdyVlNjczJ3WEJDdTNsdkVHWVpFbGlNcXpEUHpvR3BUNG1FTllQbzZjNTNxZWfSAbYBQVVfeXFMUHVyZkNwVWtRc3dfU3ZwQ0dQcFpSUlJlN0lPeF9QUXRLYWlGSzV0dHlubDZETjUyQWpYMk5SNXdfWGNyRmhhTVBqT0haNXpkVW9uQ0pPQ0k3YzRzek9xUGVUcWJyUERIMGdTenBZWmk1LXY4cHBoNTJzLTlrUU5fQ0h3SF94aEdFd3JuazR4OXBwekFnRTRpYU5RQWswd0FDUXlHNTVLMGF6X0MyeXhzUUgxYlhKNUE?oc=5">open article</a>]]></description><Point><coordinates>69.3,30.4,0</coordinates></Point></Placemark>
<Placemark><name>Myanmar Military Shifts Regional Command to Embattled Karenni’s Loikaw</name><styleUrl>#Conflict</styleUrl><description><![CDATA[IRRA · Thu, 01 Oct 2026 09:19:26 GMT<br/><a href="https://news.google.com/rss/articles/CBMisAFBVV95cUxOU3RIazRNaGhmOEJsS05tTmFKRHlwSHZ2Y3dmYVRwb3NSMDdhUWR4MkZxZ3dXMFQ0Q25rYjhNeG1tZnZsYzFyZWhCT2c3N2E5SThKRTFuTjV4VHFLR081MHkzS3VQU3o2YTB3Z1R3ODllTjVjZUxTZVptNlU0cjJLcnVoMWJENzROMTQ0OWZpN25YeVpsVUE2b1FmZVZIYWJnV0w3ZkpvbUhXbUozZnl3cQ?oc=5">open article</a>]]></description><Point><coordinates>96.1,21,0</coordinates></Point></Placemark>
<Placemark><name>16 Years On, Red Shirt Crackdown Cases Near Expiry with No Progress</name><styleUrl>#Conflict</styleUrl><description><![CDATA[PRAC · Thu, 01 Oct 2026 08:18:34 GMT<br/><a href="https://prachataienglish.com/node/12053">open article</a>]]></description><Point><coordinates>101,15,0</coordinates></Point></Placemark>
<Placemark><name>HOW SCHOOL VIOLENCE IS GLORIFIED (Last of two parts)</name><styleUrl>#Conflict</styleUrl><description><![CDATA[SUN · Thu, 01 Oct 2026 08:01:29 GMT<br/><a href="https://news.google.com/rss/articles/CBMijgFBVV95cUxNWUxuaW1Mei1HUDJwX2hiOE1DNGlNTWlGRGp0VURDQkY3V05OOTdFR0F2WXJvVm5iQ3czQzdxTmVESHV1MjJqUmxPWGwzZG9VeEFtUExXd1BBQmljM2I5RU5BYnFKQmM4VVZ6enh1Z1dIM2NDYjBQTUE3Mjlvak1GdUEwd0hHMlJaSkl3WElR0gGbAUFVX3lxTFBINzV1RnF3MHJvemVZMzE2bkN2R0t2R2FsQVN6VFJvNm5tMFFCNHVXNERsamNLaFNRdU9jaGNlSEtobWQtTkcyelZvbHpoQ3oxblhhNEh3VkhxYjJaSXA4ZW5DeC1EOGVXVmNqWjU4cVpoZWpPM1hXNGlvbmNhMlNpSjU3NllNWlBDM3g5Ym1SRzBndTRHQ1E3b293?oc=5">open article</a>]]></description><Point><coordinates>121.8,12.9,0</coordinates></Point></Placemark>
<Placemark><name>Trump says co-pilot in Flydubai incident may have been a 'terrorist' or 'whack-job’</name><styleUrl>#Conflict</styleUrl><description><![CDATA[ETRB · Thu, 01 Oct 2026 07:02:15 GMT<br/><a href="https://news.google.com/rss/articles/CBMitwFBVV95cUxPbXpJMzU4ZVBiX29fTEdsRERUMWxib3dNNHpBTG8yX2lCYXpmRm90dWJ1eVpVRVRaODUzSFpMRjJmdm9XVDBYNzRtR2dsU0JyZFRWdmE3X3d6dnhvSGhVUUMzbldtajg2ZTF3VVJLN05US0trWldrWGt1bElSVEVHeDdjdVBPaHp3VjlWYkNYNWJwUGppQkFTaWxpa0tjd3pNeFVBMnJUdmNoak9ScGQyMVpvcDBHRXPSAb8BQVVfeXFMUHZwVHMwWlZldS1WQ0dUTm5YMnpDMzFhLXVuSDNkQmlhd3FqbXQwTnp1RVJoeXFIemNRTkRfQkpkekN0aU5mMFl5MmhrRXB1V3k5YzVSYkhXQ3M5aG9IZ1l2dE55WlR4cXFGc2pCUGVuYTZYNzJtYmNWREptS1VCME10N0ctZXd2bzdtZnByRDg3Y2RsTUh0eGdGeWpGZ1FNRGx4ejBRSjZNVUI3WnpCclM3cWtZdHpXcldDdzh3Z3M?oc=5">open article</a>]]></description><Point><coordinates>69.3,30.4,0</coordinates></Point></Placemark>
<Placemark><name>Taliban say Pakistani airstrikes in Afghanistan kill 9 civilians; Islamabad says only militants targeted</name><styleUrl>#Conflict</styleUrl><description><![CDATA[PRTV · Thu, 01 Oct 2026 06:20:00 GMT<br/><a href="https://news.google.com/rss/articles/CBMitgFBVV95cUxQR1FQU0JZd09TcHZzUDRldDlmZUtCb0phaDY2UWtHVmNzVXZ5NW5ad1lDZ2ZZVGtNejVjclFDOWxENWMydGVxTkhkN29Dd3BBdUx6SkVNWWcyT1I1OUQ2aTdHUUh0VkY5VE1FX0llQVowY2NtSFZvRFhHQ0NPcTd0UmtPZmpKYUprSzdDekhsanQ5VDM3VEZ0TlBmQnNxOU9MMnFZalZkMFhPTE5ibnU3VG9wbVlkdw?oc=5">open article</a>]]></description><Point><coordinates>73.06,33.72,0</coordinates></Point></Placemark>
<Placemark><name>KIA captures hill-top outpost as fighting resumes in Mongmit</name><styleUrl>#Conflict</styleUrl><description><![CDATA[MNOW · Thu, 01 Oct 2026 05:07:37 GMT<br/><a href="https://myanmar-now.org/en/news/kia-captures-hill-top-outpost-as-fighting-resumes-in-mongmit/">open article</a>]]></description><Point><coordinates>96.1,21,0</coordinates></Point></Placemark>
<Placemark><name>Thai envoy urges Cambodia to honour ceasefire, stop border provocations</name><styleUrl>#Conflict</styleUrl><description><![CDATA[TPBS · Thu, 01 Oct 2026 04:28:15 GMT<br/><a href="https://news.google.com/rss/articles/CBMib0FVX3lxTE1taXlxZXpzbUNZTjItWldxd1JMNW5iWk8xbmNOdGg5NWlqNEl1X0UxLXBZbUZxbkxXcWZtQkxiM2JmTEpjaDUyV2U1cUJRUWd6Zm5pU1Q4RWt5b0p5ZWxBQWN3YTdSWlF3S0stNDZadw?oc=5">open article</a>]]></description><Point><coordinates>101,15,0</coordinates></Point></Placemark>
<Placemark><name>Alert Sounded as Floodwaters Sweep up Buried Explosives</name><styleUrl>#Nexus</styleUrl><description><![CDATA[CNSS · Thu, 01 Oct 2026 02:53:26 GMT<br/><a href="https://news.google.com/rss/articles/CBMikgFBVV95cUxQc1R1a0NyS3JsX0ZieWlkTU9qMVZGV2djdHFjbms5NGdvMzdScXhpVHpvbUVvT3lKNTEzeDd6ZHNFTU5NTUZUT0ZBWFplRldNSU5jdnBJQUpGbGRDb3VVQ241UmJ4UGFwb0ViM0d5eEtDVGJEdUVLQTJ2M3pOU1JmWTBNbUt5MGp5RVRERENPTXdfQQ?oc=5">open article</a>]]></description><Point><coordinates>104.9,12.5,0</coordinates></Point></Placemark>
<Placemark><name>UNAMA: At Least 10 Civilians Killed in Kunar, Helmand Airstrikes</name><styleUrl>#Conflict</styleUrl><description><![CDATA[8AM · Thu, 01 Oct 2026 02:01:28 GMT<br/><a href="https://news.google.com/rss/articles/CBMijgFBVV95cUxOa2VwVW00TUlkUUF0VUlWZ0JCQVI0VDU0b3M5VWpZMDJKZFhOQVFneExLVTZRM2ZJQXRTcE53bXBVQ0NWckRCVWRwOVJmdFJGWUpwS25IeEJtR0JjQVBvbXZoQjlsSUVNTDh0RVZ0b2M0Q0J3QklwMjFnV3JERW82UDZ2TENpblIyYlRVUFh3?oc=5">open article</a>]]></description><Point><coordinates>67.7,33.9,0</coordinates></Point></Placemark>
<Placemark><name>2003 Iraq invasion</name><styleUrl>#Conflict</styleUrl><description><![CDATA[KHAM · Wed, 30 Sep 2026 22:52:32 GMT<br/><a href="https://news.google.com/rss/articles/CBMiWkFVX3lxTE9fVHpzanNSWEZJcUVHa1dpTHZzTWpsUnN5b1g5OUxMNkpKVEZRMGl1YlloNFpwMFhqMU5oblpOMkZhTUFpZkpHOG5hcEtsc1hmd0I2ckNwVnBhdw?oc=5">open article</a>]]></description><Point><coordinates>67.7,33.9,0</coordinates></Point></Placemark>
<Placemark><name>Passengers overcame pilot who tried to crash flydubai flight, Israel says</name><styleUrl>#Conflict</styleUrl><description><![CDATA[PRNT · Wed, 30 Sep 2026 18:00:26 GMT<br/><a href="https://news.google.com/rss/articles/CBMirgFBVV95cUxPXzNnNWJnUWpac3Jaa2tleEZ6SjZPZWUxaHRLUkxCMzBNZm9Lb01qQzM4UjRaTUNyb29KNTBOX1lpV3NVajBOZkxtYjRjY1c3MWJnUHJOc3cxR0lrX253NWs4UEZBT0NpbndkY2otWjVVSkhOcnFDTkNnUE1HWS1hM0dsdmpabk5IeW56dkpfQ1JUV3A3QVk3YWV1N3RwS05LYjhMc18xT2xNWUthdFHSAbMBQVVfeXFMTzAyVTBfRmQya09VQnJJZ2ZOaTQ0SlMzSDZoWDN2RjMwUnlzSllETnE4UUg0UTh0Qk04cFR1TzNWLWtGOVFhRkZfbXc0YTRGbXpmemNYRXgzSW5ERldQQW5kaHBzRTVYNDhLVU91T2szLTJfelR4RThhWUdyWWMwTjdmQjJwSzdYdzVIOUY4eU5DcGo1d1hxOE9BbXYyUGd1YTJpRXdhVFNWaDQ1RXlMTURHNk0?oc=5">open article</a>]]></description><Point><coordinates>79.6,22.9,0</coordinates></Point></Placemark>
<Placemark><name>U.S. to Transfer Surveillance Aircraft to the Philippine Coast Guard</name><styleUrl>#Conflict</styleUrl><description><![CDATA[USNI · Wed, 30 Sep 2026 14:04:22 GMT<br/><a href="https://news.usni.org/2026/09/30/u-s-to-transfer-surveillance-aircraft-to-the-philippine-coast-guard">open article</a>]]></description><Point><coordinates>120.98,14.6,0</coordinates></Point></Placemark>
<Placemark><name>US Delivers ‘Little Bird’ Military Helicopters to Thailand</name><styleUrl>#Conflict</styleUrl><description><![CDATA[DEFP · Wed, 30 Sep 2026 13:39:37 GMT<br/><a href="https://news.google.com/rss/articles/CBMie0FVX3lxTE1aZGJ1QjI3S2JoaVRUcWZSenAxYzJDdXRWT2RZZG5ianlOM3BWbnV4b3EtTjNXczRGOFU1ZnFLanB4anlOaFJxQ3A0c09IT296dnN5TWRIdTFsXzZiLVlpRURNV3pYLXktd2JiWWJiNHNLRkhaWGt2eFJvd9IBgAFBVV95cUxNVzBGWkNjdEY3TEhZR3YwZ3JrTUZ6RkVDRk1Sc1hZYVlxMTJ4RlM5MUkybzNOcnVuOGY4Q21YS052TlRmd19YTi1kRU1KYUNORFQ5TndpX0lram1KczUzZHBuUlg1Vl9hYmtHN2VzYzFZeWRLUVFZVXJEWllxOXU0bg?oc=5">open article</a>]]></description><Point><coordinates>101,15,0</coordinates></Point></Placemark>
<Placemark><name>Defense ministry mum on alleged Philippines warship donation plan - Focus Taiwan</name><styleUrl>#Conflict</styleUrl><description><![CDATA[FTWN · Wed, 30 Sep 2026 09:38:00 GMT<br/><a href="https://news.google.com/rss/articles/CBMiV0FVX3lxTFBOYURCR25XczlKWjVyWnZ3Q25vcHNkdzk5cUJKZ3ZfQWJXLU14WEJTZXpSWnZ4Zk5aZ1hFZ3VvSXlFQktEZ05Eclk1TkpTaXh0ekthVEVMWQ?oc=5">open article</a>]]></description><Point><coordinates>121.8,12.9,0</coordinates></Point></Placemark>
<Placemark><name>China carves new military presence in Southeast Asian neighbour</name><styleUrl>#Conflict</styleUrl><description><![CDATA[PRNT · Wed, 30 Sep 2026 09:30:03 GMT<br/><a href="https://news.google.com/rss/articles/CBMinwFBVV95cUxNZ1lCdEZkQXVyM05tQVdUNlVHc0NYbUwtTy1rUVhFdXBONUJ5aE5RMTRrdC0yVVBMaGV4d29KSU54MFlPZzM1NTZjZW1yNlZnM2ZoV2I1NldDLW5tWXZHMmZ6aDZFdVoydDBHZ3Fmemc3ZVBIaEg5Zm5XN1h5dkdiX0RhSU56OXdPaUZPUmFqVHJ1MzJHSER5aVVsLTBlTGvSAaQBQVVfeXFMUHZBbDJXYThXWm1ZR1o3RTFuMmZjWDI3ZWVkcFJUQl9xRnUtRDJUYU84R013RHVfTkUtTkFyNkZoOTM1ZlZ2SE03bjlaczJUTWFWRWdtYmROSWRURjFMZlB5T0luV1ZyTkh6RDQwSkcxMWdWalZUWm9MbUpzRlZ3UXdxQ1BFTkZnZzdDelh0WWxLTERBNFZWSHJqaU9ndG1WcmhPNUU?oc=5">open article</a>]]></description><Point><coordinates>110,32,0</coordinates></Point></Placemark>
<Placemark><name>SSPP troops shoot dead two TNLA soldiers in Kyaukme dispute</name><styleUrl>#Conflict</styleUrl><description><![CDATA[MNOW · Wed, 30 Sep 2026 08:45:46 GMT<br/><a href="https://myanmar-now.org/en/news/sspp-troops-shoot-dead-two-tnla-soldiers-in-kyaukme-dispute/">open article</a>]]></description><Point><coordinates>96.1,21,0</coordinates></Point></Placemark>
<Placemark><name>Umar Khalid, Sharjeel Imam denied bail in Delhi riots conspiracy case</name><styleUrl>#Conflict</styleUrl><description><![CDATA[SCRL · Wed, 30 Sep 2026 07:21:00 GMT<br/><a href="https://news.google.com/rss/articles/CBMiowFBVV95cUxOTm1oUi0xSWNFOTd2SUJ1bVhheVM5Rm1uV2tIT0lMa21TS3c2bENPc2pLSXFKeGZ0UjZTWUxfX2o0cXNXOF9GT0VnQ0tMUGdvLTdjWG51WS1LMkw1ekFVd1lRLTdPU1JFb1VFNmNPQl9GTmFEX3dvelR3dThYaDRITGtOQWF0WlRBbmtUcS0zNnRUR0d3U0szU044NG03bjBWbXEw0gGoAUFVX3lxTFAzUmZqSkQ3X1Ntbm50RXlreXhUbHpNR19hSnNRekRpT2RTeklPT2c1Vk8yTzhKRUxmRFVtN2V2U29zcGQwa1dqWmdPWllJQU1ldFEtQkdfcjB4UkxTNUw3cHRXQ1VueHRRU05KaGpLZldFSHBkU0RuZnN4YklDZVlyelV2bzlpN3RiMEZQZDVPLXRISnkyekhkeThiYWszZDVnNmpjNWVZeg?oc=5">open article</a>]]></description><Point><coordinates>77.21,28.61,0</coordinates></Point></Placemark>
<Placemark><name>MoD: Operations against Pakistan-backed militants in Kamdesh conclude</name><styleUrl>#Conflict</styleUrl><description><![CDATA[PJWK · Wed, 30 Sep 2026 07:00:11 GMT<br/><a href="https://news.google.com/rss/articles/CBMiogFBVV95cUxQSHpKTDFMejlSaklOd2lfdDJTTWxDNWoxTXRmNXJDY255Umhtem1mNnVOQ3pEWkdzSWFpbThMLW9BczRQLWc2eGNHV0JIenBOMEUzaUlfeXIxaXI0MXoxVEMwQzJNb1Nzbzl6dTZER1g2Q2QzNnduMWV6MDdmaUVSajhwaTQyOW1ScDh5VVVLWkFQb21tUFpkVHJOaFl6Y3J1SFE?oc=5">open article</a>]]></description><Point><coordinates>69.3,30.4,0</coordinates></Point></Placemark>
<Placemark><name>US Senator Calls for End to Military Aid to Israel</name><styleUrl>#Conflict</styleUrl><description><![CDATA[8AM · Wed, 30 Sep 2026 04:40:49 GMT<br/><a href="https://news.google.com/rss/articles/CBMiaEFVX3lxTE5GT3h3a0FmOHVGcmpuTDhGY3FnbkUtSkkzOHZWbGdTYjhwRnRIWWlCaTlGR21OR1pxbU0yeGVxZVFsQUIzLUF6S3pGVzY1RnR1Y0FLanQ2djZuaHlxWXVGR0ZHcVhyZ0JC?oc=5">open article</a>]]></description><Point><coordinates>67.7,33.9,0</coordinates></Point></Placemark>
<Placemark><name>Belgian company faces legal action over Myanmar beer awards</name><styleUrl>#Conflict</styleUrl><description><![CDATA[MNOW · Wed, 30 Sep 2026 04:39:55 GMT<br/><a href="https://myanmar-now.org/en/news/belgian-company-faces-legal-action-over-myanmar-beer-awards/">open article</a>]]></description><Point><coordinates>96.1,21,0</coordinates></Point></Placemark>
<Placemark><name>379 more detained in Cumilla as crackdown against adolescent gangs continue</name><styleUrl>#Conflict</styleUrl><description><![CDATA[NAGE · Wed, 30 Sep 2026 04:07:00 GMT<br/><a href="https://news.google.com/rss/articles/CBMivwFBVV95cUxOMzIzLWQySDJCOVo4a2VpQWIteE5BWVBmeWNObUlWZzZDOEhYTmQ4d053R0pxY3Z1eTR3Q292ZmlXSHFQeEhQUEFmWURVeGlDREZSMV9IS3NLS3VlT1hGaHFYTm9EVkdYUGgxa25NNHg0aVB4dmRpWTFKQU9ndm5oalhOaERBak4waGRZUmlUZXJLSFgtWW05Q3Y1LXp5dDk0TnpXWElWVGVoY0JLN04yNHJUZWI5ODdjWEppaER1cw?oc=5">open article</a>]]></description><Point><coordinates>90.4,23.7,0</coordinates></Point></Placemark>
<Placemark><name>'Leave our children alone,' says family of Indian sailor killed in Strait of Hormuz</name><styleUrl>#Conflict</styleUrl><description><![CDATA[NATL · Wed, 30 Sep 2026 02:36:47 GMT<br/><a href="https://news.google.com/rss/articles/CBMiqgFBVV95cUxNLTFQZ1FDSHo4QV9hZE1CV3FoVHFYTHVld0lteVRyNFhzN0dhT1l0aVZLenowbUhhZDZaSWlEbzYzY1hKX0xOdzlSQWNJTXhJTGNWNEpLT281NDNFMmdkOWFtUXlWT0RrM0pYMC1UcDA2cVYxeUNJamZGaWp1NWdLd3Y2ME1XRXBHNm51NnhBQWZxbEdSZ3MyN3cxeFYyRTZ3Ny01ZFY0OHVfQQ?oc=5">open article</a>]]></description><Point><coordinates>79.6,22.9,0</coordinates></Point></Placemark>
<Placemark><name>Repatriation of verified Myanmar Nationals from Malaysian Detention Camps</name><styleUrl>#Conflict</styleUrl><description><![CDATA[GNLM · Wed, 30 Sep 2026 00:00:22 GMT<br/><a href="https://news.google.com/rss/articles/CBMinwFBVV95cUxQV1BOdDRYaHJiSWgxZ3FUN0xZVEt4eTFtNnF0cFlJNW1PM0wwWUlIZVFDNlUxTXJrZGxETmE3X2xmeS1uaGVULUtocWY3YkNESERjc2REN1BVUVc1VmRaa3lSUjVMOUJ4bE83MHJkanJ3VkMyemVjU0JtcjRTUVJ2NUNEU2pIN3l5SWd4NjkxVmJzVWVCb2RJaUdCbnhjUHM?oc=5">open article</a>]]></description><Point><coordinates>102.3,4,0</coordinates></Point></Placemark>
<Placemark><name>Seerist and Janes Bring Real-Time Global Risk Signals and Validated Military Intelligence into One Workflow</name><styleUrl>#Conflict</styleUrl><description><![CDATA[JANE · Tue, 29 Sep 2026 13:22:07 GMT<br/><a href="https://news.google.com/rss/articles/CBMi6AFBVV95cUxOUzVONVJmNGx5anV4MDY0X0hfNzZReERhdFZlN0lKRFU2SWNDMGRUdDIxTHdYUXA1RjZYaDZOTFNWSThzWlhmaU5zTFN0NG5QczZIQWJhVmNZcUI1eVZMc2g0ZU5HaV9rWUN4NWxvbDdfNUNST3NRTlRzOGp1VlJ2VG16QWoyYWRnVUdWRFF4bHFTTmdoYmNLV0lKMFE4MUxwa0FfV3h6UG1zdDl4ZU9vQnk0WXJBalI5a3BtRUNKT2xLMGthMUE5UzdqQV9wVFZhVmoyZnBBb3dGQnBtZlg3Yk1vcV9FMHBE?oc=5">open article</a>]]></description><Point><coordinates>115.19,-8.4,0</coordinates></Point></Placemark>
<Placemark><name>World News in Brief: Deadly Myanmar strikes as Malaysia begins deportations, new emergency funding released, Gaza and West Bank update</name><styleUrl>#Conflict</styleUrl><description><![CDATA[UN · Tue, 29 Sep 2026 12:00:00 GMT<br/><a href="https://news.un.org/feed/view/en/story/2026/09/1168488">open article</a>]]></description><Point><coordinates>93,20.5,0</coordinates></Point></Placemark>
<Placemark><name>Two US warships to bring over 5,000 personnel to Phuket in October</name><styleUrl>#Conflict</styleUrl><description><![CDATA[NATH · Tue, 29 Sep 2026 11:17:00 GMT<br/><a href="https://news.google.com/rss/articles/CBMiYkFVX3lxTFBpUkVVZzh6Z3dtQ3gwX2FGYkZhakpYZEdmVTJRME5GOVRGamF0eXZYeGZyMWRHcTBRTUpQb1l1cXAtellpXzdwazJ0eXZROFZvaFZhbXN1cWQ3dzQzMTdmSjBR?oc=5">open article</a>]]></description><Point><coordinates>98.39,7.88,0</coordinates></Point></Placemark>
<Placemark><name>US aircraft carrier, destroyer to bring 5,000 sailors to Phuket</name><styleUrl>#Conflict</styleUrl><description><![CDATA[KHAO · Tue, 29 Sep 2026 10:17:10 GMT<br/><a href="https://news.google.com/rss/articles/CBMiswFBVV95cUxPTE9IWjYtYmNJVWxJajdtZ190SGE4dmtobFppZU15U3hrbWE5WDJPV19jQjhVNV9DZEF5cm1KSHMzVVZtc182TTZGQlRCaldHNV9KWldBcHFiZ2ZrVXZWWjRtc0lkVWl6UmRGT1RzMHZYbzRYN2ZDbkUwb191dERDUl9PSjF2R1hPQUNBc0VaSFVLSzV2YS1LcWVCTWZqVlhRSDgyZWhyR3pKa2VwcWxYS25jUdIBuAFBVV95cUxPdENvd2dNVlFpNGlDSmVjRlA4RjAtOXM1akFiVDVLT2I4THBXNUd3UWl2Z0VJaEVRT2hIbGtLaGo2MnpOeVpmVVBNRHJmYm1PbFdfdWx2Zk4xby1BTFlKeC1aVVhfbGVfbTRaV3pvdkFMRFNGVXdiQWlUMG5FXzVpS1FVcTIyOURaYy00YWpFSnN6U09UQlNicG85clBZWEhHTTZVb3BTeU1fdjVxcHdIRUFjNDk3WFg5?oc=5">open article</a>]]></description><Point><coordinates>98.39,7.88,0</coordinates></Point></Placemark>
<Placemark><name>Myanmar airstrike death toll rises to 50: local aid workers</name><styleUrl>#Conflict</styleUrl><description><![CDATA[ARAB · Tue, 29 Sep 2026 10:09:07 GMT<br/><a href="https://news.google.com/rss/articles/CBMingFBVV95cUxOUllCRDNlUkNzeEJoaEJlZF9RXzNMbk5NOFJISmcxcnh3UG90UmdKZVM5WTc5NnVCS0RHazVobF9hV0hWRHpDRk8wdVR5Y0dxSWt0cEpOQWVBUW9ZMHhtdDQ5S3FUZEVrRDZnWjE4Zl9wSVFGbmN4R2tXUU55d1VnX19YbkFfTHdUODRfQUpQUTg0TkhmRWxFZW83TFYwZw?oc=5">open article</a>]]></description><Point><coordinates>96.1,21,0</coordinates></Point></Placemark>
<Placemark><name>Kyauktaw market airstrike death toll reaches 49; Arakan Army vows retaliation</name><styleUrl>#Conflict</styleUrl><description><![CDATA[MNOW · Tue, 29 Sep 2026 09:20:44 GMT<br/><a href="https://myanmar-now.org/en/news/kyauktaw-market-airstrike-death-toll-reaches-49-arakan-army-vows-retaliation/">open article</a>]]></description><Point><coordinates>93,20.5,0</coordinates></Point></Placemark>
<Placemark><name>Myanmar airstrike death toll rises to 50 - Asia &amp; Pacific</name><styleUrl>#Conflict</styleUrl><description><![CDATA[JKPT · Tue, 29 Sep 2026 08:29:58 GMT<br/><a href="https://news.google.com/rss/articles/CBMikgFBVV95cUxPSTJoMEREd2pLVTRoUmVFdEZTWW1MdUFqR3VGS05qMGxkekV0M1huemU2YmUxOHRsY2E3MDJTMEo2QkRGREpyUUVQS2Nhc1JqQ25hWXJJX1ZMZXFfTkdBMmF2R2Z1UUhYUjhUSmZoZGtrZnMxRUh4eGpWVUozVWJWUjU3bTZZVnBwZG54LXJ4S2NMQQ?oc=5">open article</a>]]></description><Point><coordinates>96.1,21,0</coordinates></Point></Placemark>
<Placemark><name>38 Opposition Fighters Have Been Killed In Nuristan, Says Taliban</name><styleUrl>#Conflict</styleUrl><description><![CDATA[AFIN · Tue, 29 Sep 2026 07:49:09 GMT<br/><a href="https://news.google.com/rss/articles/CBMiT0FVX3lxTFB2QWFoQk5LcTFKYjlHYWhKWDAtcjZyb2owVjBteGhjdVFwR1JaMFo5WXYyTVB1akphQUFiQ2lVbE9heS1fbFBIQkloV3BTRTg?oc=5">open article</a>]]></description><Point><coordinates>67.7,33.9,0</coordinates></Point></Placemark>
<Placemark><name>3,000 Young Cambodians Sign Up for Military Service on First Day</name><styleUrl>#Conflict</styleUrl><description><![CDATA[CNSS · Tue, 29 Sep 2026 07:00:00 GMT<br/><a href="https://news.google.com/rss/articles/CBMinAFBVV95cUxPN2NMeUNSTkoxNGFxWHVhbmc0T1Z2c3llR1RodE9tT05hZXBWTk5HZnR4eDZxM3o2VHBUVFpjSzUxX1lxZk4yeWMtT0R6ZmtLMHdXOVVLV3d6Umxkckk1RGt6OVJoY2d1UWZ6Q2g1MmhtVTZxXzQ5SlZYWGdIZjFpakhMWnBERUFPSmhGZllMMmswZmJPWFBBbVJZSUY?oc=5">open article</a>]]></description><Point><coordinates>104.9,12.5,0</coordinates></Point></Placemark>
<Placemark><name>Malaysia starts sending Myanmar migrants home</name><styleUrl>#Conflict</styleUrl><description><![CDATA[MNOW · Tue, 29 Sep 2026 05:20:03 GMT<br/><a href="https://myanmar-now.org/en/news/malaysia-starts-sending-myanmar-migrants-home/">open article</a>]]></description><Point><coordinates>96.1,21,0</coordinates></Point></Placemark>
<Placemark><name>Prabowo, Erdogan Talk Defense as Jakarta Awaits Fighter Jets</name><styleUrl>#Conflict</styleUrl><description><![CDATA[JKGL · Tue, 29 Sep 2026 02:31:00 GMT<br/><a href="https://news.google.com/rss/articles/CBMikgFBVV95cUxPd0xZUEFpeUxUcWl4NHdfaDZpN0dhM1FDTmNpS2JoaFcwXzRycFBUMkJEcFRjeW1ndVM4ZkJNYUlXUkpNblZNRTRiMV9kbXFYWWRMQUx3ZVN0dkJUX1ZPZXBpSTE2ZVNRV0FyOUJxT25HQmZRcndJcWwxMGlVNUVXTlFBc05jSDFYQTVSbXpQV1JSUQ?oc=5">open article</a>]]></description><Point><coordinates>106.85,-6.2,0</coordinates></Point></Placemark>
<Placemark><name>India, Brazil, South Africa Warn Military Escalation Could Jeopardise Iran War Diplomacy</name><styleUrl>#Conflict</styleUrl><description><![CDATA[WIRE · Mon, 28 Sep 2026 20:24:02 GMT<br/><a href="https://news.google.com/rss/articles/CBMitgFBVV95cUxQUVQ2N2xSYXktVk1GTEx3LWpGU2F4YmstWndsU2FfZkVoVE5TeTFCZXk5S2F6RnZCZUtGSUFnMGpWRnFMaVAzOElNRTg2bG4zT003SmR6cWZSN3oxMTFWUDVVdEEwZ3NQT01DczYyeDBhZTVEQW9YOEtXbk1FSkFwLV9MYU5mRFBGMnJBd3gxSUxuaDdyZUxpQ1A2YjlCRlp1WFdtTGc0YnR3cEtqRXFrR183c0ZQQdIBuwFBVV95cUxNVkxFTVBfcTcwbFJ4cEZHaml0RWlqNGpxTF83TTBVaUJBbWZqZTB1SGViM2RYR1kxZVZDT2xocHU4SlF5eEVHeGZRb3pVODBYM1lqZFlXNWRrMkFCdmJYSTBMUVpnMnVHVjVJRUUtYTNoNmd5SnM2cGhoQXBpMmJkTzhqSWpueXhTWWgzaGQ0WVp5SjRLa3picHF4T3FmMW9Xclo0bWxaOGgwRVEtb3dseWxYRE1HVUU4WEc0?oc=5">open article</a>]]></description><Point><coordinates>79.6,22.9,0</coordinates></Point></Placemark>
<Placemark><name>China Claims Expanded Zone Around Scarborough Shoal, Deploys New Drone</name><styleUrl>#Conflict</styleUrl><description><![CDATA[USNI · Mon, 28 Sep 2026 18:51:50 GMT<br/><a href="https://news.usni.org/2026/09/28/china-claims-expanded-zone-around-scarborough-shoal-deploys-new-drone">open article</a>]]></description><Point><coordinates>117.77,15.15,0</coordinates></Point></Placemark>
<Placemark><name>Man charged over audio clip allegedly insulting frontline soldiers</name><styleUrl>#Conflict</styleUrl><description><![CDATA[KHMT · Mon, 28 Sep 2026 17:04:48 GMT<br/><a href="https://news.google.com/rss/articles/CBMiqgFBVV95cUxQUFB3Z2N0azNEazktQTRMcFVuTTZkZzJjVFQzQ2ZkTzYyMThsRFlnN1Y4SE1oTk1WZDh4aW5PU2FFdTVlM3V2NHB4cjRCaWI5SHJWR29Ea0JkeGVXZm1xLTFkSU91bC1OSENQNXBPaVh0bkZxMy00VVplUktrYk9xWGRjSFhIcXAybWFBNlV3dnNsVjZyc3hPaEo0WE9kb3NhamtfNEhaYjZoQQ?oc=5">open article</a>]]></description><Point><coordinates>104.9,12.5,0</coordinates></Point></Placemark>
<Placemark><name>Royal Thai Air Force to procure Indra's long-range radar</name><styleUrl>#Conflict</styleUrl><description><![CDATA[JANE · Mon, 28 Sep 2026 15:55:07 GMT<br/><a href="https://news.google.com/rss/articles/CBMixAFBVV95cUxNcUVObE1PSDYtdE5sX3FmZGx6SWhmby1GVHc5UlExdHJlR3JlWW8tWGZmMENjTnNfMTVEdk5fSTZjcFNNbS1ZcVJXV3VReXh5TkltbGp5eXZEbnRrRWNwbTNETXJzMnFwQXpmNDJlc3BrSDdvckVOakxjbHJnX19jckw0d0tLUlBhSXdvRE9NTnRBcVVjSXhUVm1QNmJ1eWNNa1M3UndTbUdWOW1TcjFhc25nU0ZEdG52THh3eTlTaGUtcWFH?oc=5">open article</a>]]></description><Point><coordinates>101,15,0</coordinates></Point></Placemark>
<Placemark><name>Philippine Army inducts six Kunduz combat engineering vehicles</name><styleUrl>#Conflict</styleUrl><description><![CDATA[JANE · Mon, 28 Sep 2026 15:55:07 GMT<br/><a href="https://news.google.com/rss/articles/CBMi0AFBVV95cUxPRV8yR0JFRVc0QVI0bFJ0cEZhMXUwcnpXNUZ5ejY5LUtnTnRldjVOWURpNkRTa0V5QW53UlQ1amhwQTNmc2lqMnJqYy12c2RadW55R0lLTDU5Z1QtUDJ1YVhBTlludUQtMkpzWEhuR0E5eEJIWjI5N2NidzVoQmstNW9IemtEcGtYVmJKTnVtdWx1Y3ViT0NtMVpLTW1MWjRUUWd4RTJCRUdpbV9yTWJxdWtHU0Y0Y3RTeEM2NjRTbTRncUVCcERFLUZmVWpMYS0z?oc=5">open article</a>]]></description><Point><coordinates>121.8,12.9,0</coordinates></Point></Placemark>
<Placemark><name>Two high-capacity hydropower projects resume power generation</name><styleUrl>#Conflict</styleUrl><description><![CDATA[RSNP · Mon, 28 Sep 2026 15:40:05 GMT<br/><a href="https://news.google.com/rss/articles/CBMiUEFVX3lxTE16ajVDeGJhemRieDQ3SzJQbTJXUm05T1RhS0Q0WnlPZzI5SEtRcVUzdkhPOENKOTNsNVhvZnhjUEQ4bEZHQnlsS3JONlFfS0RG?oc=5">open article</a>]]></description><Point><coordinates>84,28.2,0</coordinates></Point></Placemark>
<Placemark><name>Myanmar Regime Intensifies Airstrikes Along Kachin-Sagaing Supply Route</name><styleUrl>#Conflict</styleUrl><description><![CDATA[IRRA · Mon, 28 Sep 2026 10:58:35 GMT<br/><a href="https://news.google.com/rss/articles/CBMiswFBVV95cUxNSlF0bTdVN3ktVkdtdEJNODkxVl9hS0VIWHpQb2FzeHgyVkIxdjFzMXpvaXEzNUEtaVlQVV9jd0ZvRFNGN2toek5lYmliNE1adnZGRGFlSmdNc3o5WHdlNEFTQXpuVG9QWUp5cG8tVnAxcW5MX1hhaFNRWHN6OFMtYUx4TVhRZlV2RFBVRUF2aHZtRGIydU5VX3IxNnpLb1Fnb3c4bmdfcjdjaC10MURUOTU5UQ?oc=5">open article</a>]]></description><Point><coordinates>95.98,21.88,0</coordinates></Point></Placemark>
<Placemark><name>Airstrikes by Myanmar’s military kill eight civilians near Sagaing-Kachin border</name><styleUrl>#Nexus</styleUrl><description><![CDATA[MNOW · Mon, 28 Sep 2026 10:00:13 GMT<br/><a href="https://myanmar-now.org/en/news/airstrikes-by-myanmars-military-kill-eight-civilians-near-sagaing-kachin-border/">open article</a>]]></description><Point><coordinates>95.98,21.88,0</coordinates></Point></Placemark>
<Placemark><name>Pakistan Protests To Taliban Over Alleged Incursion Of 23 Drones</name><styleUrl>#Conflict</styleUrl><description><![CDATA[AFIN · Mon, 28 Sep 2026 08:51:40 GMT<br/><a href="https://news.google.com/rss/articles/CBMiT0FVX3lxTE9MMWt4THRReGhKZTUwTTE1OHdRaktSTGVhZ0FwMThNcWNkMV9ad2djX1htdUprTjVlQlQ2bGsyZS1yb1Juem42VXZlMXJ1NUE?oc=5">open article</a>]]></description><Point><coordinates>67.7,33.9,0</coordinates></Point></Placemark>
<Placemark><name>Thai Air Force to deploy personnel to support Thai Airways amid floods</name><styleUrl>#Nexus</styleUrl><description><![CDATA[NATH · Mon, 28 Sep 2026 07:26:00 GMT<br/><a href="https://news.google.com/rss/articles/CBMiYkFVX3lxTFB2d2IxUzJ6QWVuU3JrcEZHWS05THJSa2JiTktIY3dUdS01V0lYNUg2UXVfWWpzTWowdm95Sm9hMmZWZlVnY25wc1BnM09ySTNnb2t5Q2lwblQyNHE1SVc2amtn?oc=5">open article</a>]]></description><Point><coordinates>101,15,0</coordinates></Point></Placemark>
<Placemark><name>South African tavern shooting death toll rises to 18 after one more victim dies</name><styleUrl>#Conflict</styleUrl><description><![CDATA[BREC · Mon, 28 Sep 2026 07:09:20 GMT<br/><a href="https://news.google.com/rss/articles/CBMiuwFBVV95cUxOcUkwYnpvb2NpekZLMFdkVXNrck41amhHa2ZaUDgzcHdIWU5LcHAxOTI5ektPelhLaFVZRktTZkFTazFxWFZiakhnbnpOUGlRVEZJTjZDelJBUkk1TExnSEdCT2FiU0hrWklaVTlsb1NuWnJFUy1LSktNYjlxQTdIS0ZOV21ZQkFIeU9tdGJSdFJhMzBrMFY0TTRQVmFjcnR2T3FRUzNJUU80TkFIeHFRaHpzMkd1Z1hualZN0gFWQVVfeXFMTUlyaFJPdEp0THk5ZXJqLXRDSTF5WVlJeGxvZmdOVi16UkUzVUVjc1N6c3ZSNWd1MURRUlA3QzhFS2JRRVlMRHN6cXprRGUxRE9FdldobGc?oc=5">open article</a>]]></description><Point><coordinates>69.3,30.4,0</coordinates></Point></Placemark>
<Placemark><name>2 Filipino tourists killed in Germany bus crash</name><styleUrl>#Conflict</styleUrl><description><![CDATA[PNA · Mon, 28 Sep 2026 04:38:42 GMT<br/><a href="https://news.google.com/rss/articles/CBMiUEFVX3lxTE9HLUFFV25wb29VRURTRi11ZDdOVFU3cGszak0yOF8yRmZTMV93dXhMSklEMDBLdTRtd0xVR3pmRzNVNmkxSGFiTktyU0VrX3Qz?oc=5">open article</a>]]></description><Point><coordinates>121.8,12.9,0</coordinates></Point></Placemark>
<Placemark><name>Casualties feared in avalanche on Manang's Mt Himlung</name><styleUrl>#Nexus</styleUrl><description><![CDATA[RSNP · Sun, 27 Sep 2026 13:18:04 GMT<br/><a href="https://news.google.com/rss/articles/CBMiUEFVX3lxTFBwRXQzODBHcFFDeTBuT1o3czJ3OEdRVjRJN0lxcEFSME1zWDROM01YTGFZUXUyQWVxREhUT0pOcGk1ZDJDVUpyNWhmMFVUMnhN?oc=5">open article</a>]]></description><Point><coordinates>84,28.2,0</coordinates></Point></Placemark>
<Placemark><name>Russia Says It Struck Ukrainian Logistics, Telecom and Port Infrastructure in Overnight Drone Attacks</name><styleUrl>#Conflict</styleUrl><description><![CDATA[KHAM · Sun, 27 Sep 2026 11:42:39 GMT<br/><a href="https://news.google.com/rss/articles/CBMiwgFBVV95cUxPV2ptS2RqRUx3V1VZT21zWkx1ZC1RUlJkcFZkVzA4dFEyMFczQ0w2MERMMkxtY0lHeEpLTGlseFRudVhLVVNOOGxvYm1TZnB2a05uVnJuMkdmcDlIOG9ucUtKdTFKQnNrUFN1RU9hR2JkRWNGemZQak9ZUjh4SHFXamJnTnVxYXBFb1dDdGlFM2Y4eERhdFBTdV9WRDR4alVTNkwtSG84eXVzX1d2MFB2aWdhWFdtdEJ5aHJUdHhmeG4xZw?oc=5">open article</a>]]></description><Point><coordinates>67.7,33.9,0</coordinates></Point></Placemark>
<Placemark><name>Pakistan-supported armed groups heavily defeated in Nuristan’s Kamdesh: MoD</name><styleUrl>#Conflict</styleUrl><description><![CDATA[PJWK · Sun, 27 Sep 2026 11:42:23 GMT<br/><a href="https://news.google.com/rss/articles/CBMiqAFBVV95cUxQekZVblhsMW8xUjc3S3ZLemJ5OFI4d3ZvN0g1X1VBUzhNeXEtMllfS2t4NGpia0s5czVIQzd2SE5yU21vY3dIdnQxcEhQTExlOHBkeXI1YTJES29haUpsRllTZFlwekZRcnItc0ZpTU83YXlzQ20tcnhFeGJLQUVxdFNPWHY0WUxLOXp6NlZjc2JkTEd4Y3ZPT2xxZlY4RlJfTk96Y2JMQTQ?oc=5">open article</a>]]></description><Point><coordinates>69.3,30.4,0</coordinates></Point></Placemark>
<Placemark><name>Pakistan Navy's new submarine conducts first live anti-ship missile firing</name><styleUrl>#Conflict</styleUrl><description><![CDATA[XINH · Sun, 27 Sep 2026 11:16:00 GMT<br/><a href="https://news.google.com/rss/articles/CBMijAFBVV95cUxQcU9sMFhiOFNLOXkwSjFZOUdac1dnR0xFUU9qbVNsOHRObGt6LUE4TjZZcERiX2ZKc1hyMUtzTFFuNUtUcGgtaEJfbU1ZcDZFSUJUc1pYWGRmUFlhYWhKZlhkcm51T3o2ekczSnQ1S0NNZS1QX0Y5RWxqbEV6Z21JYk1qWXJfY0kxUVQzYw?oc=5">open article</a>]]></description><Point><coordinates>69.3,30.4,0</coordinates></Point></Placemark>
<Placemark><name>Security forces kill over 70 India-backed terrorists in Balochistan operations: ISPR</name><styleUrl>#Conflict</styleUrl><description><![CDATA[GEO · Sun, 27 Sep 2026 10:02:00 GMT<br/><a href="https://news.google.com/rss/articles/CBMitwFBVV95cUxNenhSQzU3SFloYUZ5Qno2SF9kcTRsb0pVZTFuY2ZNSHhBNFVDWHMtMDR3X2NaT1VWVEx2aWl2WlFWWnlaYWI3eVlUb2ZUb0gzc2ZPdWxtU3MyRTBCdnVzVUllQU5aZFdPRXNRNUt6THNoUVBSVWRkV1RfR0RVQm8wUGc0LWhSV2FXUXBKRW1WRUZVSlYtdnlkei15QjcxN3R3UjJrZTRNd09TU2J2RGNOME4tTV9kWlE?oc=5">open article</a>]]></description><Point><coordinates>65.5,28.5,0</coordinates></Point></Placemark>
<Placemark><name>Four Americans Among Six Killed in Explosion in Athens</name><styleUrl>#Conflict</styleUrl><description><![CDATA[KHAM · Sun, 27 Sep 2026 06:20:00 GMT<br/><a href="https://news.google.com/rss/articles/CBMihAFBVV95cUxQWU1UM2xadTdHdld6QmtxbXFlVmx1ZXFTbnRTRjZEdlF6eXQzZVVNdVdzMnVONEFabUVLRHhBR19ZbkRyMVdjd2l0SXRaYnVKTVY0ejRVSklIRXQtVkV3bmowWlRwbWJUWFhmUF95aTNSUTBNbnc0VGRCQ2ZmR3Z0RnZNQVU?oc=5">open article</a>]]></description><Point><coordinates>67.7,33.9,0</coordinates></Point></Placemark>
<Placemark><name>Four persons buried in landslide</name><styleUrl>#Nexus</styleUrl><description><![CDATA[RSNP · Sun, 27 Sep 2026 05:07:12 GMT<br/><a href="https://news.google.com/rss/articles/CBMiUEFVX3lxTE5XWVhaaXpXVjdGN1JzbTN4YWh6UEJDSkkxdUhrSEhQX002S0ZhV3ZIS0poWWx3OThQWEx5LWY2T2dpYW1RSEVpbTJKaFVBSGNx?oc=5">open article</a>]]></description><Point><coordinates>84,28.2,0</coordinates></Point></Placemark>
<Placemark><name>China and US agree to establish AI safety channel and continue trade and military talks</name><styleUrl>#Conflict</styleUrl><description><![CDATA[MB · Sun, 27 Sep 2026 01:01:21 GMT<br/><a href="https://news.google.com/rss/articles/CBMitwFBVV95cUxQQnA4Mlh6WERfR3FtbXlPN0F6Umc0MDBPMFI3cXptWVNmRmk1dmpkSnIwdFByUGtzWkw4VDBoMm5ZVnpBQllPWmVtcnZiR1UySlNwWU9vRjhOVmluSWozNWx6MUFuenJBczIwa1cyX2Zqa1FpVUYtaURGZ1hoSHFicXV5VGtBYW5TN0tZNkN3cTdBcUpYOUxVNDc3LXhlRy1ULUVhcTlsSk1BQ2dRSkx2N3dJaE9sRmM?oc=5">open article</a>]]></description><Point><coordinates>110,32,0</coordinates></Point></Placemark>
<Placemark><name>Crackdown targets black market tickets for Myitkyina flights</name><styleUrl>#Conflict</styleUrl><description><![CDATA[GNLM · Sat, 26 Sep 2026 22:18:49 GMT<br/><a href="https://news.google.com/rss/articles/CBMijgFBVV95cUxNaXZWb19pVXp2eFZEWVBiNjV6OW16ajFaeTF0aF9LeDJtZkpRcjBvRlF5eGw0ZWlzSVVmLTJmZ2pxcE9zb2pZaGpTVEhud1FaUVdVSkhwWHJhdlEwakwtRDBpcVlNNzd6Q0JjY3VlUXd6SkFrSlpBaFBEeW53VXYwVkk1WTFneWR6UjI3OFF3?oc=5">open article</a>]]></description><Point><coordinates>96.1,21,0</coordinates></Point></Placemark>
<Placemark><name>Death toll from Java Sea ferry sinking jumps to 64</name><styleUrl>#Conflict</styleUrl><description><![CDATA[JKPT · Sat, 26 Sep 2026 16:07:37 GMT<br/><a href="https://news.google.com/rss/articles/CBMipAFBVV95cUxPV0g2NVFHT2lwS1BUYlh0YkZNc0tlNkVjUEdlZWVvNFZSOTk1N0xfMlNOdG1TQnM1TkZ2aWJ3SE9pUXZHMWozbTZ5NkE3NzZERU80QU0wajlBSU5kSTZJVzNUY2NrNEhGRlY4UkRMSEluLTU4Zk0wLWdTWV9aakVsMXJ2SlBIcDI4NG9CelJpOHRzOVpRd2lVME5Zek9BbHB5OTRtcw?oc=5">open article</a>]]></description><Point><coordinates>118,-2.5,0</coordinates></Point></Placemark>
<Placemark><name>Cambodia to distribute military service application forms from October 1</name><styleUrl>#Conflict</styleUrl><description><![CDATA[KHMT · Sat, 26 Sep 2026 12:34:34 GMT<br/><a href="https://news.google.com/rss/articles/CBMisgFBVV95cUxNV04ycTQzemkyUDk0QzhvTUlHcXFGM2xFdXlRQ042T1pxZ216VGtUWnZwUERzbHZ5eFN1ZHAyQWpjZzE0N0hfdWYyYUNoOWpRYzVPcHdOTFA0T1F6Y0VwaW9ud1dQVFV1Nzk4bWdoeFV0Z1Z2dmdDdWgwOG5aWUZtSGJGRjFCcndMSUE3QTdPTno1aU9EaXl2QUJzNm5sYWYxTTVyWHpzanVyUVRGNDlzd0x3?oc=5">open article</a>]]></description><Point><coordinates>104.9,12.5,0</coordinates></Point></Placemark>
<Placemark><name>Canals full, roads submerged as Bangkok declares flood disaster</name><styleUrl>#Nexus</styleUrl><description><![CDATA[JKPT · Sat, 26 Sep 2026 09:27:39 GMT<br/><a href="https://news.google.com/rss/articles/CBMirwFBVV95cUxNUlRBbXluY3ZvWE1lSkJWa1JwWEdBUi1pbGlGT1dydVhUUUlyMkY5b3B2eU4tWlNYOXNfNlk2RnRrSmtHaHlhTndRcUNCNnk5SkFESlZjVjBYM19JWEtza0hYbVZDd0ZiUm8yS0pIc1RWYXBFVHp6UkxIeDNudTNoOS0zbzEtOG03Q1pBR1ROclpJVW1oMExId0ZaTTJOY2NUOGVTNjJYa2NxYi1JeE9V?oc=5">open article</a>]]></description><Point><coordinates>100.5,13.76,0</coordinates></Point></Placemark>
<Placemark><name>Army chief Sigdel to visit UK on seven-day official trip</name><styleUrl>#Conflict</styleUrl><description><![CDATA[KTMP · <br/><a href="https://kathmandupost.com/national/2026/10/01/army-chief-sigdel-to-visit-uk-on-seven-day-official-trip">open article</a>]]></description><Point><coordinates>84,28.2,0</coordinates></Point></Placemark>
<Placemark><name>Eight more bodies recovered from Himlung avalanche as death toll reaches 15</name><styleUrl>#Nexus</styleUrl><description><![CDATA[KTMP · <br/><a href="https://kathmandupost.com/gandaki-province/2026/10/01/eight-more-bodies-recovered-from-himlung-avalanche-as-death-toll-reaches-15">open article</a>]]></description><Point><coordinates>84,28.2,0</coordinates></Point></Placemark></Document></kml>