<?xml version="1.0" encoding="UTF-8"?>
<kml xmlns="http://www.opengis.net/kml/2.2"><Document><name>IP Terminal — Nexus</name><Style id="Conflict"><IconStyle><color>ff3a47b0</color><scale>0.9</scale><Icon><href>http://maps.google.com/mapfiles/kml/shapes/placemark_circle.png</href></Icon></IconStyle></Style><Style id="Climate"><IconStyle><color>ff6b7d2e</color><scale>0.9</scale><Icon><href>http://maps.google.com/mapfiles/kml/shapes/placemark_circle.png</href></Icon></IconStyle></Style><Style id="Nexus"><IconStyle><color>ff8a4a5b</color><scale>0.9</scale><Icon><href>http://maps.google.com/mapfiles/kml/shapes/placemark_circle.png</href></Icon></IconStyle></Style><Style id="Other"><IconStyle><color>ff9aa0a7</color><scale>0.9</scale><Icon><href>http://maps.google.com/mapfiles/kml/shapes/placemark_circle.png</href></Icon></IconStyle></Style><Placemark><name>8 more bodies recovered from Himlung avalanche</name><styleUrl>#Nexus</styleUrl><description><![CDATA[OKHB · Thu, 01 Oct 2026 14:51:13 GMT<br/><a href="https://english.onlinekhabar.com/more-bodies-recovered-himlung.html">open article</a>]]></description><Point><coordinates>85.32,27.71,0</coordinates></Point></Placemark>
<Placemark><name>Malacañang: Prepare for El Niño, but don't hoard water</name><styleUrl>#Nexus</styleUrl><description><![CDATA[PSTA · Thu, 01 Oct 2026 10:26:00 GMT<br/><a href="https://www.philstar.com/headlines/2026/10/01/2560260/malacaang-prepare-el-nio-dont-hoard-water">open article</a>]]></description><Point><coordinates>121.8,12.9,0</coordinates></Point></Placemark>
<Placemark><name>Death toll rises to 34 as floods, landslides devastate villages in southern Myanmar</name><styleUrl>#Nexus</styleUrl><description><![CDATA[MNOW · Thu, 01 Oct 2026 09:33:54 GMT<br/><a href="https://myanmar-now.org/en/news/death-toll-rises-to-34-as-floods-landslides-devastate-villages-in-southern-myanmar/">open article</a>]]></description><Point><coordinates>96.1,21,0</coordinates></Point></Placemark>
<Placemark><name>4 more bodies found on Himlung, death toll reaches 11</name><styleUrl>#Nexus</styleUrl><description><![CDATA[OKHB · Thu, 01 Oct 2026 09:13:24 GMT<br/><a href="https://english.onlinekhabar.com/4-more-bodies-found-on-himlung-death-toll-reaches-11.html">open article</a>]]></description><Point><coordinates>85.32,27.71,0</coordinates></Point></Placemark>
<Placemark><name>Alert Sounded as Floodwaters Sweep up Buried Explosives</name><styleUrl>#Nexus</styleUrl><description><![CDATA[CNSS · Thu, 01 Oct 2026 02:53:26 GMT<br/><a href="https://news.google.com/rss/articles/CBMikgFBVV95cUxQc1R1a0NyS3JsX0ZieWlkTU9qMVZGV2djdHFjbms5NGdvMzdScXhpVHpvbUVvT3lKNTEzeDd6ZHNFTU5NTUZUT0ZBWFplRldNSU5jdnBJQUpGbGRDb3VVQ241UmJ4UGFwb0ViM0d5eEtDVGJEdUVLQTJ2M3pOU1JmWTBNbUt5MGp5RVRERENPTXdfQQ?oc=5">open article</a>]]></description><Point><coordinates>104.9,12.5,0</coordinates></Point></Placemark>
<Placemark><name>Trekkers helicoptered off mountains as more deadly landslides hit Nepal</name><styleUrl>#Nexus</styleUrl><description><![CDATA[BBC · Wed, 30 Sep 2026 22:01:16 GMT<br/><a href="https://www.bbc.co.uk/news/articles/c607l4l3vn0eo?at_medium=RSS&at_campaign=rss">open article</a>]]></description><Point><coordinates>84,28.2,0</coordinates></Point></Placemark>
<Placemark><name>At Least 13 Killed in Floods in Resistance-Held Dawei</name><styleUrl>#Nexus</styleUrl><description><![CDATA[IRRA · Mon, 28 Sep 2026 11:41:09 GMT<br/><a href="https://news.google.com/rss/articles/CBMimwFBVV95cUxQakwyazNybDc2b2hpcWRwUFNFb1ZwR09jQWFCTUVfbk9HSEdOT3RhNUd4ZUQwOFdwYktmMlE1dTV6VTBINGd6S3V1cEgybHBvc2hYOHBmUWFNSVVnVTBNYUpNZjZqZFl3a2VpM0VZUGxURnI0MWFFV25RX2ZBbnY0LVFBa0FEOUxzU2dzSW9aN29pUV9JX2ZESnlxaw?oc=5">open article</a>]]></description><Point><coordinates>96.1,21,0</coordinates></Point></Placemark>
<Placemark><name>Airstrikes by Myanmar’s military kill eight civilians near Sagaing-Kachin border</name><styleUrl>#Nexus</styleUrl><description><![CDATA[MNOW · Mon, 28 Sep 2026 10:00:13 GMT<br/><a href="https://myanmar-now.org/en/news/airstrikes-by-myanmars-military-kill-eight-civilians-near-sagaing-kachin-border/">open article</a>]]></description><Point><coordinates>95.98,21.88,0</coordinates></Point></Placemark>
<Placemark><name>Thai Air Force to deploy personnel to support Thai Airways amid floods</name><styleUrl>#Nexus</styleUrl><description><![CDATA[NATH · Mon, 28 Sep 2026 07:26:00 GMT<br/><a href="https://news.google.com/rss/articles/CBMiYkFVX3lxTFB2d2IxUzJ6QWVuU3JrcEZHWS05THJSa2JiTktIY3dUdS01V0lYNUg2UXVfWWpzTWowdm95Sm9hMmZWZlVnY25wc1BnM09ySTNnb2t5Q2lwblQyNHE1SVc2amtn?oc=5">open article</a>]]></description><Point><coordinates>101,15,0</coordinates></Point></Placemark>
<Placemark><name>Casualties feared in avalanche on Manang's Mt Himlung</name><styleUrl>#Nexus</styleUrl><description><![CDATA[RSNP · Sun, 27 Sep 2026 13:18:04 GMT<br/><a href="https://news.google.com/rss/articles/CBMiUEFVX3lxTFBwRXQzODBHcFFDeTBuT1o3czJ3OEdRVjRJN0lxcEFSME1zWDROM01YTGFZUXUyQWVxREhUT0pOcGk1ZDJDVUpyNWhmMFVUMnhN?oc=5">open article</a>]]></description><Point><coordinates>84,28.2,0</coordinates></Point></Placemark>
<Placemark><name>Four persons buried in landslide</name><styleUrl>#Nexus</styleUrl><description><![CDATA[RSNP · Sun, 27 Sep 2026 05:07:12 GMT<br/><a href="https://news.google.com/rss/articles/CBMiUEFVX3lxTE5XWVhaaXpXVjdGN1JzbTN4YWh6UEJDSkkxdUhrSEhQX002S0ZhV3ZIS0poWWx3OThQWEx5LWY2T2dpYW1RSEVpbTJKaFVBSGNx?oc=5">open article</a>]]></description><Point><coordinates>84,28.2,0</coordinates></Point></Placemark>
<Placemark><name>Anutin orders unified flood response in emergency meeting from London</name><styleUrl>#Nexus</styleUrl><description><![CDATA[NATH · Sat, 26 Sep 2026 11:10:00 GMT<br/><a href="https://news.google.com/rss/articles/CBMiYkFVX3lxTE9Fc2hTa3QtcDdwRWdCQmd4WWwwNDd4OFJaOEc5bmNpRDhnOHRKR2hTcjhTUjBRcWJFYWl3Q3ZHdnJyZzZuRzhRSGpUZmtRVVp1OVF3aXpFYmdDeWtOaHI0aHN3?oc=5">open article</a>]]></description><Point><coordinates>101,15,0</coordinates></Point></Placemark>
<Placemark><name>Canals full, roads submerged as Bangkok declares flood disaster</name><styleUrl>#Nexus</styleUrl><description><![CDATA[JKPT · Sat, 26 Sep 2026 09:27:39 GMT<br/><a href="https://news.google.com/rss/articles/CBMirwFBVV95cUxNUlRBbXluY3ZvWE1lSkJWa1JwWEdBUi1pbGlGT1dydVhUUUlyMkY5b3B2eU4tWlNYOXNfNlk2RnRrSmtHaHlhTndRcUNCNnk5SkFESlZjVjBYM19JWEtza0hYbVZDd0ZiUm8yS0pIc1RWYXBFVHp6UkxIeDNudTNoOS0zbzEtOG03Q1pBR1ROclpJVW1oMExId0ZaTTJOY2NUOGVTNjJYa2NxYi1JeE9V?oc=5">open article</a>]]></description><Point><coordinates>100.5,13.76,0</coordinates></Point></Placemark>
<Placemark><name>Eight more bodies recovered from Himlung avalanche as death toll reaches 15</name><styleUrl>#Nexus</styleUrl><description><![CDATA[KTMP · <br/><a href="https://kathmandupost.com/gandaki-province/2026/10/01/eight-more-bodies-recovered-from-himlung-avalanche-as-death-toll-reaches-15">open article</a>]]></description><Point><coordinates>84,28.2,0</coordinates></Point></Placemark></Document></kml>